{
"type": "FeatureCollection",
"name": "Viewpoints",
"crs": { "type": "name", "properties": { "name": "urn:ogc:def:crs:EPSG::3857" } },
"features": [
{ "type": "Feature", "properties": { "fid": 1001, "ID": "a38d9673-2a73-4fae-8318-825ee8dbc450", "Name": "1001.JPG", "Date": "2025-11-03", "Time": "13:28:10", "Altitude": 92.844448094612346, "Azimuth": 336.95980861244021 }, "geometry": { "type": "Point", "coordinates": [ 3342224.541834046132863, 8344517.421757066622376 ] } },
{ "type": "Feature", "properties": { "fid": 1002, "ID": "afb2901d-f164-446a-b8d7-bef1db1260fc", "Name": "1002.JPG", "Date": "2025-11-03", "Time": "15:13:46", "Altitude": 87.201564828614011, "Azimuth": 10.96958160133639 }, "geometry": { "type": "Point", "coordinates": [ 3338467.818240581545979, 8343797.436908619478345 ] } },
{ "type": "Feature", "properties": { "fid": 1003, "ID": "7e1a8890-e5fa-479b-bd7c-f89fa30d42f3", "Name": "1003.JPG", "Date": "2025-11-03", "Time": "15:18:32", "Altitude": 117.67293930559237, "Azimuth": 354.13558956671699 }, "geometry": { "type": "Point", "coordinates": [ 3337520.365685607306659, 8343180.62593331746757 ] } },
{ "type": "Feature", "properties": { "fid": 1004, "ID": "602dbcce-b4a2-406d-bebc-df1b74082adb", "Name": "1004.JPG", "Date": "2025-11-03", "Time": "15:26:59", "Altitude": 125.96908182386009, "Azimuth": 345.91075896580486 }, "geometry": { "type": "Point", "coordinates": [ 3336930.990826018620282, 8343219.90390210878104 ] } },
{ "type": "Feature", "properties": { "fid": 1005, "ID": "7a762ec4-5a9a-4fc0-9e72-bc805b5cc265", "Name": "1005.JPG", "Date": "2025-11-03", "Time": "11:10:16", "Altitude": 96.67416014144986, "Azimuth": 16.715055467511885 }, "geometry": { "type": "Point", "coordinates": [ 3349514.113156159408391, 8345785.084884006530046 ] } },
{ "type": "Feature", "properties": { "fid": 1006, "ID": "a7f7fcb8-4d86-464a-9f47-4efd88f6fc16", "Name": "1006.JPG", "Date": "2025-11-03", "Time": "11:41:40", "Altitude": 105.67013167013167, "Azimuth": 310.66763678696157 }, "geometry": { "type": "Point", "coordinates": [ 3347739.185719622299075, 8345703.432226232253015 ] } },
{ "type": "Feature", "properties": { "fid": 1007, "ID": "3cf9e2fb-ffcf-4196-b36c-75fa6d75e874", "Name": "1007.JPG", "Date": "2025-11-03", "Time": "12:59:06", "Altitude": 100.69247051708497, "Azimuth": 316.0732459521974 }, "geometry": { "type": "Point", "coordinates": [ 3344185.310976047068834, 8345270.01293614692986 ] } },
{ "type": "Feature", "properties": { "fid": 1008, "ID": "20bfe9ff-0465-4690-bf59-859c1f51abcd", "Name": "1008.JPG", "Date": "2025-11-03", "Time": "13:08:08", "Altitude": 102.16469957081546, "Azimuth": 301.85263835263834 }, "geometry": { "type": "Point", "coordinates": [ 3343658.707940433640033, 8345118.383583190850914 ] } },
{ "type": "Feature", "properties": { "fid": 101, "ID": "80669103-d3b4-497c-a044-5589cf993f91", "Name": "101.jpg", "Date": "2026-01-31", "Time": "17:05:00", "Altitude": 32.655657142857144, "Azimuth": 177.52536005009392 }, "geometry": { "type": "Point", "coordinates": [ 3291890.197188637219369, 8444397.818725597113371 ] } },
{ "type": "Feature", "properties": { "fid": 102, "ID": "706718fb-5ebb-4e05-b2bb-fce10285177b", "Name": "102.jpg", "Date": "2026-01-31", "Time": "17:02:20", "Altitude": 26.949414062500001, "Azimuth": 170.86163328197227 }, "geometry": { "type": "Point", "coordinates": [ 3291648.386516969185323, 8444379.152539329603314 ] } },
{ "type": "Feature", "properties": { "fid": 1201, "ID": "cfa8c05f-bf26-48ab-9800-a99d41ffbc13", "Name": "1201.JPG", "Date": "2026-04-11", "Time": "13:23:47", "Altitude": 66.31063046479521, "Azimuth": 12.88928507755393 }, "geometry": { "type": "Point", "coordinates": [ 3326248.030359557829797, 8363531.265490123070776 ] } },
{ "type": "Feature", "properties": { "fid": 1202, "ID": "31afe859-6133-4b40-9aaf-02612c896a08", "Name": "1202.JPG", "Date": "2026-04-11", "Time": "13:29:21", "Altitude": 64.950383219039935, "Azimuth": 44.308120733021916 }, "geometry": { "type": "Point", "coordinates": [ 3326223.601915744598955, 8363564.49777053669095 ] } },
{ "type": "Feature", "properties": { "fid": 1203, "ID": "1388eab9-6afa-48f3-b1a7-f05eb8effc6e", "Name": "1203.JPG", "Date": "2026-04-11", "Time": "13:32:04", "Altitude": 65.410902333264502, "Azimuth": 69.451835696110507 }, "geometry": { "type": "Point", "coordinates": [ 3326261.32685429090634, 8363511.57235755585134 ] } },
{ "type": "Feature", "properties": { "fid": 1204, "ID": "f5eed3dc-a349-4a2b-988d-bf79847b4632", "Name": "1204.JPG", "Date": "2026-04-11", "Time": "13:45:56", "Altitude": 56.972294654498043, "Azimuth": 127.3043213633597 }, "geometry": { "type": "Point", "coordinates": [ 3326218.963603627867997, 8364423.665726345963776 ] } },
{ "type": "Feature", "properties": { "fid": 1205, "ID": "1c8c7d60-52d0-42e9-8bde-d17c186b95bc", "Name": "1205.JPG", "Date": "2026-04-11", "Time": "14:28:42", "Altitude": 57.312099969521491, "Azimuth": 17.307947162342412 }, "geometry": { "type": "Point", "coordinates": [ 3321811.330209829844534, 8370375.966718275099993 ] } },
{ "type": "Feature", "properties": { "fid": 1206, "ID": "56450b27-2fcf-4dba-9046-bf72006da191", "Name": "1206.jpg", "Date": "2026-04-11", "Time": "14:33:00", "Altitude": 57.38727569331158, "Azimuth": 52.27412031782066 }, "geometry": { "type": "Point", "coordinates": [ 3322211.771155877970159, 8370325.45632010884583 ] } },
{ "type": "Feature", "properties": { "fid": 1207, "ID": "e0459cce-c356-40a2-8cfc-0e0df85b9854", "Name": "1207.jpg", "Date": "2026-04-11", "Time": "14:34:48", "Altitude": 55.424770351599619, "Azimuth": 20.184131621434613 }, "geometry": { "type": "Point", "coordinates": [ 3322309.794151938054711, 8370239.835825660265982 ] } },
{ "type": "Feature", "properties": { "fid": 1208, "ID": "23474936-cb0c-43c1-ad9b-2d9969291260", "Name": "1208.JPG", "Date": "2026-04-11", "Time": "17:00:17", "Altitude": 59.176302349336055, "Azimuth": 29.771999339607067 }, "geometry": { "type": "Point", "coordinates": [ 3306877.820519912522286, 8378794.476540462113917 ] } },
{ "type": "Feature", "properties": { "fid": 1301, "ID": "1d793203-0b2b-4150-852a-2875efeae7cb", "Name": "1301.JPG", "Date": "2026-04-11", "Time": "17:20:16", "Altitude": 65.455913759788473, "Azimuth": 22.68208695652174 }, "geometry": { "type": "Point", "coordinates": [ 3305557.756891589146107, 8379714.013135278597474 ] } },
{ "type": "Feature", "properties": { "fid": 1302, "ID": "71717a0b-ede1-4f19-a81b-2e66f0eed976", "Name": "1302.JPG", "Date": "2026-04-11", "Time": "17:23:54", "Altitude": 59.587663625545417, "Azimuth": 36.845920533818621 }, "geometry": { "type": "Point", "coordinates": [ 3305520.959615465253592, 8379934.200890322215855 ] } },
{ "type": "Feature", "properties": { "fid": 1303, "ID": "8cd8549d-b21c-4cf9-9855-c5a417f2476a", "Name": "1303.JPG", "Date": "2026-04-11", "Time": "17:25:46", "Altitude": 63.655108215033742, "Azimuth": 40.81653596669571 }, "geometry": { "type": "Point", "coordinates": [ 3305547.243384124711156, 8379900.894757290370762 ] } },
{ "type": "Feature", "properties": { "fid": 1304, "ID": "d7edeeb4-4270-4460-906b-ad2bc23cab5a", "Name": "1304.JPG", "Date": "2026-04-11", "Time": "18:25:56", "Altitude": 43.724050968940801, "Azimuth": 17.8421630859375 }, "geometry": { "type": "Point", "coordinates": [ 3300108.358596450649202, 8381338.129577657207847 ] } },
{ "type": "Feature", "properties": { "fid": 1305, "ID": "694b3c3f-74bd-4925-bdbc-0fdeb449e6f3", "Name": "1305.JPG", "Date": "2026-04-11", "Time": "18:36:09", "Altitude": 62.721113445378151, "Azimuth": 79.025077796082741 }, "geometry": { "type": "Point", "coordinates": [ 3298676.975477333646268, 8381765.653065009042621 ] } },
{ "type": "Feature", "properties": { "fid": 1306, "ID": "1f3af3f5-60c9-4b19-8303-03d49d79eeed", "Name": "1306.JPG", "Date": "2026-04-11", "Time": "18:36:30", "Altitude": 63.598095715359563, "Azimuth": 58.296985583224114 }, "geometry": { "type": "Point", "coordinates": [ 3298672.955606832168996, 8381745.29424140509218 ] } },
{ "type": "Feature", "properties": { "fid": 201, "ID": "6132e7af-95cf-402a-b14e-2d049abb5179", "Name": "201.jpg", "Date": "2026-03-22", "Time": "14:42:50", "Altitude": 4.172507730820203, "Azimuth": 132.6671142578125 }, "geometry": { "type": "Point", "coordinates": [ 3336995.308754032943398, 8416403.948737623170018 ] } },
{ "type": "Feature", "properties": { "fid": 301, "ID": "2c164dea-0beb-4a41-8a68-8a228dbb9f2a", "Name": "301.jpg", "Date": "2026-05-31", "Time": "14:01:52", "Altitude": 59.166197110289744, "Azimuth": 198.62582396277628 }, "geometry": { "type": "Point", "coordinates": [ 3385253.854116955306381, 8422541.09552788361907 ] } },
{ "type": "Feature", "properties": { "fid": 302, "ID": "b0474fea-008c-4ec3-8257-e07118877e77", "Name": "302.jpg", "Date": "2026-05-31", "Time": "14:01:52", "Altitude": 59.166197110289744, "Azimuth": 198.62582396277628 }, "geometry": { "type": "Point", "coordinates": [ 3385253.854116955306381, 8422541.09552788361907 ] } },
{ "type": "Feature", "properties": { "fid": 303, "ID": "7cc27aac-c088-4df7-b20c-9735cdbf2dda", "Name": "303.jpg", "Date": "2026-05-31", "Time": "14:37:37", "Altitude": 51.758374274229567, "Azimuth": 173.93742381145876 }, "geometry": { "type": "Point", "coordinates": [ 3385025.339940021280199, 8422320.870879298076034 ] } },
{ "type": "Feature", "properties": { "fid": 304, "ID": "af86aae2-8a53-4c46-99b0-832c91224a0b", "Name": "304.jpg", "Date": "2026-05-31", "Time": "15:07:40", "Altitude": 65.877517772511851, "Azimuth": 157.77940379403793 }, "geometry": { "type": "Point", "coordinates": [ 3381127.920879025943577, 8422394.69192842207849 ] } },
{ "type": "Feature", "properties": { "fid": 305, "ID": "c65bf957-10e9-499c-9bba-3b283b660332", "Name": "305.jpg", "Date": "2026-05-31", "Time": "15:12:08", "Altitude": 65.174284950547985, "Azimuth": 167.13774104683196 }, "geometry": { "type": "Point", "coordinates": [ 3380840.963969425298274, 8422303.501328324899077 ] } },
{ "type": "Feature", "properties": { "fid": 306, "ID": "b8ccf4ab-8e83-442f-810a-276f6e441488", "Name": "306.jpg", "Date": "2026-05-31", "Time": "15:24:17", "Altitude": 53.874963652224487, "Azimuth": 158.02964793082148 }, "geometry": { "type": "Point", "coordinates": [ 3380426.917307836003602, 8422234.643869038671255 ] } },
{ "type": "Feature", "properties": { "fid": 307, "ID": "653e203f-49eb-49eb-8281-408f24e95e74", "Name": "307.jpg", "Date": "2026-05-31", "Time": "15:32:21", "Altitude": 48.950558365944453, "Azimuth": 214.0465087890625 }, "geometry": { "type": "Point", "coordinates": [ 3380110.584421498700976, 8422559.086001690477133 ] } },
{ "type": "Feature", "properties": { "fid": 308, "ID": "70b59e3e-17e9-4128-b560-0532d4f5baf0", "Name": "308.jpg", "Date": "2026-05-31", "Time": "18:43:03", "Altitude": 79.38255578093306, "Azimuth": 135.77871705619094 }, "geometry": { "type": "Point", "coordinates": [ 3374137.98451963160187, 8424181.51131359860301 ] } },
{ "type": "Feature", "properties": { "fid": 309, "ID": "2eaaa55f-e6e0-4c9d-8b78-02fe3d48c437", "Name": "309.jpg", "Date": "2026-05-31", "Time": "19:00:15", "Altitude": 83.688200747463966, "Azimuth": 195.00453172205437 }, "geometry": { "type": "Point", "coordinates": [ 3375405.789831443689764, 8423825.353654343634844 ] } },
{ "type": "Feature", "properties": { "fid": 310, "ID": "9bb322f4-5f14-44d2-a7b0-578913ec1f61", "Name": "310.jpg", "Date": "2026-05-31", "Time": "20:38:42", "Altitude": 58.859638178415473, "Azimuth": 160.23537445936716 }, "geometry": { "type": "Point", "coordinates": [ 3373173.524820231366903, 8416638.253202335909009 ] } },
{ "type": "Feature", "properties": { "fid": 311, "ID": "365a7401-7f6d-450b-8422-fb3321229e05", "Name": "311.jpg", "Date": "2026-05-31", "Time": "21:33:21", "Altitude": 50.546384113811499, "Azimuth": 186.45112607383331 }, "geometry": { "type": "Point", "coordinates": [ 3370315.706114921253175, 8417178.793544925749302 ] } },
{ "type": "Feature", "properties": { "fid": 312, "ID": "51c09dab-f474-4a98-9c87-8f5d9ee82138", "Name": "312.jpg", "Date": "2026-05-31", "Time": "12:43:17", "Altitude": 55.088751495811728, "Azimuth": 157.63944993553932 }, "geometry": { "type": "Point", "coordinates": [ 3387359.647817794699222, 8422137.251986438408494 ] } },
{ "type": "Feature", "properties": { "fid": 313, "ID": "4598f879-154f-4a53-b4b5-f0be32d560a4", "Name": "313.jpg", "Date": "2026-05-31", "Time": "12:44:20", "Altitude": 54.127659710133841, "Azimuth": 172.7525635309853 }, "geometry": { "type": "Point", "coordinates": [ 3387317.903008747380227, 8422175.091991506516933 ] } },
{ "type": "Feature", "properties": { "fid": 601, "ID": "a8a97f16-1eb9-4575-ae20-c0882bcb75aa", "Name": "601.jpg", "Date": "2026-04-05", "Time": "13:24:33", "Altitude": 54.443983342491109, "Azimuth": 289.99417098445593 }, "geometry": { "type": "Point", "coordinates": [ 3413056.515384190715849, 8395682.029750302433968 ] } },
{ "type": "Feature", "properties": { "fid": 602, "ID": "8246a494-344d-4df7-95ce-71107c847969", "Name": "602.jpg", "Date": "2026-04-05", "Time": "13:28:04", "Altitude": 62.350208896534774, "Azimuth": 276.76766969909028 }, "geometry": { "type": "Point", "coordinates": [ 3412982.611611136235297, 8395190.655716456472874 ] } },
{ "type": "Feature", "properties": { "fid": 603, "ID": "7b28fa7f-93ff-409c-96a0-c407bfcb5854", "Name": "603.jpg", "Date": "2026-04-05", "Time": "17:04:14", "Altitude": 62.249148049981066, "Azimuth": 74.437667817414649 }, "geometry": { "type": "Point", "coordinates": [ 3418970.672553391661495, 8388470.465755696408451 ] } },
{ "type": "Feature", "properties": { "fid": 604, "ID": "a4e853e0-774a-4a7e-913b-188091300e89", "Name": "604.jpg", "Date": "2026-04-05", "Time": "15:03:08", "Altitude": 62.974799732977303, "Azimuth": 252.33808906182446 }, "geometry": { "type": "Point", "coordinates": [ 3409772.281184981577098, 8389220.144556548446417 ] } },
{ "type": "Feature", "properties": { "fid": 605, "ID": "696fa473-f57c-4ab1-ab8e-a4249280c52b", "Name": "605.jpg", "Date": "2026-06-02", "Time": "21:28:28", "Altitude": 35.3896875, "Azimuth": 216.42045594577942 }, "geometry": { "type": "Point", "coordinates": [ 3408583.636399955488741, 8388455.645856289193034 ] } },
{ "type": "Feature", "properties": { "fid": 606, "ID": "a9957fb9-3b05-4cab-b1ab-cf920844f570", "Name": "606.jpg", "Date": "2026-06-02", "Time": "21:45:25", "Altitude": 47.361177406523467, "Azimuth": 228.03384418901661 }, "geometry": { "type": "Point", "coordinates": [ 3407849.236981527879834, 8387962.283717908896506 ] } },
{ "type": "Feature", "properties": { "fid": 607, "ID": "a1b8900b-446c-4cdf-8352-d1ac3ff2c4d8", "Name": "607.jpg", "Date": "2026-06-02", "Time": "22:20:31", "Altitude": 115.8858261017526, "Azimuth": 266.92849740932644 }, "geometry": { "type": "Point", "coordinates": [ 3409486.160210461355746, 8388156.860162563621998 ] } },
{ "type": "Feature", "properties": { "fid": 608, "ID": "b96689ca-03fd-4676-a738-40d7f817f9fc", "Name": "608.jpg", "Date": "2026-06-02", "Time": "22:28:09", "Altitude": 98.573443320915374, "Azimuth": 312.78076171875 }, "geometry": { "type": "Point", "coordinates": [ 3408018.753203900996596, 8387142.604499479755759 ] } },
{ "type": "Feature", "properties": { "fid": 609, "ID": "8a42d877-8694-4a74-9fc4-6299684be9ad", "Name": "609.jpg", "Date": "2026-06-02", "Time": "22:39:37", "Altitude": 43.583858926502771, "Azimuth": 284.60067763794774 }, "geometry": { "type": "Point", "coordinates": [ 3407524.86435418901965, 8387113.950967747718096 ] } },
{ "type": "Feature", "properties": { "fid": 611, "ID": "6c05d780-defd-4b86-9195-ba9d152ff613", "Name": "611.jpg", "Date": "2026-06-02", "Time": "22:03:39", "Altitude": 46.005846153846157, "Azimuth": 261.87881468376827 }, "geometry": { "type": "Point", "coordinates": [ 3408023.01907548867166, 8387381.899959800764918 ] } },
{ "type": "Feature", "properties": { "fid": 612, "ID": "8d766f3a-f45e-4d4c-a8ee-a6cb3c1afc47", "Name": "612.jpg", "Date": "2026-06-02", "Time": "22:28:56", "Altitude": 127.38162393162393, "Azimuth": 278.88864142538978 }, "geometry": { "type": "Point", "coordinates": [ 3408147.600930752698332, 8387223.023614320904016 ] } },
{ "type": "Feature", "properties": { "fid": 701, "ID": "479cc036-43ce-4d57-817e-36495c9801ea", "Name": "701.JPG", "Date": "2025-11-08", "Time": "09:28:20", "Altitude": 37.850551603258069, "Azimuth": 302.75041186161451 }, "geometry": { "type": "Point", "coordinates": [ 3415366.394818151369691, 8331489.98999771848321 ] } },
{ "type": "Feature", "properties": { "fid": 702, "ID": "b8460abe-e224-4d17-9f42-1be0307b2f3c", "Name": "702.JPG", "Date": "2025-11-08", "Time": "09:32:24", "Altitude": 37.519937625306305, "Azimuth": 337.09957882069796 }, "geometry": { "type": "Point", "coordinates": [ 3415402.573652659077197, 8331479.57332331314683 ] } },
{ "type": "Feature", "properties": { "fid": 703, "ID": "8c06b831-2025-476c-8cc3-f9e0b896d8ec", "Name": "703.JPG", "Date": "2025-11-08", "Time": "09:50:45", "Altitude": 34.742458352093649, "Azimuth": 83.015167183729744 }, "geometry": { "type": "Point", "coordinates": [ 3417615.357752982992679, 8331737.543523267842829 ] } },
{ "type": "Feature", "properties": { "fid": 704, "ID": "1ab0dbc6-f0ad-4686-8531-8e6a0a364a64", "Name": "704.JPG", "Date": "2025-11-08", "Time": "12:14:32", "Altitude": 15.84847641575066, "Azimuth": 216.63903811716551 }, "geometry": { "type": "Point", "coordinates": [ 3428297.081336213741452, 8328317.259870488196611 ] } },
{ "type": "Feature", "properties": { "fid": 804, "ID": null, "Name": "804.jpg", "Date": "2025-12-05", "Time": "00:00:00", "Altitude": null, "Azimuth": null }, "geometry": { "type": "Point", "coordinates": [ 3399088.095342624932528, 8324889.815431958064437 ] } },
{ "type": "Feature", "properties": { "fid": 613, "ID": null, "Name": "613.jpg", "Date": null, "Time": "00:00:00", "Altitude": null, "Azimuth": null }, "geometry": { "type": "Point", "coordinates": [ 3410040.249706402420998, 8388093.940000615082681 ] } },
{ "type": "Feature", "properties": { "fid": 803, "ID": null, "Name": "803.jpg", "Date": null, "Time": "00:00:00", "Altitude": null, "Azimuth": null }, "geometry": { "type": "Point", "coordinates": [ 3398231.683617901988328, 8325635.142647841013968 ] } },
{ "type": "Feature", "properties": { "fid": 801, "ID": null, "Name": "801.jpg", "Date": null, "Time": "00:00:00", "Altitude": null, "Azimuth": null }, "geometry": { "type": "Point", "coordinates": [ 3385722.439536299090832, 8323822.275918446481228 ] } },
{ "type": "Feature", "properties": { "fid": 802, "ID": null, "Name": "802.jpg", "Date": null, "Time": "00:00:00", "Altitude": null, "Azimuth": null }, "geometry": { "type": "Point", "coordinates": [ 3385277.336707598529756, 8323497.72177251894027 ] } },
{ "type": "Feature", "properties": { "fid": 906, "ID": null, "Name": "906.jpg", "Date": null, "Time": "00:00:00", "Altitude": null, "Azimuth": null }, "geometry": { "type": "Point", "coordinates": [ 3380837.899640089366585, 8346513.247206568717957 ] } },
{ "type": "Feature", "properties": { "fid": 905, "ID": null, "Name": "905.jpg", "Date": null, "Time": "00:00:00", "Altitude": null, "Azimuth": null }, "geometry": { "type": "Point", "coordinates": [ 3376619.854864981491119, 8349088.816178891807795 ] } },
{ "type": "Feature", "properties": { "fid": 904, "ID": null, "Name": "904.jpg", "Date": null, "Time": "00:00:00", "Altitude": null, "Azimuth": null }, "geometry": { "type": "Point", "coordinates": [ 3378903.325105970259756, 8347699.02896114718169 ] } },
{ "type": "Feature", "properties": { "fid": 903, "ID": null, "Name": "903.jpg", "Date": null, "Time": "00:00:00", "Altitude": null, "Azimuth": null }, "geometry": { "type": "Point", "coordinates": [ 3381001.335835001897067, 8346507.451596811413765 ] } },
{ "type": "Feature", "properties": { "fid": 902, "ID": null, "Name": "902.jpg", "Date": null, "Time": "00:00:00", "Altitude": null, "Azimuth": null }, "geometry": { "type": "Point", "coordinates": [ 3358370.63888826360926, 8331397.137859993614256 ] } },
{ "type": "Feature", "properties": { "fid": 901, "ID": null, "Name": "901.jpg", "Date": null, "Time": "00:00:00", "Altitude": null, "Azimuth": null }, "geometry": { "type": "Point", "coordinates": [ 3354445.851966442074627, 8332774.17473628371954 ] } }
]
}
