{
"type": "FeatureCollection",
"name": "13",
"crs": { "type": "name", "properties": { "name": "urn:ogc:def:crs:EPSG::3857" } },
"features": [
{ "type": "Feature", "properties": { "name": "Ракколанмяки" }, "geometry": { "type": "Point", "coordinates": [ 3319076.315025692805648, 8462083.316321685910225 ] } },
{ "type": "Feature", "properties": { "name": "Вехнамяки" }, "geometry": { "type": "Point", "coordinates": [ 3320062.811656246893108, 8462128.254780065268278 ] } },
{ "type": "Feature", "properties": { "name": "Пеккоземяки" }, "geometry": { "type": "Point", "coordinates": [ 3362856.623529814183712, 8334047.339166140183806 ] } },
{ "type": "Feature", "properties": { "name": "Лемедимяки" }, "geometry": { "type": "Point", "coordinates": [ 3362906.417861243709922, 8335238.108253087848425 ] } },
{ "type": "Feature", "properties": { "name": "Люйзамяки" }, "geometry": { "type": "Point", "coordinates": [ 3368279.947465972974896, 8325496.404878324829042 ] } },
{ "type": "Feature", "properties": { "name": "Пулькизимяки" }, "geometry": { "type": "Point", "coordinates": [ 3363575.48675222415477, 8334363.95900091715157 ] } },
{ "type": "Feature", "properties": { "name": "Касуканмяки" }, "geometry": { "type": "Point", "coordinates": [ 3325778.307103793136775, 8366332.223660120740533 ] } },
{ "type": "Feature", "properties": { "name": "Канкуринмяки" }, "geometry": { "type": "Point", "coordinates": [ 3420288.567158612422645, 8376335.70745552983135 ] } },
{ "type": "Feature", "properties": { "name": "Янисьмяки" }, "geometry": { "type": "Point", "coordinates": [ 3362450.220349748153239, 8334670.171424456872046 ] } },
{ "type": "Feature", "properties": { "name": "Ленимяки" }, "geometry": { "type": "Point", "coordinates": [ 3362637.105066921561956, 8335802.710312624461949 ] } },
{ "type": "Feature", "properties": { "name": "Каурасенмяки" }, "geometry": { "type": "Point", "coordinates": [ 3310415.293873637914658, 8470406.374234851449728 ] } },
{ "type": "Feature", "properties": { "name": "Лемписенмяки" }, "geometry": { "type": "Point", "coordinates": [ 3310629.346064611338079, 8470714.317120684310794 ] } },
{ "type": "Feature", "properties": { "name": "Юхимяки" }, "geometry": { "type": "Point", "coordinates": [ 3270062.92319652531296, 8392655.053576085716486 ] } },
{ "type": "Feature", "properties": { "name": "Хенттисенмяки" }, "geometry": { "type": "Point", "coordinates": [ 3311390.278045142069459, 8471025.782309409230947 ] } },
{ "type": "Feature", "properties": { "name": "Куутерселька" }, "geometry": { "type": "Point", "coordinates": [ 3291427.110559104010463, 8471130.026429619640112 ] } },
{ "type": "Feature", "properties": { "name": "Тееренмяки" }, "geometry": { "type": "Point", "coordinates": [ 3290265.170440198387951, 8446926.015893820673227 ] } },
{ "type": "Feature", "properties": { "name": "Сеппясенмяки" }, "geometry": { "type": "Point", "coordinates": [ 3309781.175343589391559, 8470172.773674936965108 ] } },
{ "type": "Feature", "properties": { "name": "Киурумяки" }, "geometry": { "type": "Point", "coordinates": [ 3306703.616556382738054, 8452126.245279226452112 ] } },
{ "type": "Feature", "properties": { "name": "Петаямяки" }, "geometry": { "type": "Point", "coordinates": [ 3374252.469967392738909, 8444489.092262458056211 ] } },
{ "type": "Feature", "properties": { "name": "Саарселькя" }, "geometry": { "type": "Point", "coordinates": [ 3367624.693411154672503, 8443406.279222045093775 ] } },
{ "type": "Feature", "properties": { "name": "Корканмяки " }, "geometry": { "type": "Point", "coordinates": [ 3364594.207584344781935, 8314561.906007829122245 ] } },
{ "type": "Feature", "properties": { "name": "Коннунселькя" }, "geometry": { "type": "Point", "coordinates": [ 3338084.643653798382729, 8447577.24923912063241 ] } },
{ "type": "Feature", "properties": { "name": "Коломяги" }, "geometry": { "type": "Point", "coordinates": [ 3372015.602361645083874, 8404021.652779560536146 ] } },
{ "type": "Feature", "properties": { "name": "Олликайсмяки" }, "geometry": { "type": "Point", "coordinates": [ 3413339.709489307366312, 8393074.537778053432703 ] } },
{ "type": "Feature", "properties": { "name": "Уусиселька" }, "geometry": { "type": "Point", "coordinates": [ 3388678.503223176114261, 8453400.297843484207988 ] } },
{ "type": "Feature", "properties": { "name": "Пудомяги" }, "geometry": { "type": "Point", "coordinates": [ 3376772.008031578734517, 8312422.022350465878844 ] } },
{ "type": "Feature", "properties": { "name": "Тамми-селькя" }, "geometry": { "type": "Point", "coordinates": [ 3325412.823874383233488, 8459287.549258844926953 ] } },
{ "type": "Feature", "properties": { "name": "Иоут-селькя" }, "geometry": { "type": "Point", "coordinates": [ 3319869.888946968130767, 8460608.576295737177134 ] } },
{ "type": "Feature", "properties": { "name": "Вартемяги" }, "geometry": { "type": "Point", "coordinates": [ 3377322.470058046281338, 8438524.583425922319293 ] } },
{ "type": "Feature", "properties": { "name": "Корисельки" }, "geometry": { "type": "Point", "coordinates": [ 3385334.777620630804449, 8421902.180620484054089 ] } },
{ "type": "Feature", "properties": { "name": "Мал. Сельгилево" }, "geometry": { "type": "Point", "coordinates": [ 3377791.140650497283787, 8313812.253475539386272 ] } },
{ "type": "Feature", "properties": { "name": "Бол. Сельгилево" }, "geometry": { "type": "Point", "coordinates": [ 3379197.978878196328878, 8314505.445697139948606 ] } },
{ "type": "Feature", "properties": { "name": "Капаканмяки" }, "geometry": { "type": "Point", "coordinates": [ 3306147.168094765394926, 8378450.386744553223252 ] } },
{ "type": "Feature", "properties": { "name": "Ховинмяки" }, "geometry": { "type": "Point", "coordinates": [ 3403470.562340599484742, 8328860.93036356382072 ] } },
{ "type": "Feature", "properties": { "name": "Viesoinmaki" }, "geometry": { "type": "Point", "coordinates": [ 3330787.391806554514915, 8457961.524210583418608 ] } },
{ "type": "Feature", "properties": { "name": "Терваканкаанмяки" }, "geometry": { "type": "Point", "coordinates": [ 3332817.983213471714407, 8459311.348758552223444 ] } },
{ "type": "Feature", "properties": { "name": "Мякряпяссинмяки " }, "geometry": { "type": "Point", "coordinates": [ 3311771.819277310278267, 8459942.209988731890917 ] } },
{ "type": "Feature", "properties": { "name": "Ольюмяки" }, "geometry": { "type": "Point", "coordinates": [ 3334975.9307, 8446254.694273836910725 ] } },
{ "type": "Feature", "properties": { "name": "Сомерикомяки" }, "geometry": { "type": "Point", "coordinates": [ 3321650.802246076520532, 8453879.064727175980806 ] } },
{ "type": "Feature", "properties": { "name": "Вуоримяки" }, "geometry": { "type": "Point", "coordinates": [ 3311313.896839952562004, 8464963.524374987930059 ] } },
{ "type": "Feature", "properties": { "name": " Варикиинмяки" }, "geometry": { "type": "Point", "coordinates": [ 3353735.768787338864058, 8333801.6588333863765 ] } },
{ "type": "Feature", "properties": { "name": "Айянмяки" }, "geometry": { "type": "Point", "coordinates": [ 3354353.925919714383781, 8332659.405187120661139 ] } },
{ "type": "Feature", "properties": { "name": "Ансарейнмяки" }, "geometry": { "type": "Point", "coordinates": [ 3427454.028974199667573, 8355051.731149718165398 ] } },
{ "type": "Feature", "properties": { "name": "Мюллюмяки" }, "geometry": { "type": "Point", "coordinates": [ 3334370.536989500746131, 8460051.429790232330561 ] } },
{ "type": "Feature", "properties": { "name": "Куйппамяки" }, "geometry": { "type": "Point", "coordinates": [ 3322090.761132749263197, 8454996.163933034986258 ] } },
{ "type": "Feature", "properties": { "name": "Райволанселькя" }, "geometry": { "type": "Point", "coordinates": [ 3295952.583085461519659, 8455299.583379160612822 ] } },
{ "type": "Feature", "properties": { "name": "Кивисенмяки" }, "geometry": { "type": "Point", "coordinates": [ 3322256.277328965254128, 8327472.008584747090936 ] } },
{ "type": "Feature", "properties": { "name": "Никкозимяки" }, "geometry": { "type": "Point", "coordinates": [ 3322842.286350526381284, 8328765.182168144732714 ] } },
{ "type": "Feature", "properties": { "name": "Вяярямяки" }, "geometry": { "type": "Point", "coordinates": [ 3396513.180354445241392, 8379443.89084988180548 ] } },
{ "type": "Feature", "properties": { "name": "Олосинмяки" }, "geometry": { "type": "Point", "coordinates": [ 3404092.593601381871849, 8327116.771760987117887 ] } },
{ "type": "Feature", "properties": { "name": "Карьяланмяки" }, "geometry": { "type": "Point", "coordinates": [ 3310070.442561909556389, 8453578.793139800429344 ] } },
{ "type": "Feature", "properties": { "name": "Каскимяки" }, "geometry": { "type": "Point", "coordinates": [ 3304295.261184368282557, 8454441.051346324384212 ] } },
{ "type": "Feature", "properties": { "name": "Суосааренмяки " }, "geometry": { "type": "Point", "coordinates": [ 3309729.436491535976529, 8456506.573829721659422 ] } },
{ "type": "Feature", "properties": { "name": "Куломяки " }, "geometry": { "type": "Point", "coordinates": [ 3313631.520239666569978, 8455639.444107916206121 ] } },
{ "type": "Feature", "properties": { "name": "Тервасмяки" }, "geometry": { "type": "Point", "coordinates": [ 3293521.530551760923117, 8454939.902022168040276 ] } },
{ "type": "Feature", "properties": { "name": "Каухимяки" }, "geometry": { "type": "Point", "coordinates": [ 3315956.07634587213397, 8456392.831457726657391 ] } },
{ "type": "Feature", "properties": { "name": "Холмамяки" }, "geometry": { "type": "Point", "coordinates": [ 3318564.772784230764955, 8463337.176505122333765 ] } },
{ "type": "Feature", "properties": { "name": "Суопеллонмяки" }, "geometry": { "type": "Point", "coordinates": [ 3305167.262421465478837, 8455225.365308184176683 ] } },
{ "type": "Feature", "properties": { "name": "Хонкасуонмяки" }, "geometry": { "type": "Point", "coordinates": [ 3324103.808308242354542, 8461608.18523970618844 ] } },
{ "type": "Feature", "properties": { "name": "Кивимяки" }, "geometry": { "type": "Point", "coordinates": [ 3336033.183305564336479, 8461956.581561591476202 ] } },
{ "type": "Feature", "properties": { "name": "Паломяки" }, "geometry": { "type": "Point", "coordinates": [ 3297998.453104235697538, 8453746.380775857716799 ] } },
{ "type": "Feature", "properties": { "name": "Ханникяйсенмяки" }, "geometry": { "type": "Point", "coordinates": [ 3325679.416954036336392, 8460333.230754442512989 ] } },
{ "type": "Feature", "properties": { "name": "Коккоахонмяки" }, "geometry": { "type": "Point", "coordinates": [ 3337942.817299655172974, 8462029.654290955513716 ] } },
{ "type": "Feature", "properties": { "name": "Мунненмяки" }, "geometry": { "type": "Point", "coordinates": [ 3324448.719943451695144, 8464509.255574103444815 ] } },
{ "type": "Feature", "properties": { "name": "Тиканмяки" }, "geometry": { "type": "Point", "coordinates": [ 3320296.789632692467421, 8461238.552727960050106 ] } },
{ "type": "Feature", "properties": { "name": "Анттиланмяки" }, "geometry": { "type": "Point", "coordinates": [ 3338956.092480193357915, 8460753.3172847032547 ] } },
{ "type": "Feature", "properties": { "name": "Паппиланмяки " }, "geometry": { "type": "Point", "coordinates": [ 3378443.131677553988993, 8424614.488672966137528 ] } },
{ "type": "Feature", "properties": { "name": "Кютелямяки " }, "geometry": { "type": "Point", "coordinates": [ 3378921.632339185569435, 8431355.854505244642496 ] } },
{ "type": "Feature", "properties": { "name": "Нокеломяки " }, "geometry": { "type": "Point", "coordinates": [ 3380183.060939483810216, 8430409.905951362103224 ] } },
{ "type": "Feature", "properties": { "name": "Лаукисенмяки " }, "geometry": { "type": "Point", "coordinates": [ 3377832.603984745685011, 8422809.27917836047709 ] } },
{ "type": "Feature", "properties": { "name": "Пёкколомяки " }, "geometry": { "type": "Point", "coordinates": [ 3378239.689993793610483, 8430036.280300000682473 ] } },
{ "type": "Feature", "properties": { "name": "Кулёмяки" }, "geometry": { "type": "Point", "coordinates": [ 3308141.792163447942585, 8453411.848933659493923 ] } },
{ "type": "Feature", "properties": { "name": "Кертапалонмяки" }, "geometry": { "type": "Point", "coordinates": [ 3310401.705601701047271, 8455722.259867861866951 ] } },
{ "type": "Feature", "properties": { "name": "Карьяланмяки" }, "geometry": { "type": "Point", "coordinates": [ 3405430.476100455503911, 8380389.18608021736145 ] } },
{ "type": "Feature", "properties": { "name": "Линнамяки" }, "geometry": { "type": "Point", "coordinates": [ 3312487.413273735437542, 8479543.050745192915201 ] } },
{ "type": "Feature", "properties": { "name": "Пурнунмяки" }, "geometry": { "type": "Point", "coordinates": [ 3419094.977212286554277, 8444488.165571786463261 ] } },
{ "type": "Feature", "properties": { "name": "Киурумяки" }, "geometry": { "type": "Point", "coordinates": [ 3405018.995776928495616, 8429279.589862171560526 ] } },
{ "type": "Feature", "properties": { "name": "Понтуксенмяки" }, "geometry": { "type": "Point", "coordinates": [ 3399154.798020673915744, 8438380.049662876874208 ] } },
{ "type": "Feature", "properties": { "name": "Путронмяки" }, "geometry": { "type": "Point", "coordinates": [ 3403711.559955060482025, 8332191.515684008598328 ] } },
{ "type": "Feature", "properties": { "name": "Кивиккомяки" }, "geometry": { "type": "Point", "coordinates": [ 3289130.140889408998191, 8447936.762725898995996 ] } },
{ "type": "Feature", "properties": { "name": "Кемпи-Мяки" }, "geometry": { "type": "Point", "coordinates": [ 3412162.695206286385655, 8438757.178301988169551 ] } },
{ "type": "Feature", "properties": { "name": "Пеллонмяки" }, "geometry": { "type": "Point", "coordinates": [ 3290108.017548650503159, 8446751.412275772541761 ] } },
{ "type": "Feature", "properties": { "name": "Пугелан-Мяки" }, "geometry": { "type": "Point", "coordinates": [ 3412473.208544802851975, 8439927.629179805517197 ] } },
{ "type": "Feature", "properties": { "name": "Ногелайсен-Мяки" }, "geometry": { "type": "Point", "coordinates": [ 3411689.52184568811208, 8439285.967269450426102 ] } },
{ "type": "Feature", "properties": { "name": "Мустосенмяки" }, "geometry": { "type": "Point", "coordinates": [ 3404811.160272161476314, 8431348.185352403670549 ] } },
{ "type": "Feature", "properties": { "name": "Мойсионмяки" }, "geometry": { "type": "Point", "coordinates": [ 3409426.032128559425473, 8433643.657447531819344 ] } },
{ "type": "Feature", "properties": { "name": "Таскенмяки" }, "geometry": { "type": "Point", "coordinates": [ 3404838.397870676126331, 8434206.324119927361608 ] } },
{ "type": "Feature", "properties": { "name": "Сювемяки " }, "geometry": { "type": "Point", "coordinates": [ 3403992.062031126115471, 8427496.466827426105738 ] } },
{ "type": "Feature", "properties": { "name": "Коросен-мяки" }, "geometry": { "type": "Point", "coordinates": [ 3406362.562954081222415, 8431511.792045574635267 ] } },
{ "type": "Feature", "properties": { "name": "Кеземяки" }, "geometry": { "type": "Point", "coordinates": [ 3410682.466587259899825, 8435497.258936367928982 ] } },
{ "type": "Feature", "properties": { "name": "Систаканмяки" }, "geometry": { "type": "Point", "coordinates": [ 3421772.060849099420011, 8375928.312455724924803 ] } },
{ "type": "Feature", "properties": { "name": "Кярпянмяки" }, "geometry": { "type": "Point", "coordinates": [ 3412746.076142080128193, 8438646.333325548097491 ] } },
{ "type": "Feature", "properties": { "name": "Каарленмяки" }, "geometry": { "type": "Point", "coordinates": [ 3284274.492856322322041, 8440346.11096659116447 ] } },
{ "type": "Feature", "properties": { "name": "Ханникуисенмяки" }, "geometry": { "type": "Point", "coordinates": [ 3415430.000349295325577, 8378694.151368497870862 ] } },
{ "type": "Feature", "properties": { "name": "Киурумяки" }, "geometry": { "type": "Point", "coordinates": [ 3402460.713767840061337, 8431299.002527993172407 ] } },
{ "type": "Feature", "properties": { "name": "Поккизенмяки" }, "geometry": { "type": "Point", "coordinates": [ 3400861.133937491104007, 8432234.898439753800631 ] } },
{ "type": "Feature", "properties": { "name": "Келломяки" }, "geometry": { "type": "Point", "coordinates": [ 3400613.909951008390635, 8431434.729331934824586 ] } },
{ "type": "Feature", "properties": { "name": "Пуккеланмяки" }, "geometry": { "type": "Point", "coordinates": [ 3402135.935522923246026, 8432314.125915810465813 ] } },
{ "type": "Feature", "properties": { "name": "Лассымяки" }, "geometry": { "type": "Point", "coordinates": [ 3403180.269122241530567, 8447998.444088591262698 ] } },
{ "type": "Feature", "properties": { "name": "Мустомяки" }, "geometry": { "type": "Point", "coordinates": [ 3282324.272018035408109, 8466015.163019392639399 ] } },
{ "type": "Feature", "properties": { "name": "Хумоземяки" }, "geometry": { "type": "Point", "coordinates": [ 3404751.682341295294464, 8454639.771798010915518 ] } },
{ "type": "Feature", "properties": { "name": "Хампула Мяки" }, "geometry": { "type": "Point", "coordinates": [ 3399987.452506091445684, 8432260.718691490590572 ] } },
{ "type": "Feature", "properties": { "name": "Ревонмяки" }, "geometry": { "type": "Point", "coordinates": [ 3337545.133344818837941, 8408407.57047682069242 ] } },
{ "type": "Feature", "properties": { "name": "Келломяки" }, "geometry": { "type": "Point", "coordinates": [ 3317634.227169906720519, 8440304.629946514964104 ] } },
{ "type": "Feature", "properties": { "name": "Торккелин-мяки" }, "geometry": { "type": "Point", "coordinates": [ 3297872.816469411365688, 8443636.603750988841057 ] } },
{ "type": "Feature", "properties": { "name": "Питке-Мяки" }, "geometry": { "type": "Point", "coordinates": [ 3416021.957846157252789, 8376595.734083669260144 ] } },
{ "type": "Feature", "properties": { "name": "Юконылленмяки " }, "geometry": { "type": "Point", "coordinates": [ 3286536.385756652336568, 8446847.958461385220289 ] } },
{ "type": "Feature", "properties": { "name": "Мулламяки" }, "geometry": { "type": "Point", "coordinates": [ 3285234.981977934483439, 8449530.336568519473076 ] } },
{ "type": "Feature", "properties": { "name": "Унимяки" }, "geometry": { "type": "Point", "coordinates": [ 3286498.588240910321474, 8446280.426929974928498 ] } },
{ "type": "Feature", "properties": { "name": "Кайвомяки" }, "geometry": { "type": "Point", "coordinates": [ 3286857.3443096075207, 8445919.934798436239362 ] } },
{ "type": "Feature", "properties": { "name": "Киуруланмаки" }, "geometry": { "type": "Point", "coordinates": [ 3323454.708114989101887, 8459627.146702773869038 ] } },
{ "type": "Feature", "properties": { "name": "Пекосенмяки" }, "geometry": { "type": "Point", "coordinates": [ 3325009.641276822425425, 8459681.241775305941701 ] } },
{ "type": "Feature", "properties": { "name": "Теросенмяки" }, "geometry": { "type": "Point", "coordinates": [ 3319307.379606171976775, 8466586.120541902258992 ] } },
{ "type": "Feature", "properties": { "name": "Ликасенмяки" }, "geometry": { "type": "Point", "coordinates": [ 3322628.383943603374064, 8466120.890831604599953 ] } },
{ "type": "Feature", "properties": { "name": "Хиетамяки" }, "geometry": { "type": "Point", "coordinates": [ 3334646.513223066460341, 8340376.371230393648148 ] } },
{ "type": "Feature", "properties": { "name": "Хиеккамяки" }, "geometry": { "type": "Point", "coordinates": [ 3312973.495505244471133, 8460765.340230457484722 ] } },
{ "type": "Feature", "properties": { "name": "Камппиланмаки" }, "geometry": { "type": "Point", "coordinates": [ 3325602.316164195537567, 8458324.991923024877906 ] } },
{ "type": "Feature", "properties": { "name": "Роккаланмяки " }, "geometry": { "type": "Point", "coordinates": [ 3314205.068228746764362, 8464851.328167475759983 ] } },
{ "type": "Feature", "properties": { "name": "Лаволанмяки" }, "geometry": { "type": "Point", "coordinates": [ 3316823.598137690685689, 8462459.923163913190365 ] } },
{ "type": "Feature", "properties": { "name": "Суденмяки" }, "geometry": { "type": "Point", "coordinates": [ 3287841.375426369253546, 8443302.368977047502995 ] } }
]
}
