{
"type": "FeatureCollection",
"name": "14",
"crs": { "type": "name", "properties": { "name": "urn:ogc:def:crs:EPSG::3857" } },
"features": [
{ "type": "Feature", "properties": { "name": "Всеволожск" }, "geometry": { "type": "Point", "coordinates": [ 3411459.86734904255718, 8403975.616981349885464 ] } },
{ "type": "Feature", "properties": { "name": "Ковалево" }, "geometry": { "type": "Point", "coordinates": [ 3402363.962888272944838, 8395508.807700449600816 ] } },
{ "type": "Feature", "properties": { "name": "Янино-1" }, "geometry": { "type": "Point", "coordinates": [ 3402056.85467707272619, 8387590.487090036273003 ] } },
{ "type": "Feature", "properties": { "name": "Заневка" }, "geometry": { "type": "Point", "coordinates": [ 3396832.441731010563672, 8385802.7466304237023 ] } },
{ "type": "Feature", "properties": { "name": "Новосергиевка" }, "geometry": { "type": "Point", "coordinates": [ 3401589.012253115419298, 8378819.958061680197716 ] } },
{ "type": "Feature", "properties": { "name": "Янино-2" }, "geometry": { "type": "Point", "coordinates": [ 3408757.174827919341624, 8386014.034774622879922 ] } },
{ "type": "Feature", "properties": { "name": "Колтуши" }, "geometry": { "type": "Point", "coordinates": [ 3412540.957715830765665, 8384818.163322965614498 ] } },
{ "type": "Feature", "properties": { "name": "Аро" }, "geometry": { "type": "Point", "coordinates": [ 3412539.833388973027468, 8383526.449978902935982 ] } },
{ "type": "Feature", "properties": { "name": "Бор" }, "geometry": { "type": "Point", "coordinates": [ 3415389.523297688458115, 8387552.189694783650339 ] } },
{ "type": "Feature", "properties": { "name": "Вирки" }, "geometry": { "type": "Point", "coordinates": [ 3417370.409108559135348, 8380129.276699827052653 ] } },
{ "type": "Feature", "properties": { "name": "Воейково" }, "geometry": { "type": "Point", "coordinates": [ 3418242.831089854240417, 8389018.012773241847754 ] } },
{ "type": "Feature", "properties": { "name": "Кальтино" }, "geometry": { "type": "Point", "coordinates": [ 3412972.654701126739383, 8395260.867659278213978 ] } },
{ "type": "Feature", "properties": { "name": "Канисты" }, "geometry": { "type": "Point", "coordinates": [ 3417203.095913896337152, 8384341.384299220517278 ] } },
{ "type": "Feature", "properties": { "name": "Карьер Мяглово" }, "geometry": { "type": "Point", "coordinates": [ 3414564.746058451943099, 8368728.441721240058541 ] } },
{ "type": "Feature", "properties": { "name": "Кирполье" }, "geometry": { "type": "Point", "coordinates": [ 3417636.484955452382565, 8386965.617607698775828 ] } },
{ "type": "Feature", "properties": { "name": "Лиголамби" }, "geometry": { "type": "Point", "coordinates": [ 3415435.709754418116063, 8389187.463393099606037 ] } },
{ "type": "Feature", "properties": { "name": "Озерки" }, "geometry": { "type": "Point", "coordinates": [ 3420763.516243529971689, 8376222.036236417479813 ] } },
{ "type": "Feature", "properties": { "name": "Орово" }, "geometry": { "type": "Point", "coordinates": [ 3412101.780060752760619, 8392076.259946975857019 ] } },
{ "type": "Feature", "properties": { "name": "Павлово" }, "geometry": { "type": "Point", "coordinates": [ 3411623.584924152586609, 8385875.56791185028851 ] } },
{ "type": "Feature", "properties": { "name": "Разметелево" }, "geometry": { "type": "Point", "coordinates": [ 3414537.027505244594067, 8378472.523996730335057 ] } },
{ "type": "Feature", "properties": { "name": "Старая" }, "geometry": { "type": "Point", "coordinates": [ 3409959.625703570898622, 8384069.1148542156443 ] } },
{ "type": "Feature", "properties": { "name": "Старая Пустошь" }, "geometry": { "type": "Point", "coordinates": [ 3416158.863430509343743, 8394404.144747911021113 ] } },
{ "type": "Feature", "properties": { "name": "Токкари" }, "geometry": { "type": "Point", "coordinates": [ 3411157.957758062053472, 8388070.65507414098829 ] } },
{ "type": "Feature", "properties": { "name": "Хапо-Ое" }, "geometry": { "type": "Point", "coordinates": [ 3422421.954017367679626, 8373751.086591957136989 ] } },
{ "type": "Feature", "properties": { "name": "Хязельки" }, "geometry": { "type": "Point", "coordinates": [ 3415901.214469068683684, 8385842.857134319841862 ] } },
{ "type": "Feature", "properties": { "name": "Романовка" }, "geometry": { "type": "Point", "coordinates": [ 3417669.891934639308602, 8409914.845110025256872 ] } },
{ "type": "Feature", "properties": { "name": "Минулово" }, "geometry": { "type": "Point", "coordinates": [ 3422269.301599643658847, 8408371.768302882090211 ] } },
{ "type": "Feature", "properties": { "name": "Плинтовка" }, "geometry": { "type": "Point", "coordinates": [ 3422975.924331352114677, 8402865.117437250912189 ] } },
{ "type": "Feature", "properties": { "name": "Щеглово" }, "geometry": { "type": "Point", "coordinates": [ 3423628.412394687533379, 8406349.360644679516554 ] } }
]
}
