{
"type": "FeatureCollection",
"name": "1_photo",
"crs": { "type": "name", "properties": { "name": "urn:ogc:def:crs:EPSG::3857" } },
"features": [
{ "type": "Feature", "properties": { "id": 1001 }, "geometry": { "type": "Point", "coordinates": [ 3342224.541834046132863, 8344517.421757066622376 ] } },
{ "type": "Feature", "properties": { "id": 1002 }, "geometry": { "type": "Point", "coordinates": [ 3338467.818240581545979, 8343797.436908619478345 ] } },
{ "type": "Feature", "properties": { "id": 1003 }, "geometry": { "type": "Point", "coordinates": [ 3337520.365685607306659, 8343180.62593331746757 ] } },
{ "type": "Feature", "properties": { "id": 1004 }, "geometry": { "type": "Point", "coordinates": [ 3336930.990826018620282, 8343219.90390210878104 ] } },
{ "type": "Feature", "properties": { "id": 1005 }, "geometry": { "type": "Point", "coordinates": [ 3349514.113156159408391, 8345785.084884006530046 ] } },
{ "type": "Feature", "properties": { "id": 1006 }, "geometry": { "type": "Point", "coordinates": [ 3347739.185719622299075, 8345703.432226232253015 ] } },
{ "type": "Feature", "properties": { "id": 1007 }, "geometry": { "type": "Point", "coordinates": [ 3344185.310976047068834, 8345270.01293614692986 ] } },
{ "type": "Feature", "properties": { "id": 1008 }, "geometry": { "type": "Point", "coordinates": [ 3343658.707940433640033, 8345118.383583190850914 ] } },
{ "type": "Feature", "properties": { "id": 101 }, "geometry": { "type": "Point", "coordinates": [ 3291890.197188637219369, 8444397.818725597113371 ] } },
{ "type": "Feature", "properties": { "id": 102 }, "geometry": { "type": "Point", "coordinates": [ 3291648.386516969185323, 8444379.152539329603314 ] } },
{ "type": "Feature", "properties": { "id": 1201 }, "geometry": { "type": "Point", "coordinates": [ 3326248.030359557829797, 8363531.265490123070776 ] } },
{ "type": "Feature", "properties": { "id": 1202 }, "geometry": { "type": "Point", "coordinates": [ 3326223.601915744598955, 8363564.49777053669095 ] } },
{ "type": "Feature", "properties": { "id": 1203 }, "geometry": { "type": "Point", "coordinates": [ 3326261.32685429090634, 8363511.57235755585134 ] } },
{ "type": "Feature", "properties": { "id": 1204 }, "geometry": { "type": "Point", "coordinates": [ 3326218.963603627867997, 8364423.665726345963776 ] } },
{ "type": "Feature", "properties": { "id": 1205 }, "geometry": { "type": "Point", "coordinates": [ 3321811.330209829844534, 8370375.966718275099993 ] } },
{ "type": "Feature", "properties": { "id": 1206 }, "geometry": { "type": "Point", "coordinates": [ 3322211.771155877970159, 8370325.45632010884583 ] } },
{ "type": "Feature", "properties": { "id": 1207 }, "geometry": { "type": "Point", "coordinates": [ 3322309.794151938054711, 8370239.835825660265982 ] } },
{ "type": "Feature", "properties": { "id": 1208 }, "geometry": { "type": "Point", "coordinates": [ 3306877.820519912522286, 8378794.476540462113917 ] } },
{ "type": "Feature", "properties": { "id": 1301 }, "geometry": { "type": "Point", "coordinates": [ 3305557.756891589146107, 8379714.013135278597474 ] } },
{ "type": "Feature", "properties": { "id": 1302 }, "geometry": { "type": "Point", "coordinates": [ 3305520.959615465253592, 8379934.200890322215855 ] } },
{ "type": "Feature", "properties": { "id": 1303 }, "geometry": { "type": "Point", "coordinates": [ 3305547.243384124711156, 8379900.894757290370762 ] } },
{ "type": "Feature", "properties": { "id": 1304 }, "geometry": { "type": "Point", "coordinates": [ 3300108.358596450649202, 8381338.129577657207847 ] } },
{ "type": "Feature", "properties": { "id": 1305 }, "geometry": { "type": "Point", "coordinates": [ 3298676.975477333646268, 8381765.653065009042621 ] } },
{ "type": "Feature", "properties": { "id": 1306 }, "geometry": { "type": "Point", "coordinates": [ 3298672.955606832168996, 8381745.29424140509218 ] } },
{ "type": "Feature", "properties": { "id": 201 }, "geometry": { "type": "Point", "coordinates": [ 3336995.308754032943398, 8416403.948737623170018 ] } },
{ "type": "Feature", "properties": { "id": 301 }, "geometry": { "type": "Point", "coordinates": [ 3385253.854116955306381, 8422541.09552788361907 ] } },
{ "type": "Feature", "properties": { "id": 302 }, "geometry": { "type": "Point", "coordinates": [ 3385253.854116955306381, 8422541.09552788361907 ] } },
{ "type": "Feature", "properties": { "id": 303 }, "geometry": { "type": "Point", "coordinates": [ 3385025.339940021280199, 8422320.870879298076034 ] } },
{ "type": "Feature", "properties": { "id": 304 }, "geometry": { "type": "Point", "coordinates": [ 3381127.920879025943577, 8422394.69192842207849 ] } },
{ "type": "Feature", "properties": { "id": 305 }, "geometry": { "type": "Point", "coordinates": [ 3380840.963969425298274, 8422303.501328324899077 ] } },
{ "type": "Feature", "properties": { "id": 306 }, "geometry": { "type": "Point", "coordinates": [ 3380426.917307836003602, 8422234.643869038671255 ] } },
{ "type": "Feature", "properties": { "id": 307 }, "geometry": { "type": "Point", "coordinates": [ 3380110.584421498700976, 8422559.086001690477133 ] } },
{ "type": "Feature", "properties": { "id": 308 }, "geometry": { "type": "Point", "coordinates": [ 3374137.98451963160187, 8424181.51131359860301 ] } },
{ "type": "Feature", "properties": { "id": 309 }, "geometry": { "type": "Point", "coordinates": [ 3375405.789831443689764, 8423825.353654343634844 ] } },
{ "type": "Feature", "properties": { "id": 310 }, "geometry": { "type": "Point", "coordinates": [ 3373173.524820231366903, 8416638.253202335909009 ] } },
{ "type": "Feature", "properties": { "id": 311 }, "geometry": { "type": "Point", "coordinates": [ 3370315.706114921253175, 8417178.793544925749302 ] } },
{ "type": "Feature", "properties": { "id": 312 }, "geometry": { "type": "Point", "coordinates": [ 3387359.647817794699222, 8422137.251986438408494 ] } },
{ "type": "Feature", "properties": { "id": 313 }, "geometry": { "type": "Point", "coordinates": [ 3387317.903008747380227, 8422175.091991506516933 ] } },
{ "type": "Feature", "properties": { "id": 601 }, "geometry": { "type": "Point", "coordinates": [ 3413056.515384190715849, 8395682.029750302433968 ] } },
{ "type": "Feature", "properties": { "id": 602 }, "geometry": { "type": "Point", "coordinates": [ 3412982.611611136235297, 8395190.655716456472874 ] } },
{ "type": "Feature", "properties": { "id": 603 }, "geometry": { "type": "Point", "coordinates": [ 3418970.672553391661495, 8388470.465755696408451 ] } },
{ "type": "Feature", "properties": { "id": 604 }, "geometry": { "type": "Point", "coordinates": [ 3409772.281184981577098, 8389220.144556548446417 ] } },
{ "type": "Feature", "properties": { "id": 605 }, "geometry": { "type": "Point", "coordinates": [ 3408583.636399955488741, 8388455.645856289193034 ] } },
{ "type": "Feature", "properties": { "id": 606 }, "geometry": { "type": "Point", "coordinates": [ 3407849.236981527879834, 8387962.283717908896506 ] } },
{ "type": "Feature", "properties": { "id": 607 }, "geometry": { "type": "Point", "coordinates": [ 3409486.160210461355746, 8388156.860162563621998 ] } },
{ "type": "Feature", "properties": { "id": 608 }, "geometry": { "type": "Point", "coordinates": [ 3408018.753203900996596, 8387142.604499479755759 ] } },
{ "type": "Feature", "properties": { "id": 609 }, "geometry": { "type": "Point", "coordinates": [ 3407524.86435418901965, 8387113.950967747718096 ] } },
{ "type": "Feature", "properties": { "id": 611 }, "geometry": { "type": "Point", "coordinates": [ 3408023.01907548867166, 8387381.899959800764918 ] } },
{ "type": "Feature", "properties": { "id": 612 }, "geometry": { "type": "Point", "coordinates": [ 3408147.600930752698332, 8387223.023614320904016 ] } },
{ "type": "Feature", "properties": { "id": 701 }, "geometry": { "type": "Point", "coordinates": [ 3415366.394818151369691, 8331489.98999771848321 ] } },
{ "type": "Feature", "properties": { "id": 702 }, "geometry": { "type": "Point", "coordinates": [ 3415402.573652659077197, 8331479.57332331314683 ] } },
{ "type": "Feature", "properties": { "id": 703 }, "geometry": { "type": "Point", "coordinates": [ 3417615.357752982992679, 8331737.543523267842829 ] } },
{ "type": "Feature", "properties": { "id": 704 }, "geometry": { "type": "Point", "coordinates": [ 3428297.081336213741452, 8328317.259870488196611 ] } },
{ "type": "Feature", "properties": { "id": 804 }, "geometry": { "type": "Point", "coordinates": [ 3399088.095342624932528, 8324889.815431958064437 ] } },
{ "type": "Feature", "properties": { "id": 613 }, "geometry": { "type": "Point", "coordinates": [ 3410040.249706402420998, 8388093.940000615082681 ] } },
{ "type": "Feature", "properties": { "id": 803 }, "geometry": { "type": "Point", "coordinates": [ 3398231.683617901988328, 8325635.142647841013968 ] } },
{ "type": "Feature", "properties": { "id": 801 }, "geometry": { "type": "Point", "coordinates": [ 3385722.439536299090832, 8323822.275918446481228 ] } },
{ "type": "Feature", "properties": { "id": 802 }, "geometry": { "type": "Point", "coordinates": [ 3385277.336707598529756, 8323497.72177251894027 ] } },
{ "type": "Feature", "properties": { "id": 906 }, "geometry": { "type": "Point", "coordinates": [ 3380837.899640089366585, 8346513.247206568717957 ] } },
{ "type": "Feature", "properties": { "id": 905 }, "geometry": { "type": "Point", "coordinates": [ 3376619.854864981491119, 8349088.816178891807795 ] } },
{ "type": "Feature", "properties": { "id": 904 }, "geometry": { "type": "Point", "coordinates": [ 3378903.325105970259756, 8347699.02896114718169 ] } },
{ "type": "Feature", "properties": { "id": 903 }, "geometry": { "type": "Point", "coordinates": [ 3381001.335835001897067, 8346507.451596811413765 ] } },
{ "type": "Feature", "properties": { "id": 902 }, "geometry": { "type": "Point", "coordinates": [ 3358370.63888826360926, 8331397.137859993614256 ] } },
{ "type": "Feature", "properties": { "id": 901 }, "geometry": { "type": "Point", "coordinates": [ 3354445.851966442074627, 8332774.17473628371954 ] } }
]
}
