{
"type": "FeatureCollection",
"name": "21_живопись",
"crs": { "type": "name", "properties": { "name": "urn:ogc:def:crs:EPSG::3857" } },
"features": [
{ "type": "Feature", "properties": { "fid": 1, "name": "Вид на смотровой камень в Сергиевке ", "photo_path": "M:\\RESEARCH\\MLA+ Горные просторы\\04 GIS\\01 Project\\01 Stage\\01 Горные просторы\\Фото_живопись\\1.png", "photo_found": true }, "geometry": { "type": "Point", "coordinates": [ 3322316.477823167573661, 8377353.97357449028641 ] } },
{ "type": "Feature", "properties": { "fid": 2, "name": "Коллонада в Павлино", "photo_path": "M:\\RESEARCH\\MLA+ Горные просторы\\04 GIS\\01 Project\\01 Stage\\01 Горные просторы\\Фото_живопись\\2.png", "photo_found": true }, "geometry": { "type": "Point", "coordinates": [ 3352553.903166867792606, 8366044.394103797152638 ] } },
{ "type": "Feature", "properties": { "fid": 3, "name": "Вид усадьбы Сиворицы под Петербургом С. Щедрин", "photo_path": "M:\\RESEARCH\\MLA+ Горные просторы\\04 GIS\\01 Project\\01 Stage\\01 Горные просторы\\Фото_живопись\\3.jpg", "photo_found": true }, "geometry": { "type": "Point", "coordinates": [ 3339454.147916537243873, 8279830.436826385557652 ] } },
{ "type": "Feature", "properties": { "fid": 4, "name": "Пейзаж в окресностях Петербурга С. Щедрин", "photo_path": "M:\\RESEARCH\\MLA+ Горные просторы\\04 GIS\\01 Project\\01 Stage\\01 Горные просторы\\Фото_живопись\\4.jpg", "photo_found": true }, "geometry": { "type": "Point", "coordinates": [ 3357007.891257365699857, 8323664.599203685298562 ] } },
{ "type": "Feature", "properties": { "fid": 6, "name": "Пейзаж с избами и прудом Васильев Ф. А. ", "photo_path": "M:\\RESEARCH\\MLA+ Горные просторы\\04 GIS\\01 Project\\01 Stage\\01 Горные просторы\\Фото_живопись\\6.png", "photo_found": true }, "geometry": { "type": "Point", "coordinates": [ 3349979.305815607309341, 8339243.84174488298595 ] } },
{ "type": "Feature", "properties": { "fid": 7, "name": "В Царскосельском парке С. Щедрин", "photo_path": "M:\\RESEARCH\\MLA+ Горные просторы\\04 GIS\\01 Project\\01 Stage\\01 Горные просторы\\Фото_живопись\\7.jpg", "photo_found": true }, "geometry": { "type": "Point", "coordinates": [ 3383344.904542657081038, 8335830.576260883361101 ] } },
{ "type": "Feature", "properties": { "fid": 8, "name": "Панорама с горы Парнас Т. А. Васильев копия", "photo_path": "M:\\RESEARCH\\MLA+ Горные просторы\\04 GIS\\01 Project\\01 Stage\\01 Горные просторы\\Фото_живопись\\8.png", "photo_found": true }, "geometry": { "type": "Point", "coordinates": [ 3382817.992368217557669, 8337539.673366537317634 ] } },
{ "type": "Feature", "properties": { "fid": 9, "name": "\"Вид на императорскую ферму и окрестности с Белой башни\" возможно В. А. Жуковский или Великий князь Александр Николаевич", "photo_path": "M:\\RESEARCH\\MLA+ Горные просторы\\04 GIS\\01 Project\\01 Stage\\01 Горные просторы\\Фото_живопись\\9.png", "photo_found": true }, "geometry": { "type": "Point", "coordinates": [ 3383027.370424666441977, 8338439.159004860557616 ] } },
{ "type": "Feature", "properties": { "fid": 10, "name": "Мыза \"Рябово\" Всеволожского", "photo_path": "M:\\RESEARCH\\MLA+ Горные просторы\\04 GIS\\01 Project\\01 Stage\\01 Горные просторы\\Фото_живопись\\10.jpg", "photo_found": true }, "geometry": { "type": "Point", "coordinates": [ 3410858.079159000888467, 8408434.617149215191603 ] } },
{ "type": "Feature", "properties": { "fid": 11, "name": "Вечер в Колтушах Алексеев А. Ф.", "photo_path": "M:\\RESEARCH\\MLA+ Горные просторы\\04 GIS\\01 Project\\01 Stage\\01 Горные просторы\\Фото_живопись\\11.jpg", "photo_found": true }, "geometry": { "type": "Point", "coordinates": [ 3409744.361176200211048, 8390999.779011024162173 ] } },
{ "type": "Feature", "properties": { "fid": 12, "name": "Вид Колтушей, написанный с аэрофотоснимка С. П. Светлицкий, Н. П. Мовчан", "photo_path": "M:\\RESEARCH\\MLA+ Горные просторы\\04 GIS\\01 Project\\01 Stage\\01 Горные просторы\\Фото_живопись\\12.jpg", "photo_found": true }, "geometry": { "type": "Point", "coordinates": [ 3412419.884117938578129, 8384523.71898277848959 ] } },
{ "type": "Feature", "properties": { "fid": 13, "name": "Мельница и башня Пиль в Павловске С. Щедрин", "photo_path": "M:\\RESEARCH\\MLA+ Горные просторы\\04 GIS\\01 Project\\01 Stage\\01 Горные просторы\\Фото_живопись\\13.png", "photo_found": true }, "geometry": { "type": "Point", "coordinates": [ 3390969.497954956721514, 8331950.226752938702703 ] } },
{ "type": "Feature", "properties": { "fid": 14, "name": "Вид Храма Аполлона в Павловском парке Мартынов А. Е. ", "photo_path": "M:\\RESEARCH\\MLA+ Горные просторы\\04 GIS\\01 Project\\01 Stage\\01 Горные просторы\\Фото_живопись\\14.png", "photo_found": true }, "geometry": { "type": "Point", "coordinates": [ 3389736.872598468791693, 8330159.461758209392428 ] } },
{ "type": "Feature", "properties": { "fid": 15, "name": "Вид в Павловском парке Мартынов А. Е.", "photo_path": "M:\\RESEARCH\\MLA+ Горные просторы\\04 GIS\\01 Project\\01 Stage\\01 Горные просторы\\Фото_живопись\\15.jpg", "photo_found": true }, "geometry": { "type": "Point", "coordinates": [ 3390478.614908156916499, 8330847.534926752559841 ] } },
{ "type": "Feature", "properties": { "fid": 16, "name": "Вид в Павловске Карл-Фердинанд фон Кюгельхен", "photo_path": "M:\\RESEARCH\\MLA+ Горные просторы\\04 GIS\\01 Project\\01 Stage\\01 Горные просторы\\Фото_живопись\\16.jpg", "photo_found": true }, "geometry": { "type": "Point", "coordinates": [ 3389663.995788789819926, 8329845.506373827345669 ] } },
{ "type": "Feature", "properties": { "fid": 17, "name": "Вид храма, посвящённого Фелице, где растёт Роза без шипов", "photo_path": "M:\\RESEARCH\\MLA+ Горные просторы\\04 GIS\\01 Project\\01 Stage\\01 Горные просторы\\Фото_живопись\\17.png", "photo_found": true }, "geometry": { "type": "Point", "coordinates": [ 3386770.328576403670013, 8328702.206641570664942 ] } },
{ "type": "Feature", "properties": { "fid": 18, "name": "Храм Цереры в саду", "photo_path": "M:\\RESEARCH\\MLA+ Горные просторы\\04 GIS\\01 Project\\01 Stage\\01 Горные просторы\\Фото_живопись\\18.png", "photo_found": true }, "geometry": { "type": "Point", "coordinates": [ 3386222.586531947366893, 8328237.776842442341149 ] } },
{ "type": "Feature", "properties": { "fid": 19, "name": "Крепость Бип в Павловске Бенуа А. Н.", "photo_path": "M:\\RESEARCH\\MLA+ Горные просторы\\04 GIS\\01 Project\\01 Stage\\01 Горные просторы\\Фото_живопись\\19.png", "photo_found": true }, "geometry": { "type": "Point", "coordinates": [ 3388899.006071900483221, 8328883.618577338755131 ] } },
{ "type": "Feature", "properties": { "fid": 20, "name": "1900-1914 Крепость Бип в Павловске Бенуа А. Н.", "photo_path": "M:\\RESEARCH\\MLA+ Горные просторы\\04 GIS\\01 Project\\01 Stage\\01 Горные просторы\\Фото_живопись\\20.png", "photo_found": true }, "geometry": { "type": "Point", "coordinates": [ 3388891.628199984785169, 8329050.568022137507796 ] } },
{ "type": "Feature", "properties": { "fid": 21, "name": "Вид дворца с Мариентальского пруда Сергеев С. Г. ", "photo_path": "M:\\RESEARCH\\MLA+ Горные просторы\\04 GIS\\01 Project\\01 Stage\\01 Горные просторы\\Фото_живопись\\21.png", "photo_found": true }, "geometry": { "type": "Point", "coordinates": [ 3390036.020741331391037, 8329559.266986646689475 ] } },
{ "type": "Feature", "properties": { "fid": 22, "name": "Швецарские горки И.Я.Меттенлейтер", "photo_path": "M:\\RESEARCH\\MLA+ Горные просторы\\04 GIS\\01 Project\\01 Stage\\01 Горные просторы\\Фото_живопись\\22.png", "photo_found": true }, "geometry": { "type": "Point", "coordinates": [ 3390100.007397162728012, 8329883.036645471118391 ] } },
{ "type": "Feature", "properties": { "fid": 23, "name": "Гостиная в имении графини Ю.П. Самойловой \"Графская Славянка\"", "photo_path": "M:\\RESEARCH\\MLA+ Горные просторы\\04 GIS\\01 Project\\01 Stage\\01 Горные просторы\\Фото_живопись\\23.png", "photo_found": true }, "geometry": { "type": "Point", "coordinates": [ 3384966.398024384398013, 8322943.706900584511459 ] } },
{ "type": "Feature", "properties": { "fid": 24, "name": "Церковь Смоленской иконы Божией Матери в Пулково  Ф.А.Клагес", "photo_path": "M:\\RESEARCH\\MLA+ Горные просторы\\04 GIS\\01 Project\\01 Stage\\01 Горные просторы\\Фото_живопись\\24.png", "photo_found": true }, "geometry": { "type": "Point", "coordinates": [ 3378473.088204511906952, 8348008.184947391040623 ] } },
{ "type": "Feature", "properties": { "fid": 25, "name": "Царскосельская дорога и фонтан-грот", "photo_path": "M:\\RESEARCH\\MLA+ Горные просторы\\04 GIS\\01 Project\\01 Stage\\01 Горные просторы\\Фото_живопись\\25.png", "photo_found": true }, "geometry": { "type": "Point", "coordinates": [ 3376314.755442215595394, 8349690.682241530157626 ] } },
{ "type": "Feature", "properties": { "fid": 26, "name": "Вид на Пулковскую обсерваторию", "photo_path": "M:\\RESEARCH\\MLA+ Горные просторы\\04 GIS\\01 Project\\01 Stage\\01 Горные просторы\\Фото_живопись\\26.png", "photo_found": true }, "geometry": { "type": "Point", "coordinates": [ 3375860.976514559239149, 8350937.415836339816451 ] } },
{ "type": "Feature", "properties": { "fid": 27, "name": "Дудергоф Френц Р. Р. ", "photo_path": "M:\\RESEARCH\\MLA+ Горные просторы\\04 GIS\\01 Project\\01 Stage\\01 Горные просторы\\Фото_живопись\\27.jpg", "photo_found": true }, "geometry": { "type": "Point", "coordinates": [ 3352063.134668034501374, 8335700.183990763500333 ] } },
{ "type": "Feature", "properties": { "fid": 28, "name": "Молочный домик Копия литографии 1855–1865 годов", "photo_path": "M:\\RESEARCH\\MLA+ Горные просторы\\04 GIS\\01 Project\\01 Stage\\01 Горные просторы\\Фото_живопись\\28.jpg", "photo_found": true }, "geometry": { "type": "Point", "coordinates": [ 3354354.851541876327246, 8332624.429693170823157 ] } },
{ "type": "Feature", "properties": { "fid": 29, "name": "Швейцарский домик Кольман К. И. ", "photo_path": "M:\\RESEARCH\\MLA+ Горные просторы\\04 GIS\\01 Project\\01 Stage\\01 Горные просторы\\Фото_живопись\\29.png", "photo_found": true }, "geometry": { "type": "Point", "coordinates": [ 3354385.501341928262264, 8332686.205148494802415 ] } },
{ "type": "Feature", "properties": { "fid": 30, "name": "В.Запорожец \"Бой у Вороньей горы\" ", "photo_path": "M:\\RESEARCH\\MLA+ Горные просторы\\04 GIS\\01 Project\\01 Stage\\01 Горные просторы\\Фото_живопись\\30.jpg", "photo_found": true }, "geometry": { "type": "Point", "coordinates": [ 3353343.51870384439826, 8333850.865470882505178 ] } },
{ "type": "Feature", "properties": { "fid": 31, "name": " О.Гадалов «Бой орудия № 1 арбатареи крейсера „Аврора“ на Вороньей горе 11 сентября 1941 года»", "photo_path": "M:\\RESEARCH\\MLA+ Горные просторы\\04 GIS\\01 Project\\01 Stage\\01 Горные просторы\\Фото_живопись\\31.jpg", "photo_found": true }, "geometry": { "type": "Point", "coordinates": [ 3353300.242587017826736, 8333847.326667124405503 ] } },
{ "type": "Feature", "properties": { "fid": 32, "name": "Вид Красного села под Петербургом", "photo_path": "M:\\RESEARCH\\MLA+ Горные просторы\\04 GIS\\01 Project\\01 Stage\\01 Горные просторы\\Фото_живопись\\32.png", "photo_found": true }, "geometry": { "type": "Point", "coordinates": [ 3350149.978385866153985, 8339743.367322356440127 ] } },
{ "type": "Feature", "properties": { "fid": 33, "name": "Вид в окрестностях Петербурга Чернецов Г. Г. ", "photo_path": "M:\\RESEARCH\\MLA+ Горные просторы\\04 GIS\\01 Project\\01 Stage\\01 Горные просторы\\Фото_живопись\\33.png", "photo_found": true }, "geometry": { "type": "Point", "coordinates": [ 3358626.038412411697209, 8332080.085687318816781 ] } },
{ "type": "Feature", "properties": { "fid": 34, "name": "Император Александр II с семьей на маневрах Сверчков Н. Е. ", "photo_path": "M:\\RESEARCH\\MLA+ Горные просторы\\04 GIS\\01 Project\\01 Stage\\01 Горные просторы\\Фото_живопись\\34.png", "photo_found": true }, "geometry": { "type": "Point", "coordinates": [ 3347235.817812636494637, 8332598.957527191378176 ] } },
{ "type": "Feature", "properties": { "fid": 35, "name": "Царь Александр II на смотре войск ", "photo_path": "M:\\RESEARCH\\MLA+ Горные просторы\\04 GIS\\01 Project\\01 Stage\\01 Горные просторы\\Фото_живопись\\35.png", "photo_found": true }, "geometry": { "type": "Point", "coordinates": [ 3347320.481417718809098, 8333493.980998523533344 ] } },
{ "type": "Feature", "properties": { "fid": 36, "name": "Военный парад в Красном Селе Кавасаки Домин", "photo_path": "M:\\RESEARCH\\MLA+ Горные просторы\\04 GIS\\01 Project\\01 Stage\\01 Горные просторы\\Фото_живопись\\36.png", "photo_found": true }, "geometry": { "type": "Point", "coordinates": [ 3347258.147889066953212, 8333695.871797795407474 ] } },
{ "type": "Feature", "properties": { "fid": 37, "name": "Александр II с императрицей в экипаже Франц Тейхель", "photo_path": "M:\\RESEARCH\\MLA+ Горные просторы\\04 GIS\\01 Project\\01 Stage\\01 Горные просторы\\Фото_живопись\\37.png", "photo_found": true }, "geometry": { "type": "Point", "coordinates": [ 3351840.520980975590646, 8329547.66848052572459 ] } },
{ "type": "Feature", "properties": { "fid": 38, "name": "Лагерь 2-й гвардейской пехотной дивизии в Красном Селе  Зауервейд А. И.  ", "photo_path": "M:\\RESEARCH\\MLA+ Горные просторы\\04 GIS\\01 Project\\01 Stage\\01 Горные просторы\\Фото_живопись\\38.png", "photo_found": true }, "geometry": { "type": "Point", "coordinates": [ 3353285.417369719129056, 8339563.14104622323066 ] } },
{ "type": "Feature", "properties": { "fid": 39, "name": "Император Александр III на маневрах в Красном Селе Германн Людерс", "photo_path": "M:\\RESEARCH\\MLA+ Горные просторы\\04 GIS\\01 Project\\01 Stage\\01 Горные просторы\\Фото_живопись\\39.png", "photo_found": true }, "geometry": { "type": "Point", "coordinates": [ 3347465.127065760549158, 8333740.071932414546609 ] } },
{ "type": "Feature", "properties": { "fid": 40, "name": "Лейб-гвардии Кавказско-горский полуэскадрон на манёврах в Красном Селе А.И.Ладюрнер", "photo_path": "M:\\RESEARCH\\MLA+ Горные просторы\\04 GIS\\01 Project\\01 Stage\\01 Горные просторы\\Фото_живопись\\40.png", "photo_found": true }, "geometry": { "type": "Point", "coordinates": [ 3347595.325906825717539, 8333590.505217623896897 ] } }
]
}
