{
"type": "FeatureCollection",
"name": "23_2_viewshed",
"crs": { "type": "name", "properties": { "name": "urn:ogc:def:crs:EPSG::3857" } },
"features": [
{ "type": "Feature", "properties": { "fid": 1, "id": null, "photo": null, "name": null, "azimuth": null, "left_deg": null, "right_deg": null, "los_m": null, "side_m": null, "fov_deg": null, "layer": "1", "path": "C:/Work/SPb_Mountains/23_3_mask/1.gpkg|layername=1" }, "geometry": { "type": "Polygon", "coordinates": [ [ [ 3556722.391643989365548, 8491537.42320479825139 ], [ 3555290.9307, 8285243.652990400791168 ], [ 3221568.942530985921621, 8285946.280299999751151 ], [ 3219797.031397941987962, 8491311.280300000682473 ], [ 3556722.391643989365548, 8491537.42320479825139 ] ], [ [ 3335392.225185957737267, 8374005.203268035314977 ], [ 3325724.038831288460642, 8369868.220270693302155 ], [ 3342224.541834047529846, 8344517.421757076866925 ], [ 3335392.225185957737267, 8374005.203268035314977 ] ] ] } },
{ "type": "Feature", "properties": { "fid": 1, "id": null, "photo": null, "name": null, "azimuth": null, "left_deg": null, "right_deg": null, "los_m": null, "side_m": null, "fov_deg": null, "layer": "10", "path": "C:/Work/SPb_Mountains/23_3_mask/10.gpkg|layername=10" }, "geometry": { "type": "Polygon", "coordinates": [ [ [ 3556722.391643989365548, 8491537.42320479825139 ], [ 3555290.9307, 8285243.652990400791168 ], [ 3221568.942530985921621, 8285946.280299999751151 ], [ 3219797.031397941987962, 8491311.280300000682473 ], [ 3556722.391643989365548, 8491537.42320479825139 ] ], [ [ 3291190.572201963979751, 8413824.11760975047946 ], [ 3301631.838838486000896, 8415499.580862909555435 ], [ 3291648.386516973841935, 8444379.152539337053895 ], [ 3291190.572201963979751, 8413824.11760975047946 ] ] ] } },
{ "type": "Feature", "properties": { "fid": 1, "id": null, "photo": null, "name": null, "azimuth": null, "left_deg": null, "right_deg": null, "los_m": null, "side_m": null, "fov_deg": null, "layer": "11", "path": "C:/Work/SPb_Mountains/23_3_mask/11.gpkg|layername=11" }, "geometry": { "type": "Polygon", "coordinates": [ [ [ 3556722.391643989365548, 8491537.42320479825139 ], [ 3555290.9307, 8285243.652990400791168 ], [ 3221568.942530985921621, 8285946.280299999751151 ], [ 3219797.031397941987962, 8491311.280300000682473 ], [ 3556722.391643989365548, 8491537.42320479825139 ] ], [ [ 3338053.57816547062248, 8391478.480448184534907 ], [ 3327778.459143608808517, 8393843.543154239654541 ], [ 3326248.030359552241862, 8363531.265490123070776 ], [ 3338053.57816547062248, 8391478.480448184534907 ] ] ] } },
{ "type": "Feature", "properties": { "fid": 1, "id": null, "photo": null, "name": null, "azimuth": null, "left_deg": null, "right_deg": null, "los_m": null, "side_m": null, "fov_deg": null, "layer": "12", "path": "C:/Work/SPb_Mountains/23_3_mask/12.gpkg|layername=12" }, "geometry": { "type": "Polygon", "coordinates": [ [ [ 3556722.391643989365548, 8491537.42320479825139 ], [ 3555290.9307, 8285243.652990400791168 ], [ 3221568.942530985921621, 8285946.280299999751151 ], [ 3219797.031397941987962, 8491311.280300000682473 ], [ 3556722.391643989365548, 8491537.42320479825139 ] ], [ [ 3350840.45182530535385, 8381215.934326038695872 ], [ 3343324.778319345787168, 8388606.370484829880297 ], [ 3326223.601915744598955, 8363564.49777053669095 ], [ 3350840.45182530535385, 8381215.934326038695872 ] ] ] } },
{ "type": "Feature", "properties": { "fid": 1, "id": null, "photo": null, "name": null, "azimuth": null, "left_deg": null, "right_deg": null, "los_m": null, "side_m": null, "fov_deg": null, "layer": "13", "path": "C:/Work/SPb_Mountains/23_3_mask/13.gpkg|layername=13" }, "geometry": { "type": "Polygon", "coordinates": [ [ [ 3556722.391643989365548, 8491537.42320479825139 ], [ 3555290.9307, 8285243.652990400791168 ], [ 3221568.942530985921621, 8285946.280299999751151 ], [ 3219797.031397941987962, 8491311.280300000682473 ], [ 3556722.391643989365548, 8491537.42320479825139 ] ], [ [ 3356010.021750604268163, 8368998.313725722953677 ], [ 3352356.200465808622539, 8378876.076951478607953 ], [ 3326261.326854292303324, 8363511.57235755212605 ], [ 3356010.021750604268163, 8368998.313725722953677 ] ] ] } },
{ "type": "Feature", "properties": { "fid": 1, "id": null, "photo": null, "name": null, "azimuth": null, "left_deg": null, "right_deg": null, "los_m": null, "side_m": null, "fov_deg": null, "layer": "14", "path": "C:/Work/SPb_Mountains/23_3_mask/14.gpkg|layername=14" }, "geometry": { "type": "Polygon", "coordinates": [ [ [ 3556722.391643989365548, 8491537.42320479825139 ], [ 3555290.9307, 8285243.652990400791168 ], [ 3221568.942530985921621, 8285946.280299999751151 ], [ 3219797.031397941987962, 8491311.280300000682473 ], [ 3556722.391643989365548, 8491537.42320479825139 ] ], [ [ 3346664.04130490636453, 8342164.560683330520988 ], [ 3353040.255741628352553, 8350492.07983959838748 ], [ 3326218.963603624608368, 8364423.665726351551712 ], [ 3346664.04130490636453, 8342164.560683330520988 ] ] ] } },
{ "type": "Feature", "properties": { "fid": 1, "id": null, "photo": null, "name": null, "azimuth": null, "left_deg": null, "right_deg": null, "los_m": null, "side_m": null, "fov_deg": null, "layer": "15", "path": "C:/Work/SPb_Mountains/23_3_mask/15.gpkg|layername=15" }, "geometry": { "type": "Polygon", "coordinates": [ [ [ 3556722.391643989365548, 8491537.42320479825139 ], [ 3555290.9307, 8285243.652990400791168 ], [ 3221568.942530985921621, 8285946.280299999751151 ], [ 3219797.031397941987962, 8491311.280300000682473 ], [ 3556722.391643989365548, 8491537.42320479825139 ] ], [ [ 3335747.192404292989522, 8397350.152345698326826 ], [ 3325676.924448339268565, 8400506.883317310363054 ], [ 3321811.330209831241518, 8370375.966718283481896 ], [ 3335747.192404292989522, 8397350.152345698326826 ] ] ] } },
{ "type": "Feature", "properties": { "fid": 1, "id": null, "photo": null, "name": null, "azimuth": null, "left_deg": null, "right_deg": null, "los_m": null, "side_m": null, "fov_deg": null, "layer": "16", "path": "C:/Work/SPb_Mountains/23_3_mask/16.gpkg|layername=16" }, "geometry": { "type": "Polygon", "coordinates": [ [ [ 3556722.391643989365548, 8491537.42320479825139 ], [ 3555290.9307, 8285243.652990400791168 ], [ 3221568.942530985921621, 8285946.280299999751151 ], [ 3219797.031397941987962, 8491311.280300000682473 ], [ 3556722.391643989365548, 8491537.42320479825139 ] ], [ [ 3349053.351572475861758, 8384394.60402431897819 ], [ 3342632.633796426933259, 8392763.616610901430249 ], [ 3322211.771155876573175, 8370325.456320114433765 ], [ 3349053.351572475861758, 8384394.60402431897819 ] ] ] } },
{ "type": "Feature", "properties": { "fid": 1, "id": null, "photo": null, "name": null, "azimuth": null, "left_deg": null, "right_deg": null, "los_m": null, "side_m": null, "fov_deg": null, "layer": "17", "path": "C:/Work/SPb_Mountains/23_3_mask/17.gpkg|layername=17" }, "geometry": { "type": "Polygon", "coordinates": [ [ [ 3556722.391643989365548, 8491537.42320479825139 ], [ 3555290.9307, 8285243.652990400791168 ], [ 3221568.942530985921621, 8285946.280299999751151 ], [ 3219797.031397941987962, 8491311.280300000682473 ], [ 3556722.391643989365548, 8491537.42320479825139 ] ], [ [ 3337580.647120945621282, 8396476.416432116180658 ], [ 3327682.734876575879753, 8400136.930805809795856 ], [ 3322309.79415194131434, 8370239.835825668647885 ], [ 3337580.647120945621282, 8396476.416432116180658 ] ] ] } },
{ "type": "Feature", "properties": { "fid": 1, "id": null, "photo": null, "name": null, "azimuth": null, "left_deg": null, "right_deg": null, "los_m": null, "side_m": null, "fov_deg": null, "layer": "18", "path": "C:/Work/SPb_Mountains/23_3_mask/18.gpkg|layername=18" }, "geometry": { "type": "Polygon", "coordinates": [ [ [ 3556722.391643989365548, 8491537.42320479825139 ], [ 3555290.9307, 8285243.652990400791168 ], [ 3221568.942530985921621, 8285946.280299999751151 ], [ 3219797.031397941987962, 8491311.280300000682473 ], [ 3556722.391643989365548, 8491537.42320479825139 ] ], [ [ 3326323.254767620470375, 8402133.618533028289676 ], [ 3317167.499707907438278, 8407404.634215453639627 ], [ 3306877.820519912987947, 8378794.476540457457304 ], [ 3326323.254767620470375, 8402133.618533028289676 ] ] ] } },
{ "type": "Feature", "properties": { "fid": 1, "id": null, "photo": null, "name": null, "azimuth": null, "left_deg": null, "right_deg": null, "los_m": null, "side_m": null, "fov_deg": null, "layer": "19", "path": "C:/Work/SPb_Mountains/23_3_mask/19.gpkg|layername=19" }, "geometry": { "type": "Polygon", "coordinates": [ [ [ 3556722.391643989365548, 8491537.42320479825139 ], [ 3555290.9307, 8285243.652990400791168 ], [ 3221568.942530985921621, 8285946.280299999751151 ], [ 3219797.031397941987962, 8491311.280300000682473 ], [ 3556722.391643989365548, 8491537.42320479825139 ] ], [ [ 3321977.98325914517045, 8405289.244006434455514 ], [ 3312237.512141418177634, 8409385.019925322383642 ], [ 3305557.756891593337059, 8379714.013135281391442 ], [ 3321977.98325914517045, 8405289.244006434455514 ] ] ] } },
{ "type": "Feature", "properties": { "fid": 1, "id": null, "photo": null, "name": null, "azimuth": null, "left_deg": null, "right_deg": null, "los_m": null, "side_m": null, "fov_deg": null, "layer": "2", "path": "C:/Work/SPb_Mountains/23_3_mask/2.gpkg|layername=2" }, "geometry": { "type": "Polygon", "coordinates": [ [ [ 3556722.391643989365548, 8491537.42320479825139 ], [ 3555290.9307, 8285243.652990400791168 ], [ 3221568.942530985921621, 8285946.280299999751151 ], [ 3219797.031397941987962, 8491311.280300000682473 ], [ 3556722.391643989365548, 8491537.42320479825139 ] ], [ [ 3349301.492217634804547, 8372051.108433211222291 ], [ 3338980.215543968603015, 8374063.319563101045787 ], [ 3338467.818240584805608, 8343797.436908611096442 ], [ 3349301.492217634804547, 8372051.108433211222291 ] ] ] } },
{ "type": "Feature", "properties": { "fid": 1, "id": null, "photo": null, "name": null, "azimuth": null, "left_deg": null, "right_deg": null, "los_m": null, "side_m": null, "fov_deg": null, "layer": "20", "path": "C:/Work/SPb_Mountains/23_3_mask/20.gpkg|layername=20" }, "geometry": { "type": "Polygon", "coordinates": [ [ [ 3556722.391643989365548, 8491537.42320479825139 ], [ 3555290.9307, 8285243.652990400791168 ], [ 3221568.942530985921621, 8285946.280299999751151 ], [ 3219797.031397941987962, 8491311.280300000682473 ], [ 3556722.391643989365548, 8491537.42320479825139 ] ], [ [ 3327691.12300761602819, 8400692.41630426235497 ], [ 3319256.77870745677501, 8407055.505509655922651 ], [ 3305520.959615465253592, 8379934.200890335254371 ], [ 3327691.12300761602819, 8400692.41630426235497 ] ] ] } },
{ "type": "Feature", "properties": { "fid": 1, "id": null, "photo": null, "name": null, "azimuth": null, "left_deg": null, "right_deg": null, "los_m": null, "side_m": null, "fov_deg": null, "layer": "21", "path": "C:/Work/SPb_Mountains/23_3_mask/21.gpkg|layername=21" }, "geometry": { "type": "Polygon", "coordinates": [ [ [ 3556722.391643989365548, 8491537.42320479825139 ], [ 3555290.9307, 8285243.652990400791168 ], [ 3221568.942530985921621, 8285946.280299999751151 ], [ 3219797.031397941987962, 8491311.280300000682473 ], [ 3556722.391643989365548, 8491537.42320479825139 ] ], [ [ 3329098.315397187601775, 8399067.166430104523897 ], [ 3321127.049893759656698, 8406000.491902306675911 ], [ 3305547.243384123314172, 8379900.894757298752666 ], [ 3329098.315397187601775, 8399067.166430104523897 ] ] ] } },
{ "type": "Feature", "properties": { "fid": 1, "id": null, "photo": null, "name": null, "azimuth": null, "left_deg": null, "right_deg": null, "los_m": null, "side_m": null, "fov_deg": null, "layer": "22", "path": "C:/Work/SPb_Mountains/23_3_mask/22.gpkg|layername=22" }, "geometry": { "type": "Polygon", "coordinates": [ [ [ 3556722.391643989365548, 8491537.42320479825139 ], [ 3555290.9307, 8285243.652990400791168 ], [ 3221568.942530985921621, 8285946.280299999751151 ], [ 3219797.031397941987962, 8491311.280300000682473 ], [ 3556722.391643989365548, 8491537.42320479825139 ] ], [ [ 3314316.194074127823114, 8408220.315799525007606 ], [ 3304260.996075158938766, 8411476.148033117875457 ], [ 3300108.358596452511847, 8381338.129577662795782 ], [ 3314316.194074127823114, 8408220.315799525007606 ] ] ] } },
{ "type": "Feature", "properties": { "fid": 1, "id": null, "photo": null, "name": null, "azimuth": null, "left_deg": null, "right_deg": null, "los_m": null, "side_m": null, "fov_deg": null, "layer": "23", "path": "C:/Work/SPb_Mountains/23_3_mask/23.gpkg|layername=23" }, "geometry": { "type": "Polygon", "coordinates": [ [ [ 3556722.391643989365548, 8491537.42320479825139 ], [ 3555290.9307, 8285243.652990400791168 ], [ 3221568.942530985921621, 8285946.280299999751151 ], [ 3219797.031397941987962, 8491311.280300000682473 ], [ 3556722.391643989365548, 8491537.42320479825139 ] ], [ [ 3328986.860425202175975, 8382219.876639251597226 ], [ 3327022.313062153290957, 8392587.980710629373789 ], [ 3298676.975477328523993, 8381765.653065011836588 ], [ 3328986.860425202175975, 8382219.876639251597226 ] ] ] } },
{ "type": "Feature", "properties": { "fid": 1, "id": null, "photo": null, "name": null, "azimuth": null, "left_deg": null, "right_deg": null, "los_m": null, "side_m": null, "fov_deg": null, "layer": "24", "path": "C:/Work/SPb_Mountains/23_3_mask/24.gpkg|layername=24" }, "geometry": { "type": "Polygon", "coordinates": [ [ [ 3556722.391643989365548, 8491537.42320479825139 ], [ 3555290.9307, 8285243.652990400791168 ], [ 3221568.942530985921621, 8285946.280299999751151 ], [ 3219797.031397941987962, 8491311.280300000682473 ], [ 3556722.391643989365548, 8491537.42320479825139 ] ], [ [ 3326879.21968393586576, 8392928.056701919063926 ], [ 3321366.203577268868685, 8401937.844217903912067 ], [ 3298672.955606828443706, 8381745.294241402298212 ], [ 3326879.21968393586576, 8392928.056701919063926 ] ] ] } },
{ "type": "Feature", "properties": { "fid": 1, "id": null, "photo": null, "name": null, "azimuth": null, "left_deg": null, "right_deg": null, "los_m": null, "side_m": null, "fov_deg": null, "layer": "25", "path": "C:/Work/SPb_Mountains/23_3_mask/25.gpkg|layername=25" }, "geometry": { "type": "Polygon", "coordinates": [ [ [ 3556722.391643989365548, 8491537.42320479825139 ], [ 3555290.9307, 8285243.652990400791168 ], [ 3221568.942530985921621, 8285946.280299999751151 ], [ 3219797.031397941987962, 8491311.280300000682473 ], [ 3556722.391643989365548, 8491537.42320479825139 ] ], [ [ 3355403.98468709923327, 8392164.419164085760713 ], [ 3362575.713203724008054, 8399911.856905952095985 ], [ 3336995.308754033409059, 8416403.948737619444728 ], [ 3355403.98468709923327, 8392164.419164085760713 ] ] ] } },
{ "type": "Feature", "properties": { "fid": 1, "id": null, "photo": null, "name": null, "azimuth": null, "left_deg": null, "right_deg": null, "los_m": null, "side_m": null, "fov_deg": null, "layer": "26", "path": "C:/Work/SPb_Mountains/23_3_mask/26.gpkg|layername=26" }, "geometry": { "type": "Polygon", "coordinates": [ [ [ 3556722.391643989365548, 8491537.42320479825139 ], [ 3555290.9307, 8285243.652990400791168 ], [ 3221568.942530985921621, 8285946.280299999751151 ], [ 3219797.031397941987962, 8491311.280300000682473 ], [ 3556722.391643989365548, 8491537.42320479825139 ] ], [ [ 3370704.008077488280833, 8395775.670980529859662 ], [ 3380701.0226332959719, 8392415.062230821698904 ], [ 3385253.854116957634687, 8422541.09552788361907 ], [ 3370704.008077488280833, 8395775.670980529859662 ] ] ] } },
{ "type": "Feature", "properties": { "fid": 1, "id": null, "photo": null, "name": null, "azimuth": null, "left_deg": null, "right_deg": null, "los_m": null, "side_m": null, "fov_deg": null, "layer": "27", "path": "C:/Work/SPb_Mountains/23_3_mask/27.gpkg|layername=27" }, "geometry": { "type": "Polygon", "coordinates": [ [ [ 3556722.391643989365548, 8491537.42320479825139 ], [ 3555290.9307, 8285243.652990400791168 ], [ 3221568.942530985921621, 8285946.280299999751151 ], [ 3219797.031397941987962, 8491311.280300000682473 ], [ 3556722.391643989365548, 8491537.42320479825139 ] ], [ [ 3370704.008077488280833, 8395775.670980529859662 ], [ 3380701.0226332959719, 8392415.062230821698904 ], [ 3385253.854116957634687, 8422541.09552788361907 ], [ 3370704.008077488280833, 8395775.670980529859662 ] ] ] } },
{ "type": "Feature", "properties": { "fid": 1, "id": null, "photo": null, "name": null, "azimuth": null, "left_deg": null, "right_deg": null, "los_m": null, "side_m": null, "fov_deg": null, "layer": "28", "path": "C:/Work/SPb_Mountains/23_3_mask/28.gpkg|layername=28" }, "geometry": { "type": "Polygon", "coordinates": [ [ [ 3556722.391643989365548, 8491537.42320479825139 ], [ 3555290.9307, 8285243.652990400791168 ], [ 3221568.942530985921621, 8285946.280299999751151 ], [ 3219797.031397941987962, 8491311.280300000682473 ], [ 3556722.391643989365548, 8491537.42320479825139 ] ], [ [ 3382941.021045739296824, 8391924.69147520698607 ], [ 3393425.176435819361359, 8393035.523840315639973 ], [ 3385025.339940021280199, 8422320.870879305526614 ], [ 3382941.021045739296824, 8391924.69147520698607 ] ] ] } },
{ "type": "Feature", "properties": { "fid": 1, "id": null, "photo": null, "name": null, "azimuth": null, "left_deg": null, "right_deg": null, "los_m": null, "side_m": null, "fov_deg": null, "layer": "29", "path": "C:/Work/SPb_Mountains/23_3_mask/29.gpkg|layername=29" }, "geometry": { "type": "Polygon", "coordinates": [ [ [ 3556722.391643989365548, 8491537.42320479825139 ], [ 3555290.9307, 8285243.652990400791168 ], [ 3221568.942530985921621, 8285946.280299999751151 ], [ 3219797.031397941987962, 8491311.280300000682473 ], [ 3556722.391643989365548, 8491537.42320479825139 ] ], [ [ 3387553.747277474496514, 8392612.948934113606811 ], [ 3397322.360012600664049, 8396592.745915144681931 ], [ 3381127.920879027340561, 8422394.69192841462791 ], [ 3387553.747277474496514, 8392612.948934113606811 ] ] ] } },
{ "type": "Feature", "properties": { "fid": 1, "id": null, "photo": null, "name": null, "azimuth": null, "left_deg": null, "right_deg": null, "los_m": null, "side_m": null, "fov_deg": null, "layer": "3", "path": "C:/Work/SPb_Mountains/23_3_mask/3.gpkg|layername=3" }, "geometry": { "type": "Polygon", "coordinates": [ [ [ 3556722.391643989365548, 8491537.42320479825139 ], [ 3555290.9307, 8285243.652990400791168 ], [ 3221568.942530985921621, 8285946.280299999751151 ], [ 3219797.031397941987962, 8491311.280300000682473 ], [ 3556722.391643989365548, 8491537.42320479825139 ] ], [ [ 3339703.913184765260667, 8373369.050903310999274 ], [ 3329244.767663821112365, 8372288.574893821030855 ], [ 3337520.365685611963272, 8343180.625933325849473 ], [ 3339703.913184765260667, 8373369.050903310999274 ] ] ] } },
{ "type": "Feature", "properties": { "fid": 1, "id": null, "photo": null, "name": null, "azimuth": null, "left_deg": null, "right_deg": null, "los_m": null, "side_m": null, "fov_deg": null, "layer": "30", "path": "C:/Work/SPb_Mountains/23_3_mask/30.gpkg|layername=30" }, "geometry": { "type": "Polygon", "coordinates": [ [ [ 3556722.391643989365548, 8491537.42320479825139 ], [ 3555290.9307, 8285243.652990400791168 ], [ 3221568.942530985921621, 8285946.280299999751151 ], [ 3219797.031397941987962, 8491311.280300000682473 ], [ 3556722.391643989365548, 8491537.42320479825139 ] ], [ [ 3382356.684571723453701, 8391873.696739606559277 ], [ 3392637.695152347907424, 8394215.404744938015938 ], [ 3380840.96396942390129, 8422303.501328324899077 ], [ 3382356.684571723453701, 8391873.696739606559277 ] ] ] } },
{ "type": "Feature", "properties": { "fid": 1, "id": null, "photo": null, "name": null, "azimuth": null, "left_deg": null, "right_deg": null, "los_m": null, "side_m": null, "fov_deg": null, "layer": "31", "path": "C:/Work/SPb_Mountains/23_3_mask/31.gpkg|layername=31" }, "geometry": { "type": "Polygon", "coordinates": [ [ [ 3556722.391643989365548, 8491537.42320479825139 ], [ 3555290.9307, 8285243.652990400791168 ], [ 3221568.942530985921621, 8285946.280299999751151 ], [ 3219797.031397941987962, 8491311.280300000682473 ], [ 3556722.391643989365548, 8491537.42320479825139 ] ], [ [ 3386722.941349064465612, 8392425.827508494257927 ], [ 3396508.472369099967182, 8396362.900269163772464 ], [ 3380426.917307839728892, 8422234.643869047984481 ], [ 3386722.941349064465612, 8392425.827508494257927 ] ] ] } },
{ "type": "Feature", "properties": { "fid": 1, "id": null, "photo": null, "name": null, "azimuth": null, "left_deg": null, "right_deg": null, "los_m": null, "side_m": null, "fov_deg": null, "layer": "32", "path": "C:/Work/SPb_Mountains/23_3_mask/32.gpkg|layername=32" }, "geometry": { "type": "Polygon", "coordinates": [ [ [ 3556722.391643989365548, 8491537.42320479825139 ], [ 3555290.9307, 8285243.652990400791168 ], [ 3221568.942530985921621, 8285946.280299999751151 ], [ 3219797.031397941987962, 8491311.280300000682473 ], [ 3556722.391643989365548, 8491537.42320479825139 ] ], [ [ 3358982.267302921973169, 8400615.925812205299735 ], [ 3367737.286051803734154, 8394719.293701872229576 ], [ 3380110.584421497769654, 8422559.086001679301262 ], [ 3358982.267302921973169, 8400615.925812205299735 ] ] ] } },
{ "type": "Feature", "properties": { "fid": 1, "id": null, "photo": null, "name": null, "azimuth": null, "left_deg": null, "right_deg": null, "los_m": null, "side_m": null, "fov_deg": null, "layer": "33", "path": "C:/Work/SPb_Mountains/23_3_mask/33.gpkg|layername=33" }, "geometry": { "type": "Polygon", "coordinates": [ [ [ 3556722.391643989365548, 8491537.42320479825139 ], [ 3555290.9307, 8285243.652990400791168 ], [ 3221568.942530985921621, 8285946.280299999751151 ], [ 3219797.031397941987962, 8491311.280300000682473 ], [ 3556722.391643989365548, 8491537.42320479825139 ] ], [ [ 3391225.100149858277291, 8398953.504593940451741 ], [ 3398811.759369582869112, 8406307.263089392334223 ], [ 3374137.984519629273564, 8424181.51131359115243 ], [ 3391225.100149858277291, 8398953.504593940451741 ] ] ] } },
{ "type": "Feature", "properties": { "fid": 1, "id": null, "photo": null, "name": null, "azimuth": null, "left_deg": null, "right_deg": null, "los_m": null, "side_m": null, "fov_deg": null, "layer": "34", "path": "C:/Work/SPb_Mountains/23_3_mask/34.gpkg|layername=34" }, "geometry": { "type": "Polygon", "coordinates": [ [ [ 3556722.391643989365548, 8491537.42320479825139 ], [ 3555290.9307, 8285243.652990400791168 ], [ 3221568.942530985921621, 8285946.280299999751151 ], [ 3219797.031397941987962, 8491311.280300000682473 ], [ 3556722.391643989365548, 8491537.42320479825139 ] ], [ [ 3362568.013045638799667, 8396191.160883577540517 ], [ 3372757.315677309874445, 8393466.977040514349937 ], [ 3375405.78983144229278, 8423825.353654343634844 ], [ 3362568.013045638799667, 8396191.160883577540517 ] ] ] } },
{ "type": "Feature", "properties": { "fid": 1, "id": null, "photo": null, "name": null, "azimuth": null, "left_deg": null, "right_deg": null, "los_m": null, "side_m": null, "fov_deg": null, "layer": "35", "path": "C:/Work/SPb_Mountains/23_3_mask/35.gpkg|layername=35" }, "geometry": { "type": "Polygon", "coordinates": [ [ [ 3556722.391643989365548, 8491537.42320479825139 ], [ 3555290.9307, 8285243.652990400791168 ], [ 3221568.942530985921621, 8285946.280299999751151 ], [ 3219797.031397941987962, 8491311.280300000682473 ], [ 3556722.391643989365548, 8491537.42320479825139 ] ], [ [ 3378317.913208388257772, 8386632.300071496516466 ], [ 3388238.895349722355604, 8390187.791283510625362 ], [ 3373173.524820227175951, 8416638.253202326595783 ], [ 3378317.913208388257772, 8386632.300071496516466 ] ] ] } },
{ "type": "Feature", "properties": { "fid": 1, "id": null, "photo": null, "name": null, "azimuth": null, "left_deg": null, "right_deg": null, "los_m": null, "side_m": null, "fov_deg": null, "layer": "36", "path": "C:/Work/SPb_Mountains/23_3_mask/36.gpkg|layername=36" }, "geometry": { "type": "Polygon", "coordinates": [ [ [ 3556722.391643989365548, 8491537.42320479825139 ], [ 3555290.9307, 8285243.652990400791168 ], [ 3221568.942530985921621, 8285946.280299999751151 ], [ 3219797.031397941987962, 8491311.280300000682473 ], [ 3556722.391643989365548, 8491537.42320479825139 ] ], [ [ 3361724.122800619341433, 8387971.215462605468929 ], [ 3372193.312745579518378, 8386790.287432227283716 ], [ 3370315.706114920321852, 8417178.793544935062528 ], [ 3361724.122800619341433, 8387971.215462605468929 ] ] ] } },
{ "type": "Feature", "properties": { "fid": 1, "id": null, "photo": null, "name": null, "azimuth": null, "left_deg": null, "right_deg": null, "los_m": null, "side_m": null, "fov_deg": null, "layer": "37", "path": "C:/Work/SPb_Mountains/23_3_mask/37.gpkg|layername=37" }, "geometry": { "type": "Polygon", "coordinates": [ [ [ 3556722.391643989365548, 8491537.42320479825139 ], [ 3555290.9307, 8285243.652990400791168 ], [ 3221568.942530985921621, 8285946.280299999751151 ], [ 3219797.031397941987962, 8491311.280300000682473 ], [ 3556722.391643989365548, 8491537.42320479825139 ] ], [ [ 3393857.714203111827374, 8392372.290154095739126 ], [ 3403616.326725356280804, 8396375.764010053128004 ], [ 3387359.647817790042609, 8422137.25198644772172 ], [ 3393857.714203111827374, 8392372.290154095739126 ] ] ] } },
{ "type": "Feature", "properties": { "fid": 1, "id": null, "photo": null, "name": null, "azimuth": null, "left_deg": null, "right_deg": null, "los_m": null, "side_m": null, "fov_deg": null, "layer": "38", "path": "C:/Work/SPb_Mountains/23_3_mask/38.gpkg|layername=38" }, "geometry": { "type": "Polygon", "coordinates": [ [ [ 3556722.391643989365548, 8491537.42320479825139 ], [ 3555290.9307, 8285243.652990400791168 ], [ 3221568.942530985921621, 8285946.280299999751151 ], [ 3219797.031397941987962, 8491311.280300000682473 ], [ 3556722.391643989365548, 8491537.42320479825139 ] ], [ [ 3385860.252285853493959, 8391742.975006872788072 ], [ 3396319.240692945662886, 8393069.842713259160519 ], [ 3387317.903008742257953, 8422175.091991506516933 ], [ 3385860.252285853493959, 8391742.975006872788072 ] ] ] } },
{ "type": "Feature", "properties": { "fid": 1, "id": null, "photo": null, "name": null, "azimuth": null, "left_deg": null, "right_deg": null, "los_m": null, "side_m": null, "fov_deg": null, "layer": "39", "path": "C:/Work/SPb_Mountains/23_3_mask/39.gpkg|layername=39" }, "geometry": { "type": "Polygon", "coordinates": [ [ [ 3556722.391643989365548, 8491537.42320479825139 ], [ 3555290.9307, 8285243.652990400791168 ], [ 3221568.942530985921621, 8285946.280299999751151 ], [ 3219797.031397941987962, 8491311.280300000682473 ], [ 3556722.391643989365548, 8491537.42320479825139 ] ], [ [ 3386699.96478614769876, 8410858.128103617578745 ], [ 3383126.579258501995355, 8400902.461506135761738 ], [ 3413056.51538418745622, 8395682.029750309884548 ], [ 3386699.96478614769876, 8410858.128103617578745 ] ] ] } },
{ "type": "Feature", "properties": { "fid": 1, "id": null, "photo": null, "name": null, "azimuth": null, "left_deg": null, "right_deg": null, "los_m": null, "side_m": null, "fov_deg": null, "layer": "4", "path": "C:/Work/SPb_Mountains/23_3_mask/4.gpkg|layername=4" }, "geometry": { "type": "Polygon", "coordinates": [ [ [ 3556722.391643989365548, 8491537.42320479825139 ], [ 3555290.9307, 8285243.652990400791168 ], [ 3221568.942530985921621, 8285946.280299999751151 ], [ 3219797.031397941987962, 8491311.280300000682473 ], [ 3556722.391643989365548, 8491537.42320479825139 ] ], [ [ 3334771.861016102600843, 8373410.255729621276259 ], [ 3324577.041934039909393, 8370836.507369465194643 ], [ 3336930.99082601768896, 8343219.903902099467814 ], [ 3334771.861016102600843, 8373410.255729621276259 ] ] ] } },
{ "type": "Feature", "properties": { "fid": 1, "id": null, "photo": null, "name": null, "azimuth": null, "left_deg": null, "right_deg": null, "los_m": null, "side_m": null, "fov_deg": null, "layer": "40", "path": "C:/Work/SPb_Mountains/23_3_mask/40.gpkg|layername=40" }, "geometry": { "type": "Polygon", "coordinates": [ [ [ 3556722.391643989365548, 8491537.42320479825139 ], [ 3555290.9307, 8285243.652990400791168 ], [ 3221568.942530985921621, 8285946.280299999751151 ], [ 3219797.031397941987962, 8491311.280300000682473 ], [ 3556722.391643989365548, 8491537.42320479825139 ] ], [ [ 3383871.782845314126462, 8403913.784221334382892 ], [ 3382670.633245775941759, 8393413.227912396192551 ], [ 3412982.611611132044345, 8395190.655716467648745 ], [ 3383871.782845314126462, 8403913.784221334382892 ] ] ] } },
{ "type": "Feature", "properties": { "fid": 1, "id": null, "photo": null, "name": null, "azimuth": null, "left_deg": null, "right_deg": null, "los_m": null, "side_m": null, "fov_deg": null, "layer": "41", "path": "C:/Work/SPb_Mountains/23_3_mask/41.gpkg|layername=41" }, "geometry": { "type": "Polygon", "coordinates": [ [ [ 3556722.391643989365548, 8491537.42320479825139 ], [ 3555290.9307, 8285243.652990400791168 ], [ 3221568.942530985921621, 8285946.280299999751151 ], [ 3219797.031397941987962, 8491311.280300000682473 ], [ 3556722.391643989365548, 8491537.42320479825139 ] ], [ [ 3449179.566458740271628, 8391354.791424548253417 ], [ 3446389.36020423611626, 8401544.540602594614029 ], [ 3418970.672553390264511, 8388470.465755702927709 ], [ 3449179.566458740271628, 8391354.791424548253417 ] ] ] } },
{ "type": "Feature", "properties": { "fid": 1, "id": null, "photo": null, "name": null, "azimuth": null, "left_deg": null, "right_deg": null, "los_m": null, "side_m": null, "fov_deg": null, "layer": "42", "path": "C:/Work/SPb_Mountains/23_3_mask/42.gpkg|layername=42" }, "geometry": { "type": "Polygon", "coordinates": [ [ [ 3556722.391643989365548, 8491537.42320479825139 ], [ 3555290.9307, 8285243.652990400791168 ], [ 3221568.942530985921621, 8285946.280299999751151 ], [ 3219797.031397941987962, 8491311.280300000682473 ], [ 3556722.391643989365548, 8491537.42320479825139 ] ], [ [ 3379716.900738934054971, 8385107.473807451315224 ], [ 3382948.846471799071878, 8375074.053634216077626 ], [ 3409772.281184986233711, 8389220.144556548446417 ], [ 3379716.900738934054971, 8385107.473807451315224 ] ] ] } },
{ "type": "Feature", "properties": { "fid": 1, "id": null, "photo": null, "name": null, "azimuth": null, "left_deg": null, "right_deg": null, "los_m": null, "side_m": null, "fov_deg": null, "layer": "43", "path": "C:/Work/SPb_Mountains/23_3_mask/43.gpkg|layername=43" }, "geometry": { "type": "Polygon", "coordinates": [ [ [ 3556722.391643989365548, 8491537.42320479825139 ], [ 3555290.9307, 8285243.652990400791168 ], [ 3221568.942530985921621, 8285946.280299999751151 ], [ 3219797.031397941987962, 8491311.280300000682473 ], [ 3556722.391643989365548, 8491537.42320479825139 ] ], [ [ 3386667.187155249528587, 8367502.150067406706512 ], [ 3395133.380873578134924, 8361276.398342058062553 ], [ 3408583.636399958282709, 8388455.645856286399066 ], [ 3386667.187155249528587, 8367502.150067406706512 ] ] ] } },
{ "type": "Feature", "properties": { "fid": 1, "id": null, "photo": null, "name": null, "azimuth": null, "left_deg": null, "right_deg": null, "los_m": null, "side_m": null, "fov_deg": null, "layer": "44", "path": "C:/Work/SPb_Mountains/23_3_mask/44.gpkg|layername=44" }, "geometry": { "type": "Polygon", "coordinates": [ [ [ 3556722.391643989365548, 8491537.42320479825139 ], [ 3555290.9307, 8285243.652990400791168 ], [ 3221568.942530985921621, 8285946.280299999751151 ], [ 3219797.031397941987962, 8491311.280300000682473 ], [ 3556722.391643989365548, 8491537.42320479825139 ] ], [ [ 3382167.917502564843744, 8371846.390915924683213 ], [ 3389217.754010662436485, 8364041.431020543910563 ], [ 3407849.236981532536447, 8387962.283717917278409 ], [ 3382167.917502564843744, 8371846.390915924683213 ] ] ] } },
{ "type": "Feature", "properties": { "fid": 1, "id": null, "photo": null, "name": null, "azimuth": null, "left_deg": null, "right_deg": null, "los_m": null, "side_m": null, "fov_deg": null, "layer": "45", "path": "C:/Work/SPb_Mountains/23_3_mask/45.gpkg|layername=45" }, "geometry": { "type": "Polygon", "coordinates": [ [ [ 3556722.391643989365548, 8491537.42320479825139 ], [ 3555290.9307, 8285243.652990400791168 ], [ 3221568.942530985921621, 8285946.280299999751151 ], [ 3219797.031397941987962, 8491311.280300000682473 ], [ 3556722.391643989365548, 8491537.42320479825139 ] ], [ [ 3463991.592333314474672, 8429793.143399262800813 ], [ 3464602.036839454900473, 8419204.547555828467011 ], [ 3494279.235737459268421, 8426169.857982946559787 ], [ 3463991.592333314474672, 8429793.143399262800813 ] ] ] } },
{ "type": "Feature", "properties": { "fid": 1, "id": null, "photo": null, "name": null, "azimuth": null, "left_deg": null, "right_deg": null, "los_m": null, "side_m": null, "fov_deg": null, "layer": "46", "path": "C:/Work/SPb_Mountains/23_3_mask/46.gpkg|layername=46" }, "geometry": { "type": "Polygon", "coordinates": [ [ [ 3556722.391643989365548, 8491537.42320479825139 ], [ 3555290.9307, 8285243.652990400791168 ], [ 3221568.942530985921621, 8285946.280299999751151 ], [ 3219797.031397941987962, 8491311.280300000682473 ], [ 3556722.391643989365548, 8491537.42320479825139 ] ], [ [ 3476317.65742271207273, 8450032.699139242991805 ], [ 3469128.310723663307726, 8442203.679499605670571 ], [ 3494823.155138317495584, 8425692.58094129152596 ], [ 3476317.65742271207273, 8450032.699139242991805 ] ] ] } },
{ "type": "Feature", "properties": { "fid": 1, "id": null, "photo": null, "name": null, "azimuth": null, "left_deg": null, "right_deg": null, "los_m": null, "side_m": null, "fov_deg": null, "layer": "47", "path": "C:/Work/SPb_Mountains/23_3_mask/47.gpkg|layername=47" }, "geometry": { "type": "Polygon", "coordinates": [ [ [ 3556722.391643989365548, 8491537.42320479825139 ], [ 3555290.9307, 8285243.652990400791168 ], [ 3221568.942530985921621, 8285946.280299999751151 ], [ 3219797.031397941987962, 8491311.280300000682473 ], [ 3556722.391643989365548, 8491537.42320479825139 ] ], [ [ 3379896.75648055691272, 8399722.136283924803138 ], [ 3377278.495070905424654, 8389489.420213706791401 ], [ 3407524.864354192744941, 8387113.950967747718096 ], [ 3379896.75648055691272, 8399722.136283924803138 ] ] ] } },
{ "type": "Feature", "properties": { "fid": 1, "id": null, "photo": null, "name": null, "azimuth": null, "left_deg": null, "right_deg": null, "los_m": null, "side_m": null, "fov_deg": null, "layer": "48", "path": "C:/Work/SPb_Mountains/23_3_mask/48.gpkg|layername=48" }, "geometry": { "type": "Polygon", "coordinates": [ [ [ 3556722.391643989365548, 8491537.42320479825139 ], [ 3555290.9307, 8285243.652990400791168 ], [ 3221568.942530985921621, 8285946.280299999751151 ], [ 3219797.031397941987962, 8491311.280300000682473 ], [ 3556722.391643989365548, 8491537.42320479825139 ] ], [ [ 3377700.013377717230469, 8388315.717618434689939 ], [ 3379229.24685524450615, 8377880.478955689817667 ], [ 3408023.019075492396951, 8387381.899959789589047 ], [ 3377700.013377717230469, 8388315.717618434689939 ] ] ] } },
{ "type": "Feature", "properties": { "fid": 1, "id": null, "photo": null, "name": null, "azimuth": null, "left_deg": null, "right_deg": null, "los_m": null, "side_m": null, "fov_deg": null, "layer": "49", "path": "C:/Work/SPb_Mountains/23_3_mask/49.gpkg|layername=49" }, "geometry": { "type": "Polygon", "coordinates": [ [ [ 3556722.391643989365548, 8491537.42320479825139 ], [ 3555290.9307, 8285243.652990400791168 ], [ 3221568.942530985921621, 8285946.280299999751151 ], [ 3219797.031397941987962, 8491311.280300000682473 ], [ 3556722.391643989365548, 8491537.42320479825139 ] ], [ [ 3462932.574647570494562, 8435444.743452589958906 ], [ 3461337.497787355910987, 8424951.266849189996719 ], [ 3491822.16719900816679, 8425606.935022290796041 ], [ 3462932.574647570494562, 8435444.743452589958906 ] ] ] } },
{ "type": "Feature", "properties": { "fid": 1, "id": null, "photo": null, "name": null, "azimuth": null, "left_deg": null, "right_deg": null, "los_m": null, "side_m": null, "fov_deg": null, "layer": "5", "path": "C:/Work/SPb_Mountains/23_3_mask/5.gpkg|layername=5" }, "geometry": { "type": "Polygon", "coordinates": [ [ [ 3556722.391643989365548, 8491537.42320479825139 ], [ 3555290.9307, 8285243.652990400791168 ], [ 3221568.942530985921621, 8285946.280299999751151 ], [ 3219797.031397941987962, 8491311.280300000682473 ], [ 3556722.391643989365548, 8491537.42320479825139 ] ], [ [ 3363124.618249993771315, 8372812.868834878318012 ], [ 3353055.745397896040231, 8375854.475013957358897 ], [ 3349514.113156156614423, 8345785.084884012117982 ], [ 3363124.618249993771315, 8372812.868834878318012 ] ] ] } },
{ "type": "Feature", "properties": { "fid": 1, "id": null, "photo": null, "name": null, "azimuth": null, "left_deg": null, "right_deg": null, "los_m": null, "side_m": null, "fov_deg": null, "layer": "50", "path": "C:/Work/SPb_Mountains/23_3_mask/50.gpkg|layername=50" }, "geometry": { "type": "Polygon", "coordinates": [ [ [ 3556722.391643989365548, 8491537.42320479825139 ], [ 3555290.9307, 8285243.652990400791168 ], [ 3221568.942530985921621, 8285946.280299999751151 ], [ 3219797.031397941987962, 8491311.280300000682473 ], [ 3556722.391643989365548, 8491537.42320479825139 ] ], [ [ 3393197.121719117742032, 8351956.730196394026279 ], [ 3387558.206874151714146, 8343109.558705234900117 ], [ 3415366.394818147644401, 8331489.989997715689242 ], [ 3393197.121719117742032, 8351956.730196394026279 ] ] ] } },
{ "type": "Feature", "properties": { "fid": 1, "id": null, "photo": null, "name": null, "azimuth": null, "left_deg": null, "right_deg": null, "los_m": null, "side_m": null, "fov_deg": null, "layer": "51", "path": "C:/Work/SPb_Mountains/23_3_mask/51.gpkg|layername=51" }, "geometry": { "type": "Polygon", "coordinates": [ [ [ 3556722.391643989365548, 8491537.42320479825139 ], [ 3555290.9307, 8285243.652990400791168 ], [ 3221568.942530985921621, 8285946.280299999751151 ], [ 3219797.031397941987962, 8491311.280300000682473 ], [ 3556722.391643989365548, 8491537.42320479825139 ] ], [ [ 3408654.191607842221856, 8360932.125572334043682 ], [ 3398992.994903572369367, 8356826.141695058904588 ], [ 3415402.573652655817568, 8331479.573323314078152 ], [ 3408654.191607842221856, 8360932.125572334043682 ] ] ] } },
{ "type": "Feature", "properties": { "fid": 1, "id": null, "photo": null, "name": null, "azimuth": null, "left_deg": null, "right_deg": null, "los_m": null, "side_m": null, "fov_deg": null, "layer": "52", "path": "C:/Work/SPb_Mountains/23_3_mask/52.gpkg|layername=52" }, "geometry": { "type": "Polygon", "coordinates": [ [ [ 3556722.391643989365548, 8491537.42320479825139 ], [ 3555290.9307, 8285243.652990400791168 ], [ 3221568.942530985921621, 8285946.280299999751151 ], [ 3219797.031397941987962, 8491311.280300000682473 ], [ 3556722.391643989365548, 8491537.42320479825139 ] ], [ [ 3447674.930390222463757, 8330090.055007017217577 ], [ 3446444.157407444901764, 8340496.581443981267512 ], [ 3417615.357752982061356, 8331737.543523259460926 ], [ 3447674.930390222463757, 8330090.055007017217577 ] ] ] } },
{ "type": "Feature", "properties": { "fid": 1, "id": null, "photo": null, "name": null, "azimuth": null, "left_deg": null, "right_deg": null, "los_m": null, "side_m": null, "fov_deg": null, "layer": "53", "path": "C:/Work/SPb_Mountains/23_3_mask/53.gpkg|layername=53" }, "geometry": { "type": "Polygon", "coordinates": [ [ [ 3556722.391643989365548, 8491537.42320479825139 ], [ 3555290.9307, 8285243.652990400791168 ], [ 3221568.942530985921621, 8285946.280299999751151 ], [ 3219797.031397941987962, 8491311.280300000682473 ], [ 3556722.391643989365548, 8491537.42320479825139 ] ], [ [ 3406478.552101373206824, 8307616.008527015335858 ], [ 3414852.848376100417227, 8301408.098128726705909 ], [ 3428297.081336217466742, 8328317.259870488196611 ], [ 3406478.552101373206824, 8307616.008527015335858 ] ] ] } },
{ "type": "Feature", "properties": { "fid": 1, "id": null, "photo": null, "name": null, "azimuth": null, "left_deg": null, "right_deg": null, "los_m": null, "side_m": null, "fov_deg": null, "layer": "6", "path": "C:/Work/SPb_Mountains/23_3_mask/6.gpkg|layername=6" }, "geometry": { "type": "Polygon", "coordinates": [ [ [ 3556722.391643989365548, 8491537.42320479825139 ], [ 3555290.9307, 8285243.652990400791168 ], [ 3221568.942530985921621, 8285946.280299999751151 ], [ 3219797.031397941987962, 8491311.280300000682473 ], [ 3556722.391643989365548, 8491537.42320479825139 ] ], [ [ 3328559.636322496924549, 8369087.158133276738226 ], [ 3321739.172068418934941, 8361085.64633084833622 ], [ 3347739.185719624627382, 8345703.432226223871112 ], [ 3328559.636322496924549, 8369087.158133276738226 ] ] ] } },
{ "type": "Feature", "properties": { "fid": 1, "id": null, "photo": null, "name": null, "azimuth": null, "left_deg": null, "right_deg": null, "los_m": null, "side_m": null, "fov_deg": null, "layer": "7", "path": "C:/Work/SPb_Mountains/23_3_mask/7.gpkg|layername=7" }, "geometry": { "type": "Polygon", "coordinates": [ [ [ 3556722.391643989365548, 8491537.42320479825139 ], [ 3555290.9307, 8285243.652990400791168 ], [ 3221568.942530985921621, 8285946.280299999751151 ], [ 3219797.031397941987962, 8491311.280300000682473 ], [ 3556722.391643989365548, 8491537.42320479825139 ] ], [ [ 3327293.110658383928239, 8370363.694413552060723 ], [ 3319746.913824244402349, 8363041.761088909581304 ], [ 3344185.310976048931479, 8345270.012936141341925 ], [ 3327293.110658383928239, 8370363.694413552060723 ] ] ] } },
{ "type": "Feature", "properties": { "fid": 1, "id": null, "photo": null, "name": null, "azimuth": null, "left_deg": null, "right_deg": null, "los_m": null, "side_m": null, "fov_deg": null, "layer": "8", "path": "C:/Work/SPb_Mountains/23_3_mask/8.gpkg|layername=8" }, "geometry": { "type": "Polygon", "coordinates": [ [ [ 3556722.391643989365548, 8491537.42320479825139 ], [ 3555290.9307, 8285243.652990400791168 ], [ 3221568.942530985921621, 8285946.280299999751151 ], [ 3219797.031397941987962, 8491311.280300000682473 ], [ 3556722.391643989365548, 8491537.42320479825139 ] ], [ [ 3321130.511523295659572, 8365270.643353890627623 ], [ 3315621.173617544583976, 8356319.834662741050124 ], [ 3343658.707940430846065, 8345118.383583190850914 ], [ 3321130.511523295659572, 8365270.643353890627623 ] ] ] } },
{ "type": "Feature", "properties": { "fid": 1, "id": null, "photo": null, "name": null, "azimuth": null, "left_deg": null, "right_deg": null, "los_m": null, "side_m": null, "fov_deg": null, "layer": "9", "path": "C:/Work/SPb_Mountains/23_3_mask/9.gpkg|layername=9" }, "geometry": { "type": "Polygon", "coordinates": [ [ [ 3556722.391643989365548, 8491537.42320479825139 ], [ 3555290.9307, 8285243.652990400791168 ], [ 3221568.942530985921621, 8285946.280299999751151 ], [ 3219797.031397941987962, 8491311.280300000682473 ], [ 3556722.391643989365548, 8491537.42320479825139 ] ], [ [ 3287902.910053588449955, 8414100.852527689188719 ], [ 3298467.046317137312144, 8414556.307953644543886 ], [ 3291890.197188639082015, 8444397.818725597113371 ], [ 3287902.910053588449955, 8414100.852527689188719 ] ] ] } }
]
}
