{
"type": "FeatureCollection",
"name": "historical_zones_1",
"crs": { "type": "name", "properties": { "name": "urn:ogc:def:crs:EPSG::3857" } },
"features": [
{ "type": "Feature", "properties": { "historical_zones": 1 }, "geometry": { "type": "Polygon", "coordinates": [ [ [ 3299740.327694944106042, 8363960.165820189751685 ], [ 3299740.327694944106042, 8384942.357209644280374 ], [ 3361330.757049487903714, 8384942.357209644280374 ], [ 3361330.757049487903714, 8363960.165820189751685 ], [ 3299740.327694944106042, 8363960.165820189751685 ] ] ] } }
]
}
