{
"type": "FeatureCollection",
"name": "historical_zones_5",
"crs": { "type": "name", "properties": { "name": "urn:ogc:def:crs:EPSG::3857" } },
"features": [
{ "type": "Feature", "properties": { "historical_zones": 5 }, "geometry": { "type": "Polygon", "coordinates": [ [ [ 3360509.809157619718462, 8408791.956241669133306 ], [ 3360509.809157619718462, 8434203.207164330407977 ], [ 3392842.052242380101234, 8434203.207164330407977 ], [ 3392842.052242380101234, 8408791.956241669133306 ], [ 3360509.809157619718462, 8408791.956241669133306 ] ] ] } }
]
}
