{
"type": "FeatureCollection",
"name": "historical_zones_4",
"crs": { "type": "name", "properties": { "name": "urn:ogc:def:crs:EPSG::3857" } },
"features": [
{ "type": "Feature", "properties": { "fid": 4, "historical_zones": 4 }, "geometry": { "type": "Polygon", "coordinates": [ [ [ 3396615.9307, 8368573.968695904128253 ], [ 3396615.9307, 8412992.412277305498719 ], [ 3427735.9307, 8412992.412277305498719 ], [ 3427735.9307, 8368573.968695904128253 ], [ 3396615.9307, 8368573.968695904128253 ] ] ] } }
]
}
