{
"type": "FeatureCollection",
"name": "horse_riding_clubs",
"crs": { "type": "name", "properties": { "name": "urn:ogc:def:crs:EPSG::3857" } },
"features": [
{ "type": "Feature", "properties": { "fid": 1, "Наименование": "Western Horse", "Описание": "конный клуб", "Рубрики": "Конные клубы; Спортивные секции; Организация праздников", "Адрес": "Брусничная улица, 0", "Комментарий к адресу": null, "Почтовый индекс": 188502, "Микрорайон": null, "Район": null, "Город": null, "Округ": "Ломоносовский муниципальный район", "Регион": "Ленинградская область", "Страна": "Россия", "Часы работы": "Пн: 10:00-21:00; Вт: 10:00-21:00; Ср: 10:00-21:00; Чт: 10:00-21:00; Пт: 10:00-21:00; Сб: 10:00-21:00; Вс: 10:00-21:00 (по предварительной записи: пн-вс)", "Часовой пояс": "+03:00", "Рейтинг": 4.7, "Количество отзывов": 61, "Телефон 1": "88129599453", "Телефон 2": 89219599453, "Телефон 3": null, "E-mail": "westernhorse@westernhorse.ru", "Веб-сайт 1": "http://westernhorse.ru", "Веб-сайт 2": null, "ВКонтакте": "https://vk.com/westernhorse", "WhatsApp 1": "https://wa.me/79219599453", "WhatsApp 2": null, "WhatsApp 3": null, "Viber": null, "Telegram 1": null, "Telegram 2": null, "YouTube": "https://youtube.com/WesternhorseRu", "Широта": 59.794969, "Долгота": 29.963608, "2GIS URL": "https://2gis.com/firm/5348552839747672" }, "geometry": { "type": "Point", "coordinates": [ 3335533.584889258258045, 8354230.783033619634807 ] } },
{ "type": "Feature", "properties": { "fid": 3, "Наименование": "Скандинавия", "Описание": "конноспортивный клуб", "Рубрики": "Конные клубы", "Адрес": "Максима Горького, 32", "Комментарий к адресу": null, "Почтовый индекс": 197706, "Микрорайон": "Сестрорецк г.", "Район": "Курортный район", "Город": "Санкт-Петербург", "Округ": null, "Регион": "Санкт-Петербург", "Страна": "Россия", "Часы работы": "Пн: 09:00-23:00; Вт: 09:00-23:00; Ср: 09:00-23:00; Чт: 09:00-23:00; Пт: 09:00-23:00; Сб: 09:00-23:00; Вс: 09:00-23:00", "Часовой пояс": "+03:00", "Рейтинг": 4.5, "Количество отзывов": 27, "Телефон 1": "88129547308", "Телефон 2": 89219547308, "Телефон 3": null, "E-mail": "masa18-22@mail.ru", "Веб-сайт 1": "http://ksk-spb.ru", "Веб-сайт 2": null, "ВКонтакте": "https://vk.com/club4084299", "WhatsApp 1": "https://wa.me/79219547308", "WhatsApp 2": null, "WhatsApp 3": null, "Viber": null, "Telegram 1": "https://t.me/+79219547308", "Telegram 2": null, "YouTube": null, "Широта": 60.101162, "Долгота": 29.961114, "2GIS URL": "https://2gis.com/firm/70000001027081182" }, "geometry": { "type": "Point", "coordinates": [ 3335255.954079219605774, 8422295.015076905488968 ] } },
{ "type": "Feature", "properties": { "fid": 4, "Наименование": "Кентавр", "Описание": "конноспортивный клуб", "Рубрики": "Конные клубы; Спортивные секции", "Адрес": "Свободы, 48а", "Комментарий к адресу": null, "Почтовый индекс": 198515, "Микрорайон": "Стрельна пос.", "Район": "Петродворцовый район", "Город": "Санкт-Петербург", "Округ": null, "Регион": "Санкт-Петербург", "Страна": "Россия", "Часы работы": "Пн: 10:00-14:00, 15:00-20:00; Ср: 10:00-14:00, 15:00-20:00; Чт: 10:00-14:00, 15:00-20:00; Пт: 10:00-14:00, 15:00-20:00; Сб: 10:00-14:00, 15:00-20:00; Вс: 10:00-14:00, 15:00-20:00", "Часовой пояс": "+03:00", "Рейтинг": 4.6, "Количество отзывов": 24, "Телефон 1": "89500256551", "Телефон 2": null, "Телефон 3": null, "E-mail": null, "Веб-сайт 1": null, "Веб-сайт 2": null, "ВКонтакте": "https://vk.com/kentavr_horses", "WhatsApp 1": "https://wa.me/79500256551", "WhatsApp 2": null, "WhatsApp 3": null, "Viber": null, "Telegram 1": null, "Telegram 2": null, "YouTube": null, "Широта": 59.847111, "Долгота": 30.013377, "2GIS URL": "https://2gis.com/firm/70000001034794340" }, "geometry": { "type": "Point", "coordinates": [ 3341073.844626548234373, 8365777.218265600502491 ] } },
{ "type": "Feature", "properties": { "fid": 5, "Наименование": "Вента-Арена", "Описание": "конноспортивный клуб", "Рубрики": "Конные клубы", "Адрес": "Центральная улица, 64", "Комментарий к адресу": null, "Почтовый индекс": 188689, "Микрорайон": null, "Район": null, "Город": null, "Округ": "Всеволожский муниципальный район", "Регион": "Ленинградская область", "Страна": "Россия", "Часы работы": "Пн: 10:00-20:00; Вт: 10:00-20:00; Ср: 10:00-20:00; Чт: 10:00-20:00; Пт: 10:00-20:00; Сб: 10:00-20:00; Вс: 10:00-20:00", "Часовой пояс": "+03:00", "Рейтинг": 4.2, "Количество отзывов": 14, "Телефон 1": null, "Телефон 2": null, "Телефон 3": null, "E-mail": null, "Веб-сайт 1": "http://venta-arena.ru", "Веб-сайт 2": "http://t.me/fksspb", "ВКонтакте": "https://vk.com/clubventaarena", "WhatsApp 1": null, "WhatsApp 2": null, "WhatsApp 3": null, "Viber": null, "Telegram 1": null, "Telegram 2": null, "YouTube": null, "Широта": 59.948819, "Долгота": 30.626067, "2GIS URL": "https://2gis.com/firm/70000001023332551" }, "geometry": { "type": "Point", "coordinates": [ 3409278.18344067921862, 8388351.808597137220204 ] } },
{ "type": "Feature", "properties": { "fid": 6, "Наименование": "Приор", "Описание": "конно-спортивный клуб", "Рубрики": "Конные клубы", "Адрес": "Шоссейная улица, 1/21/2", "Комментарий к адресу": "1 этаж", "Почтовый индекс": 188660, "Микрорайон": null, "Район": null, "Город": null, "Округ": "Всеволожский муниципальный район", "Регион": "Ленинградская область", "Страна": "Россия", "Часы работы": "Вт: 10:00-20:00; Ср: 10:00-20:00; Чт: 10:00-20:00; Пт: 10:00-20:00; Сб: 10:00-19:00; Вс: 10:00-19:00", "Часовой пояс": "+03:00", "Рейтинг": 3.4, "Количество отзывов": 6, "Телефон 1": "89119234803", "Телефон 2": null, "Телефон 3": null, "E-mail": null, "Веб-сайт 1": "http://prior-horse.ru", "Веб-сайт 2": "http://priorclub.ru", "ВКонтакте": null, "WhatsApp 1": null, "WhatsApp 2": null, "WhatsApp 3": null, "Viber": null, "Telegram 1": null, "Telegram 2": null, "YouTube": null, "Широта": 60.107838, "Долгота": 30.415348, "2GIS URL": "https://2gis.com/firm/70000001042052628" }, "geometry": { "type": "Point", "coordinates": [ 3385821.051660211756825, 8423786.065680675208569 ] } },
{ "type": "Feature", "properties": { "fid": 7, "Наименование": "Виннер", "Описание": "конноспортивный клуб", "Рубрики": "Конные клубы", "Адрес": "Институтский проезд, 3", "Комментарий к адресу": null, "Почтовый индекс": 188662, "Микрорайон": "Мурино", "Район": null, "Город": "Мурино", "Округ": "Всеволожский муниципальный район", "Регион": "Ленинградская область", "Страна": "Россия", "Часы работы": "Пн: 10:00-20:00; Вт: 10:00-20:00; Ср: 10:00-20:00; Чт: 10:00-20:00; Пт: 10:00-20:00; Сб: 10:00-20:00; Вс: 10:00-20:00", "Часовой пояс": "+03:00", "Рейтинг": 5.0, "Количество отзывов": 7, "Телефон 1": "89117794427", "Телефон 2": null, "Телефон 3": null, "E-mail": null, "Веб-сайт 1": null, "Веб-сайт 2": null, "ВКонтакте": "https://vk.com/ksk_winner", "WhatsApp 1": null, "WhatsApp 2": null, "WhatsApp 3": null, "Viber": null, "Telegram 1": null, "Telegram 2": null, "YouTube": null, "Широта": 60.03777, "Долгота": 30.480853, "2GIS URL": "https://2gis.com/firm/70000001047913537" }, "geometry": { "type": "Point", "coordinates": [ 3393113.03490462526679, 8408151.769104780629277 ] } },
{ "type": "Feature", "properties": { "fid": 8, "Наименование": "Дерби", "Описание": "конноспортивный клуб", "Рубрики": "Конные клубы", "Адрес": "Шоссейная улица, 19", "Комментарий к адресу": null, "Почтовый индекс": 188660, "Микрорайон": null, "Район": null, "Город": null, "Округ": "Всеволожский муниципальный район", "Регион": "Ленинградская область", "Страна": "Россия", "Часы работы": "Пн: 10:00-19:00; Вт: 10:00-19:00; Ср: 10:00-19:00; Чт: 10:00-19:00; Пт: 10:00-19:00; Сб: 10:00-19:00; Вс: 10:00-19:00", "Часовой пояс": "+03:00", "Рейтинг": 4.9, "Количество отзывов": 8, "Телефон 1": "89219834444", "Телефон 2": null, "Телефон 3": null, "E-mail": null, "Веб-сайт 1": "http://derbyclub.ru", "Веб-сайт 2": null, "ВКонтакте": "https://vk.com/club71845743", "WhatsApp 1": null, "WhatsApp 2": null, "WhatsApp 3": null, "Viber": null, "Telegram 1": null, "Telegram 2": null, "YouTube": null, "Широта": 60.111244, "Долгота": 30.435579, "2GIS URL": "https://2gis.com/firm/5348552838673658" }, "geometry": { "type": "Point", "coordinates": [ 3388073.156278450507671, 8424546.894869169220328 ] } },
{ "type": "Feature", "properties": { "fid": 9, "Наименование": "Заповедный", "Описание": "конноспортивный клуб", "Рубрики": "Конные клубы", "Адрес": "Заповедная улица, 49 к2 лит В", "Комментарий к адресу": "1 этаж", "Почтовый индекс": 197375, "Микрорайон": "Коломяги", "Район": "Приморский район", "Город": "Санкт-Петербург", "Округ": null, "Регион": "Санкт-Петербург", "Страна": "Россия", "Часы работы": "Вт: 10:00-21:00; Ср: 10:00-21:00; Чт: 10:00-21:00; Пт: 10:00-21:00; Сб: 10:00-21:00; Вс: 10:00-21:00", "Часовой пояс": "+03:00", "Рейтинг": 4.7, "Количество отзывов": 22, "Телефон 1": "89046416244", "Телефон 2": null, "Телефон 3": null, "E-mail": null, "Веб-сайт 1": "http://www.horse.lact.ru", "Веб-сайт 2": null, "ВКонтакте": "https://vk.com/club38271505", "WhatsApp 1": null, "WhatsApp 2": null, "WhatsApp 3": null, "Viber": null, "Telegram 1": null, "Telegram 2": null, "YouTube": null, "Широта": 60.046904, "Долгота": 30.273525, "2GIS URL": "https://2gis.com/firm/70000001018617770" }, "geometry": { "type": "Point", "coordinates": [ 3370033.387517437338829, 8410187.96014647744596 ] } },
{ "type": "Feature", "properties": { "fid": 12, "Наименование": "Райдер", "Описание": "конный клуб", "Рубрики": "Конные клубы", "Адрес": "территория Пулковское, 41 лит А", "Комментарий к адресу": null, "Почтовый индекс": 196605, "Микрорайон": "Шушары пос.", "Район": "Пушкинский район", "Город": "Санкт-Петербург", "Округ": null, "Регион": "Санкт-Петербург", "Страна": "Россия", "Часы работы": "Пн: 11:00-20:00; Вт: 11:00-20:00; Ср: 11:00-20:00; Чт: 11:00-20:00; Пт: 11:00-20:00; Сб: 10:00-20:00; Вс: 10:00-20:00", "Часовой пояс": "+03:00", "Рейтинг": 4.3, "Количество отзывов": 14, "Телефон 1": "89110929300", "Телефон 2": 88129254412, "Телефон 3": null, "E-mail": null, "Веб-сайт 1": "http://kskriderspb.wixsite.com/rider", "Веб-сайт 2": null, "ВКонтакте": "https://vk.com/kskraider", "WhatsApp 1": "https://wa.me/79110929300", "WhatsApp 2": null, "WhatsApp 3": null, "Viber": null, "Telegram 1": null, "Telegram 2": null, "YouTube": null, "Широта": 59.758729, "Долгота": 30.359697, "2GIS URL": "https://2gis.com/firm/70000001019633869" }, "geometry": { "type": "Point", "coordinates": [ 3379626.010678075253963, 8346216.348683278076351 ] } },
{ "type": "Feature", "properties": { "fid": 13, "Наименование": "Дар", "Описание": "конный реабилитационный центр", "Рубрики": "Конные клубы", "Адрес": "Соболевская дорога, 80 лит Д", "Комментарий к адресу": null, "Почтовый индекс": 196603, "Микрорайон": "Пушкин г.", "Район": "Пушкинский район", "Город": "Санкт-Петербург", "Округ": null, "Регион": "Санкт-Петербург", "Страна": "Россия", "Часы работы": "Пн: 10:00-18:00; Вт: 10:00-18:00; Ср: 10:00-18:00; Чт: 10:00-18:00; Пт: 10:00-18:00; Сб: 10:00-18:00; Вс: 10:00-18:00", "Часовой пояс": "+03:00", "Рейтинг": null, "Количество отзывов": null, "Телефон 1": "89043393555", "Телефон 2": null, "Телефон 3": null, "E-mail": null, "Веб-сайт 1": "http://club62993.vsite.top", "Веб-сайт 2": null, "ВКонтакте": "https://vk.com/club62993", "WhatsApp 1": null, "WhatsApp 2": null, "WhatsApp 3": null, "Viber": null, "Telegram 1": null, "Telegram 2": null, "YouTube": null, "Широта": 59.702371, "Долгота": 30.309146, "2GIS URL": "https://2gis.com/firm/70000001022765192" }, "geometry": { "type": "Point", "coordinates": [ 3373998.699098984245211, 8333770.100030743516982 ] } },
{ "type": "Feature", "properties": { "fid": 14, "Наименование": "Конно-спортивный клуб им. Юлии Русаковой", "Описание": null, "Рубрики": "Конные клубы", "Адрес": "Совхозный проспект, 15а", "Комментарий к адресу": null, "Почтовый индекс": 196642, "Микрорайон": "Петро-Славянка пос.", "Район": "Колпинский район", "Город": "Санкт-Петербург", "Округ": null, "Регион": "Санкт-Петербург", "Страна": "Россия", "Часы работы": "Пн: 08:00-20:00; Вт: 08:00-20:00; Ср: 08:00-20:00; Чт: 08:00-20:00; Пт: 08:00-20:00; Сб: 08:00-20:00; Вс: 08:00-20:00 (по предварительной записи: пн-вс)", "Часовой пояс": "+03:00", "Рейтинг": 5.0, "Количество отзывов": 2, "Телефон 1": "89110883275", "Телефон 2": null, "Телефон 3": null, "E-mail": null, "Веб-сайт 1": null, "Веб-сайт 2": null, "ВКонтакте": "https://vk.com/club3326454", "WhatsApp 1": null, "WhatsApp 2": null, "WhatsApp 3": null, "Viber": null, "Telegram 1": null, "Telegram 2": null, "YouTube": null, "Широта": 59.814548, "Долгота": 30.491836, "2GIS URL": "https://2gis.com/firm/70000001066419212" }, "geometry": { "type": "Point", "coordinates": [ 3394335.656872007530183, 8358564.280066963285208 ] } },
{ "type": "Feature", "properties": { "fid": 15, "Наименование": "ИппоФэмили", "Описание": null, "Рубрики": "Конные клубы", "Адрес": "Красная (Старо-Паново), 15", "Комментарий к адресу": null, "Почтовый индекс": 198205, "Микрорайон": "Горелово", "Район": "Красносельский район", "Город": "Санкт-Петербург", "Округ": null, "Регион": "Санкт-Петербург", "Страна": "Россия", "Часы работы": "Пн: 09:00-20:00; Вт: 09:00-20:00; Ср: 09:00-20:00; Чт: 09:00-20:00; Пт: 09:00-20:00; Сб: 09:00-20:00; Вс: 09:00-20:00", "Часовой пояс": "+03:00", "Рейтинг": 4.4, "Количество отзывов": 3, "Телефон 1": "89312210548", "Телефон 2": null, "Телефон 3": null, "E-mail": null, "Веб-сайт 1": "http://hippofamily.ru", "Веб-сайт 2": null, "ВКонтакте": "https://vk.com/hippofamily", "WhatsApp 1": "https://wa.me/79312210548", "WhatsApp 2": null, "WhatsApp 3": null, "Viber": null, "Telegram 1": null, "Telegram 2": null, "YouTube": null, "Широта": 59.818653, "Долгота": 30.186186, "2GIS URL": "https://2gis.com/firm/70000001055486284" }, "geometry": { "type": "Point", "coordinates": [ 3360310.854511043522507, 8359473.178668814711273 ] } },
{ "type": "Feature", "properties": { "fid": 16, "Наименование": "Берегиня", "Описание": "конно-спортивный оздоровительный центр", "Рубрики": "Конные клубы", "Адрес": "Чкалова, 15а", "Комментарий к адресу": null, "Почтовый индекс": 196645, "Микрорайон": "Усть-Ижора пос.", "Район": "Колпинский район", "Город": "Санкт-Петербург", "Округ": null, "Регион": "Санкт-Петербург", "Страна": "Россия", "Часы работы": "Пн: 10:00-20:00; Вт: 10:00-20:00; Ср: 10:00-20:00; Чт: 10:00-20:00; Пт: 10:00-20:00; Сб: 10:00-20:00; Вс: 10:00-20:00", "Часовой пояс": "+03:00", "Рейтинг": 4.1, "Количество отзывов": 6, "Телефон 1": "89602886234 (директор)", "Телефон 2": null, "Телефон 3": null, "E-mail": null, "Веб-сайт 1": "http://ksoc-bereginya.ru", "Веб-сайт 2": null, "ВКонтакте": "https://vk.com/ksk_ust_igora", "WhatsApp 1": null, "WhatsApp 2": null, "WhatsApp 3": null, "Viber": null, "Telegram 1": null, "Telegram 2": null, "YouTube": null, "Широта": 59.803396, "Долгота": 30.581882, "2GIS URL": "https://2gis.com/firm/70000001027529444" }, "geometry": { "type": "Point", "coordinates": [ 3404359.531739978585392, 8356095.652139590121806 ] } },
{ "type": "Feature", "properties": { "fid": 17, "Наименование": "Виктори хорс", "Описание": null, "Рубрики": "Конные клубы", "Адрес": "Совхозный проспект, 15а", "Комментарий к адресу": null, "Почтовый индекс": 196642, "Микрорайон": "Петро-Славянка пос.", "Район": "Колпинский район", "Город": "Санкт-Петербург", "Округ": null, "Регион": "Санкт-Петербург", "Страна": "Россия", "Часы работы": "Пн: 08:00-22:00; Вт: 08:00-22:00; Ср: 08:00-22:00; Чт: 08:00-22:00; Пт: 08:00-22:00; Сб: 08:00-22:00; Вс: 08:00-22:00 (по предварительной записи: пн-вс)", "Часовой пояс": "+03:00", "Рейтинг": null, "Количество отзывов": null, "Телефон 1": "89110291162", "Телефон 2": null, "Телефон 3": null, "E-mail": null, "Веб-сайт 1": null, "Веб-сайт 2": null, "ВКонтакте": null, "WhatsApp 1": "https://wa.me/79110291162", "WhatsApp 2": null, "WhatsApp 3": null, "Viber": null, "Telegram 1": null, "Telegram 2": null, "YouTube": null, "Широта": 59.81454, "Долгота": 30.492278, "2GIS URL": "https://2gis.com/firm/70000001066972393" }, "geometry": { "type": "Point", "coordinates": [ 3394384.860086937900633, 8358562.508875703439116 ] } },
{ "type": "Feature", "properties": { "fid": 18, "Наименование": "Легенда", "Описание": "конный клуб", "Рубрики": "Конные клубы", "Адрес": "Восточная, 22", "Комментарий к адресу": null, "Почтовый индекс": 198205, "Микрорайон": "Горелово", "Район": "Красносельский район", "Город": "Санкт-Петербург", "Округ": null, "Регион": "Санкт-Петербург", "Страна": "Россия", "Часы работы": "Пн: 10:00-20:00; Вт: 10:00-20:00; Ср: 10:00-20:00; Чт: 10:00-20:00; Пт: 10:00-20:00; Сб: 10:00-20:00; Вс: 10:00-20:00 (по предварительной записи: пн-вс)", "Часовой пояс": "+03:00", "Рейтинг": 5.0, "Количество отзывов": 2, "Телефон 1": "89110973411", "Телефон 2": null, "Телефон 3": null, "E-mail": null, "Веб-сайт 1": null, "Веб-сайт 2": null, "ВКонтакте": "https://vk.com/club28255608", "WhatsApp 1": "https://wa.me/79110973411", "WhatsApp 2": null, "WhatsApp 3": null, "Viber": null, "Telegram 1": null, "Telegram 2": null, "YouTube": null, "Широта": 59.820065, "Долгота": 30.190622, "2GIS URL": "https://2gis.com/firm/70000001048247090" }, "geometry": { "type": "Point", "coordinates": [ 3360804.667772202752531, 8359785.839099199511111 ] } },
{ "type": "Feature", "properties": { "fid": 19, "Наименование": "Стиль", "Описание": "конноспортивный клуб", "Рубрики": "Конные клубы", "Адрес": "Марьино деревня, 2", "Комментарий к адресу": "1 этаж", "Почтовый индекс": 188320, "Микрорайон": null, "Район": null, "Город": null, "Округ": "Гатчинский муниципальный округ", "Регион": "Ленинградская область", "Страна": "Россия", "Часы работы": "Пн: 09:00-21:00; Вт: 09:00-21:00; Ср: 09:00-21:00; Чт: 09:00-21:00; Пт: 09:00-21:00; Сб: 09:00-21:00; Вс: 09:00-21:00", "Часовой пояс": "+03:00", "Рейтинг": 2.7, "Количество отзывов": 3, "Телефон 1": "89112201919", "Телефон 2": null, "Телефон 3": null, "E-mail": null, "Веб-сайт 1": null, "Веб-сайт 2": null, "ВКонтакте": "https://vk.com/club13582436", "WhatsApp 1": null, "WhatsApp 2": null, "WhatsApp 3": null, "Viber": null, "Telegram 1": null, "Telegram 2": null, "YouTube": null, "Широта": 59.639214, "Долгота": 30.381402, "2GIS URL": "https://2gis.com/firm/5348553838702321" }, "geometry": { "type": "Point", "coordinates": [ 3382042.200225743465126, 8319847.214128752239048 ] } },
{ "type": "Feature", "properties": { "fid": 20, "Наименование": "Туутари", "Описание": "конный клуб", "Рубрики": "Конные клубы", "Адрес": "Ретселя деревня, 25", "Комментарий к адресу": null, "Почтовый индекс": 188510, "Микрорайон": null, "Район": null, "Город": null, "Округ": "Ломоносовский муниципальный район", "Регион": "Ленинградская область", "Страна": "Россия", "Часы работы": "Пн: 10:00-20:00; Вт: 10:00-20:00; Ср: 10:00-20:00; Чт: 10:00-20:00; Пт: 10:00-20:00; Сб: 10:00-20:00; Вс: 10:00-20:00", "Часовой пояс": "+03:00", "Рейтинг": 4.0, "Количество отзывов": 2, "Телефон 1": "88125000515", "Телефон 2": 89602690666, "Телефон 3": 89500234150, "E-mail": null, "Веб-сайт 1": "http://tyytari.ru", "Веб-сайт 2": null, "ВКонтакте": null, "WhatsApp 1": null, "WhatsApp 2": null, "WhatsApp 3": null, "Viber": null, "Telegram 1": null, "Telegram 2": null, "YouTube": null, "Широта": 59.687002, "Долгота": 30.177724, "2GIS URL": "https://2gis.com/firm/70000001095530466" }, "geometry": { "type": "Point", "coordinates": [ 3359368.868979950901121, 8330379.606150611303747 ] } },
{ "type": "Feature", "properties": { "fid": 21, "Наименование": "Дудергоф", "Описание": "конно-спортивный комплекс", "Рубрики": "Конные клубы", "Адрес": "Пикколово деревня, 37а", "Комментарий к адресу": null, "Почтовый индекс": 188510, "Микрорайон": null, "Район": null, "Город": null, "Округ": "Ломоносовский муниципальный район", "Регион": "Ленинградская область", "Страна": "Россия", "Часы работы": "Пн: 10:00-20:00; Вт: 10:00-20:00; Ср: 10:00-20:00; Чт: 10:00-20:00; Пт: 10:00-20:00; Сб: 10:00-20:00; Вс: 10:00-20:00", "Часовой пояс": "+03:00", "Рейтинг": 3.8, "Количество отзывов": 3, "Телефон 1": "89112505401", "Телефон 2": null, "Телефон 3": null, "E-mail": null, "Веб-сайт 1": "http://дудергоф.рф", "Веб-сайт 2": null, "ВКонтакте": "https://vk.com/club37493819", "WhatsApp 1": null, "WhatsApp 2": null, "WhatsApp 3": null, "Viber": null, "Telegram 1": null, "Telegram 2": null, "YouTube": null, "Широта": 59.698027, "Долгота": 30.146774, "2GIS URL": "https://2gis.com/firm/70000001055442522" }, "geometry": { "type": "Point", "coordinates": [ 3355923.530739898793399, 8332811.629730626009405 ] } },
{ "type": "Feature", "properties": { "fid": 22, "Наименование": "Новополье", "Описание": "конноспортивный клуб", "Рубрики": "Конные клубы", "Адрес": "деревня Новополье, 3а", "Комментарий к адресу": null, "Почтовый индекс": 188502, "Микрорайон": null, "Район": null, "Город": null, "Округ": "Ломоносовский муниципальный район", "Регион": "Ленинградская область", "Страна": "Россия", "Часы работы": "Пн: 09:00-21:00; Вт: 09:00-21:00; Чт: 09:00-21:00; Пт: 09:00-21:00; Сб: 09:00-21:00; Вс: 09:00-21:00 (по предварительной записи: пн, вт, чт-вс)", "Часовой пояс": "+03:00", "Рейтинг": 4.9, "Количество отзывов": 12, "Телефон 1": "89602338172", "Телефон 2": null, "Телефон 3": null, "E-mail": null, "Веб-сайт 1": "http://novopole.ru", "Веб-сайт 2": null, "ВКонтакте": "https://vk.com/ksknovopole", "WhatsApp 1": null, "WhatsApp 2": null, "WhatsApp 3": null, "Viber": null, "Telegram 1": null, "Telegram 2": null, "YouTube": null, "Широта": 59.827303, "Долгота": 29.994762, "2GIS URL": "https://2gis.com/firm/70000001048180601" }, "geometry": { "type": "Point", "coordinates": [ 3339001.632305432576686, 8361388.76401924341917 ] } },
{ "type": "Feature", "properties": { "fid": 23, "Наименование": "Grand Stable", "Описание": "конно-спортивный комплекс", "Рубрики": "Конные клубы", "Адрес": "посёлок Вариксолово, 41", "Комментарий к адресу": null, "Почтовый индекс": 188340, "Микрорайон": null, "Район": null, "Город": null, "Округ": "Ломоносовский муниципальный район", "Регион": "Ленинградская область", "Страна": "Россия", "Часы работы": "Пн: 08:00-22:00; Вт: 08:00-22:00; Ср: 08:00-22:00; Чт: 08:00-22:00; Пт: 08:00-22:00; Сб: 08:00-22:00; Вс: 08:00-22:00", "Часовой пояс": "+03:00", "Рейтинг": null, "Количество отзывов": null, "Телефон 1": "89500402515", "Телефон 2": null, "Телефон 3": null, "E-mail": null, "Веб-сайт 1": null, "Веб-сайт 2": null, "ВКонтакте": "https://vk.com/grandstable", "WhatsApp 1": null, "WhatsApp 2": null, "WhatsApp 3": null, "Viber": null, "Telegram 1": null, "Telegram 2": null, "YouTube": null, "Широта": 59.688405, "Долгота": 30.140094, "2GIS URL": "https://2gis.com/firm/70000001057614990" }, "geometry": { "type": "Point", "coordinates": [ 3355179.916541400365531, 8330689.051862668246031 ] } },
{ "type": "Feature", "properties": { "fid": 24, "Наименование": "Алеос", "Описание": null, "Рубрики": "Конные клубы", "Адрес": null, "Комментарий к адресу": null, "Почтовый индекс": 196655, "Микрорайон": "Понтонный пос.", "Район": "Колпинский район", "Город": "Санкт-Петербург", "Округ": null, "Регион": "Санкт-Петербург", "Страна": "Россия", "Часы работы": null, "Часовой пояс": "+03:00", "Рейтинг": 5.0, "Количество отзывов": 4, "Телефон 1": "89967662089", "Телефон 2": null, "Телефон 3": null, "E-mail": null, "Веб-сайт 1": "http://aleos-horse.tilda.ws/", "Веб-сайт 2": null, "ВКонтакте": "https://vk.com/club_aleos", "WhatsApp 1": "https://wa.me/79967662089", "WhatsApp 2": null, "WhatsApp 3": null, "Viber": null, "Telegram 1": null, "Telegram 2": null, "YouTube": null, "Широта": 59.776516, "Долгота": 30.629149, "2GIS URL": "https://2gis.com/firm/70000001096204840" }, "geometry": { "type": "Point", "coordinates": [ 3409621.270111304707825, 8350148.835960843600333 ] } },
{ "type": "Feature", "properties": { "fid": 25, "Наименование": "Реприз", "Описание": "частная конюшня", "Рубрики": "Конные клубы", "Адрес": "Андреевская улица, 12", "Комментарий к адресу": null, "Почтовый индекс": 195030, "Микрорайон": "Ржевка", "Район": "Красногвардейский район", "Город": "Санкт-Петербург", "Округ": null, "Регион": "Санкт-Петербург", "Страна": "Россия", "Часы работы": "Пн: 09:00-21:00; Вт: 09:00-21:00; Ср: 09:00-21:00; Чт: 09:00-21:00; Пт: 09:00-21:00; Сб: 09:00-21:00; Вс: 09:00-21:00", "Часовой пояс": "+03:00", "Рейтинг": 5.0, "Количество отзывов": 3, "Телефон 1": "89312009375", "Телефон 2": 89817520562, "Телефон 3": 89214157565, "E-mail": null, "Веб-сайт 1": null, "Веб-сайт 2": null, "ВКонтакте": "https://vk.com/club8357642", "WhatsApp 1": "https://wa.me/79312009375", "WhatsApp 2": "https://wa.me/79214157565", "WhatsApp 3": null, "Viber": "viber://chat/?number=79214157565", "Telegram 1": null, "Telegram 2": null, "YouTube": null, "Широта": 59.970087, "Долгота": 30.497117, "2GIS URL": "https://2gis.com/firm/70000001024744187" }, "geometry": { "type": "Point", "coordinates": [ 3394923.535102886613458, 8393081.098973462358117 ] } },
{ "type": "Feature", "properties": { "fid": 26, "Наименование": "Исток", "Описание": "конноспортивный клуб", "Рубрики": "Конные клубы", "Адрес": "Ясная улица, 13а", "Комментарий к адресу": null, "Почтовый индекс": 188689, "Микрорайон": null, "Район": null, "Город": null, "Округ": "Всеволожский муниципальный район", "Регион": "Ленинградская область", "Страна": "Россия", "Часы работы": "Вт: 10:00-20:00; Ср: 10:00-20:00; Чт: 10:00-20:00; Пт: 10:00-20:00; Сб: 10:00-20:00; Вс: 10:00-20:00", "Часовой пояс": "+03:00", "Рейтинг": 3.7, "Количество отзывов": 8, "Телефон 1": "89112100532", "Телефон 2": null, "Телефон 3": null, "E-mail": null, "Веб-сайт 1": null, "Веб-сайт 2": null, "ВКонтакте": "https://vk.com/ksk__istok", "WhatsApp 1": null, "WhatsApp 2": null, "WhatsApp 3": null, "Viber": null, "Telegram 1": null, "Telegram 2": null, "YouTube": null, "Широта": 59.959729, "Долгота": 30.612691, "2GIS URL": "https://2gis.com/firm/70000001034739500" }, "geometry": { "type": "Point", "coordinates": [ 3407789.173931828700006, 8390777.447732198983431 ] } },
{ "type": "Feature", "properties": { "fid": 27, "Наименование": "ПолиЭко", "Описание": "конный центр", "Рубрики": "Конные клубы; Спортивные секции", "Адрес": "Токкари деревня, 10Б", "Комментарий к адресу": null, "Почтовый индекс": 188680, "Микрорайон": null, "Район": null, "Город": null, "Округ": "Всеволожский муниципальный район", "Регион": "Ленинградская область", "Страна": "Россия", "Часы работы": "Пн: 08:00-22:00; Вт: 08:00-22:00; Ср: 08:00-22:00; Чт: 08:00-22:00; Пт: 08:00-22:00; Сб: 08:00-22:00; Вс: 08:00-22:00", "Часовой пояс": "+03:00", "Рейтинг": null, "Количество отзывов": null, "Телефон 1": "89219372337 (директор)", "Телефон 2": 89117183305, "Телефон 3": 89118350967, "E-mail": null, "Веб-сайт 1": null, "Веб-сайт 2": null, "ВКонтакте": "https://vk.com/polyeco", "WhatsApp 1": null, "WhatsApp 2": null, "WhatsApp 3": null, "Viber": null, "Telegram 1": null, "Telegram 2": null, "YouTube": null, "Широта": 59.945831, "Долгота": 30.638353, "2GIS URL": "https://2gis.com/firm/70000001048069473" }, "geometry": { "type": "Point", "coordinates": [ 3410645.854704565368593, 8387687.620668201707304 ] } },
{ "type": "Feature", "properties": { "fid": 28, "Наименование": "Перемена", "Описание": "конный клуб", "Рубрики": "Конные клубы", "Адрес": "Баррикадная 2-я улица, 11а", "Комментарий к адресу": null, "Почтовый индекс": 188680, "Микрорайон": null, "Район": null, "Город": "Колтуши", "Округ": "Всеволожский муниципальный район", "Регион": "Ленинградская область", "Страна": "Россия", "Часы работы": "Пн: 09:00-21:00; Вт: 09:00-21:00; Ср: 09:00-21:00; Чт: 09:00-21:00; Пт: 09:00-21:00; Сб: 09:00-21:00; Вс: 09:00-21:00", "Часовой пояс": "+03:00", "Рейтинг": null, "Количество отзывов": null, "Телефон 1": "89213009711", "Телефон 2": null, "Телефон 3": null, "E-mail": null, "Веб-сайт 1": null, "Веб-сайт 2": null, "ВКонтакте": "https://vk.com/kskperemena", "WhatsApp 1": null, "WhatsApp 2": null, "WhatsApp 3": null, "Viber": null, "Telegram 1": null, "Telegram 2": null, "YouTube": null, "Широта": 59.924155, "Долгота": 30.627551, "2GIS URL": "https://2gis.com/firm/70000001087355381" }, "geometry": { "type": "Point", "coordinates": [ 3409443.381565016694367, 8382871.159921105019748 ] } },
{ "type": "Feature", "properties": { "fid": 29, "Наименование": "Drive park", "Описание": null, "Рубрики": "Конные клубы; Спортивный прокат; Спортивно-тактические клубы; Мототехника; Ремонт и тюнинг мототехники", "Адрес": "Центральная улица, 70", "Комментарий к адресу": null, "Почтовый индекс": 188680, "Микрорайон": null, "Район": null, "Город": null, "Округ": "Всеволожский муниципальный район", "Регион": "Ленинградская область", "Страна": "Россия", "Часы работы": "Пн: 10:00-20:00; Вт: 10:00-20:00; Ср: 10:00-20:00; Чт: 10:00-20:00; Пт: 10:00-20:00; Сб: 10:00-20:00; Вс: 10:00-20:00", "Часовой пояс": "+03:00", "Рейтинг": 2.0, "Количество отзывов": 4, "Телефон 1": "88127153477", "Телефон 2": 89095894988, "Телефон 3": null, "E-mail": null, "Веб-сайт 1": "http://driveparkspb.ru", "Веб-сайт 2": null, "ВКонтакте": "https://vk.com/club19038180", "WhatsApp 1": "https://wa.me/79095894988", "WhatsApp 2": null, "WhatsApp 3": null, "Viber": null, "Telegram 1": "https://t.me/+79095894988", "Telegram 2": null, "YouTube": null, "Широта": 59.952408, "Долгота": 30.63804, "2GIS URL": "https://2gis.com/firm/70000001035160996" }, "geometry": { "type": "Point", "coordinates": [ 3410611.011703947558999, 8389149.669031079858541 ] } },
{ "type": "Feature", "properties": { "fid": 30, "Наименование": "Бэст", "Описание": "конноспортивный клуб", "Рубрики": "Конные клубы; Спортивные секции", "Адрес": "Пушкинское шоссе, 19а", "Комментарий к адресу": "1 этаж", "Почтовый индекс": 188506, "Микрорайон": null, "Район": null, "Город": null, "Округ": "Ломоносовский муниципальный район", "Регион": "Ленинградская область", "Страна": "Россия", "Часы работы": "Пн: 09:00-21:00; Вт: 09:00-21:00; Ср: 09:00-21:00; Чт: 09:00-21:00; Пт: 09:00-21:00; Сб: 09:00-21:00; Вс: 09:00-21:00", "Часовой пояс": "+03:00", "Рейтинг": 4.7, "Количество отзывов": 3, "Телефон 1": "89119510281", "Телефон 2": 89213737117, "Телефон 3": null, "E-mail": null, "Веб-сайт 1": "http://vk.link/ridingforall", "Веб-сайт 2": null, "ВКонтакте": "https://vk.com/club2629774", "WhatsApp 1": "https://wa.me/79119510281", "WhatsApp 2": null, "WhatsApp 3": null, "Viber": null, "Telegram 1": null, "Telegram 2": null, "YouTube": null, "Широта": 59.717897, "Долгота": 30.257767, "2GIS URL": "https://2gis.com/firm/5348552841154092" }, "geometry": { "type": "Point", "coordinates": [ 3368279.214981516823173, 8337196.809866545721889 ] } },
{ "type": "Feature", "properties": { "fid": 31, "Наименование": "Western city", "Описание": "конный клуб", "Рубрики": "Конные клубы; Спортивные секции", "Адрес": "Колтушское шоссе, 14", "Комментарий к адресу": null, "Почтовый индекс": 188686, "Микрорайон": null, "Район": null, "Город": null, "Округ": "Всеволожский муниципальный район", "Регион": "Ленинградская область", "Страна": "Россия", "Часы работы": "Вт: 10:00-20:00; Ср: 10:00-20:00; Чт: 10:00-20:00; Пт: 10:00-20:00; Сб: 10:00-20:00; Вс: 10:00-20:00", "Часовой пояс": "+03:00", "Рейтинг": 5.0, "Количество отзывов": 4, "Телефон 1": "89523660703", "Телефон 2": null, "Телефон 3": null, "E-mail": null, "Веб-сайт 1": null, "Веб-сайт 2": null, "ВКонтакте": "https://vk.com/westerncityspb", "WhatsApp 1": "https://wa.me/79523660703", "WhatsApp 2": null, "WhatsApp 3": null, "Viber": null, "Telegram 1": null, "Telegram 2": null, "YouTube": null, "Широта": 59.909913, "Долгота": 30.664626, "2GIS URL": "https://2gis.com/firm/70000001039132431" }, "geometry": { "type": "Point", "coordinates": [ 3413570.551686177030206, 8379708.264904388226569 ] } },
{ "type": "Feature", "properties": { "fid": 32, "Наименование": "Western city", "Описание": null, "Рубрики": "Конные клубы", "Адрес": "Колтушское шоссе, 14 ст1", "Комментарий к адресу": null, "Почтовый индекс": 188686, "Микрорайон": null, "Район": null, "Город": null, "Округ": "Всеволожский муниципальный район", "Регион": "Ленинградская область", "Страна": "Россия", "Часы работы": "Пн: 10:00-14:00, 15:00-21:00; Вт: 10:00-14:00, 15:00-21:00; Ср: 10:00-14:00, 15:00-21:00; Чт: 10:00-14:00, 15:00-21:00; Пт: 10:00-14:00, 15:00-21:00; Сб: 10:00-14:00, 15:00-21:00; Вс: 10:00-14:00, 15:00-21:00 (по предварительной записи)", "Часовой пояс": "+03:00", "Рейтинг": null, "Количество отзывов": null, "Телефон 1": "89523660703", "Телефон 2": 89967895955, "Телефон 3": null, "E-mail": null, "Веб-сайт 1": null, "Веб-сайт 2": null, "ВКонтакте": "https://vk.com/westerncityspb", "WhatsApp 1": null, "WhatsApp 2": null, "WhatsApp 3": null, "Viber": null, "Telegram 1": null, "Telegram 2": null, "YouTube": null, "Широта": 59.910244, "Долгота": 30.664842, "2GIS URL": "https://2gis.com/firm/70000001067760170" }, "geometry": { "type": "Point", "coordinates": [ 3413594.596696188673377, 8379781.758717742748559 ] } },
{ "type": "Feature", "properties": { "fid": 33, "Наименование": "Конно-фермерское хозяйство", "Описание": null, "Рубрики": "Конные клубы; Животноводство", "Адрес": "Ёксолово деревня, 13", "Комментарий к адресу": null, "Почтовый индекс": 188681, "Микрорайон": null, "Район": null, "Город": null, "Округ": "Всеволожский муниципальный район", "Регион": "Ленинградская область", "Страна": "Россия", "Часы работы": "Сб: 10:00-16:00; Вс: 10:00-16:00", "Часовой пояс": "+03:00", "Рейтинг": null, "Количество отзывов": null, "Телефон 1": "89217863928", "Телефон 2": null, "Телефон 3": null, "E-mail": null, "Веб-сайт 1": null, "Веб-сайт 2": null, "ВКонтакте": null, "WhatsApp 1": null, "WhatsApp 2": null, "WhatsApp 3": null, "Viber": null, "Telegram 1": null, "Telegram 2": null, "YouTube": null, "Широта": 59.88922, "Долгота": 30.786097, "2GIS URL": "https://2gis.com/firm/70000001098613989" }, "geometry": { "type": "Point", "coordinates": [ 3427092.641552326735109, 8375115.134440815076232 ] } },
{ "type": "Feature", "properties": { "fid": 34, "Наименование": "Sablino Eventing", "Описание": "конный клуб", "Рубрики": "Конные клубы", "Адрес": "Парковая улица, 25к", "Комментарий к адресу": null, "Почтовый индекс": 187010, "Микрорайон": null, "Район": null, "Город": null, "Округ": "Тосненский муниципальный район", "Регион": "Ленинградская область", "Страна": "Россия", "Часы работы": "Пн: 10:00-18:00; Вт: 10:00-18:00; Ср: 10:00-18:00; Чт: 10:00-18:00; Пт: 10:00-18:00; Сб: 10:00-18:00; Вс: 10:00-18:00", "Часовой пояс": "+03:00", "Рейтинг": null, "Количество отзывов": null, "Телефон 1": "89819401137", "Телефон 2": null, "Телефон 3": null, "E-mail": null, "Веб-сайт 1": null, "Веб-сайт 2": null, "ВКонтакте": null, "WhatsApp 1": "https://wa.me/79819401137", "WhatsApp 2": null, "WhatsApp 3": null, "Viber": null, "Telegram 1": null, "Telegram 2": null, "YouTube": null, "Широта": 59.660691, "Долгота": 30.77813, "2GIS URL": "https://2gis.com/firm/70000001058990720" }, "geometry": { "type": "Point", "coordinates": [ 3426205.759169177617878, 8324578.850489522330463 ] } },
{ "type": "Feature", "properties": { "fid": 35, "Наименование": "Песочный", "Описание": "пони-клуб", "Рубрики": "Конные клубы", "Адрес": "Речная улица, 14Б", "Комментарий к адресу": null, "Почтовый индекс": 197758, "Микрорайон": "Песочный пос.", "Район": "Курортный район", "Город": "Санкт-Петербург", "Округ": null, "Регион": "Санкт-Петербург", "Страна": "Россия", "Часы работы": "Вт: 10:00-22:00; Ср: 10:00-22:00; Чт: 10:00-22:00; Пт: 10:00-22:00; Сб: 10:00-22:00; Вс: 10:00-22:00", "Часовой пояс": "+03:00", "Рейтинг": 5.0, "Количество отзывов": 4, "Телефон 1": "89522123238", "Телефон 2": null, "Телефон 3": null, "E-mail": null, "Веб-сайт 1": null, "Веб-сайт 2": null, "ВКонтакте": "https://vk.com/publichorsepesok", "WhatsApp 1": null, "WhatsApp 2": null, "WhatsApp 3": null, "Viber": null, "Telegram 1": null, "Telegram 2": null, "YouTube": null, "Широта": 60.122618, "Долгота": 30.143461, "2GIS URL": "https://2gis.com/firm/70000001087356335" }, "geometry": { "type": "Point", "coordinates": [ 3355554.729266900569201, 8427088.178950197994709 ] } },
{ "type": "Feature", "properties": { "fid": 36, "Наименование": "Велес", "Описание": "конноспортивный клуб", "Рубрики": "Конные клубы; Спортивные секции", "Адрес": null, "Комментарий к адресу": null, "Почтовый индекс": 188681, "Микрорайон": null, "Район": null, "Город": null, "Округ": "Всеволожский муниципальный район", "Регион": "Ленинградская область", "Страна": "Россия", "Часы работы": "Пн: 10:00-20:00; Вт: 10:00-20:00; Ср: 10:00-20:00; Чт: 10:00-20:00; Пт: 10:00-20:00; Сб: 10:00-20:00; Вс: 10:00-20:00 (по предварительной записи)", "Часовой пояс": "+03:00", "Рейтинг": 5.0, "Количество отзывов": 1, "Телефон 1": "89117756547", "Телефон 2": 89111478141, "Телефон 3": null, "E-mail": null, "Веб-сайт 1": "http://t.me/velesksk", "Веб-сайт 2": null, "ВКонтакте": "https://vk.com/kk.veles", "WhatsApp 1": null, "WhatsApp 2": null, "WhatsApp 3": null, "Viber": null, "Telegram 1": null, "Telegram 2": null, "YouTube": null, "Широта": 60.06676, "Долгота": 30.720415, "2GIS URL": "https://2gis.com/firm/70000001104384305" }, "geometry": { "type": "Point", "coordinates": [ 3419780.954758042935282, 8414616.290104614570737 ] } },
{ "type": "Feature", "properties": { "fid": 37, "Наименование": "Факт", "Описание": "конноспортивный клуб", "Рубрики": "Конные клубы", "Адрес": "Приморское шоссе, 4 к2 лит Ф", "Комментарий к адресу": "2 этаж; направо, через крытый манеж", "Почтовый индекс": 197229, "Микрорайон": "Лахта-Ольгино", "Район": "Приморский район", "Город": "Санкт-Петербург", "Округ": null, "Регион": "Санкт-Петербург", "Страна": "Россия", "Часы работы": "Вт: 08:00-22:00; Ср: 08:00-22:00; Чт: 08:00-22:00; Пт: 08:00-22:00; Сб: 08:00-22:00; Вс: 08:00-22:00", "Часовой пояс": "+03:00", "Рейтинг": 5.0, "Количество отзывов": 3, "Телефон 1": "89119299200", "Телефон 2": null, "Телефон 3": null, "E-mail": null, "Веб-сайт 1": "http://www.ksk-fact.ru/", "Веб-сайт 2": null, "ВКонтакте": "https://vk.com/kskfact", "WhatsApp 1": "https://wa.me/79119299200", "WhatsApp 2": null, "WhatsApp 3": null, "Viber": "viber://chat/?number=79119299200", "Telegram 1": "https://t.me/+79119299200", "Telegram 2": null, "YouTube": "https://youtube.com/@ksk_fact_spb", "Широта": 59.995088, "Долгота": 30.112028, "2GIS URL": "https://2gis.com/firm/70000001041924181" }, "geometry": { "type": "Point", "coordinates": [ 3352055.623712796252221, 8398644.368325799703598 ] } },
{ "type": "Feature", "properties": { "fid": 38, "Наименование": "КониПони Gilicob", "Описание": null, "Рубрики": "Конные клубы", "Адрес": null, "Комментарий к адресу": null, "Почтовый индекс": 188681, "Микрорайон": null, "Район": null, "Город": null, "Округ": "Всеволожский муниципальный район", "Регион": "Ленинградская область", "Страна": "Россия", "Часы работы": "Пн: 12:00-21:00; Вт: 12:00-21:00; Ср: 12:00-21:00; Чт: 12:00-21:00; Пт: 12:00-21:00; Сб: 12:00-21:00; Вс: 12:00-21:00", "Часовой пояс": "+03:00", "Рейтинг": 5.0, "Количество отзывов": 1, "Телефон 1": "89213803873", "Телефон 2": null, "Телефон 3": null, "E-mail": null, "Веб-сайт 1": null, "Веб-сайт 2": null, "ВКонтакте": "https://vk.com/gilicob", "WhatsApp 1": null, "WhatsApp 2": null, "WhatsApp 3": null, "Viber": null, "Telegram 1": null, "Telegram 2": null, "YouTube": null, "Широта": 60.067174, "Долгота": 30.7122, "2GIS URL": "https://2gis.com/firm/70000001093110015" }, "geometry": { "type": "Point", "coordinates": [ 3418866.465141176711768, 8414708.649679837748408 ] } },
{ "type": "Feature", "properties": { "fid": 42, "Наименование": "Школа свободных лошадей", "Описание": null, "Рубрики": "Конные клубы", "Адрес": "Дачная, 47", "Комментарий к адресу": null, "Почтовый индекс": 188670, "Микрорайон": null, "Район": null, "Город": null, "Округ": "Всеволожский муниципальный район", "Регион": "Ленинградская область", "Страна": "Россия", "Часы работы": null, "Часовой пояс": "+03:00", "Рейтинг": 5.0, "Количество отзывов": 2, "Телефон 1": "89213223551", "Телефон 2": null, "Телефон 3": null, "E-mail": null, "Веб-сайт 1": "http://koneterapia.ru", "Веб-сайт 2": null, "ВКонтакте": "https://vk.com/club3496372", "WhatsApp 1": null, "WhatsApp 2": null, "WhatsApp 3": null, "Viber": null, "Telegram 1": null, "Telegram 2": null, "YouTube": null, "Широта": 60.050309, "Долгота": 30.739406, "2GIS URL": "https://2gis.com/firm/70000001048190083" }, "geometry": { "type": "Point", "coordinates": [ 3421895.02320769848302, 8410947.161703636869788 ] } },
{ "type": "Feature", "properties": { "fid": 43, "Наименование": "Пегас", "Описание": "конно-спортивный клуб", "Рубрики": "Конные клубы", "Адрес": "Хуторская, 13", "Комментарий к адресу": null, "Почтовый индекс": 188660, "Микрорайон": null, "Район": null, "Город": null, "Округ": "Всеволожский муниципальный район", "Регион": "Ленинградская область", "Страна": "Россия", "Часы работы": "Пн: 09:00-18:00; Вт: 09:00-18:00; Ср: 09:00-18:00; Чт: 09:00-18:00; Пт: 09:00-18:00; Сб: 09:00-18:00; Вс: 09:00-18:00", "Часовой пояс": "+03:00", "Рейтинг": 5.0, "Количество отзывов": 1, "Телефон 1": "89219438273", "Телефон 2": null, "Телефон 3": null, "E-mail": null, "Веб-сайт 1": "http://horsepegas.ru", "Веб-сайт 2": null, "ВКонтакте": null, "WhatsApp 1": null, "WhatsApp 2": null, "WhatsApp 3": null, "Viber": null, "Telegram 1": null, "Telegram 2": null, "YouTube": null, "Широта": 60.113873, "Долгота": 30.430263, "2GIS URL": "https://2gis.com/firm/70000001042719208" }, "geometry": { "type": "Point", "coordinates": [ 3387481.38186539337039, 8425134.212315326556563 ] } },
{ "type": "Feature", "properties": { "fid": 44, "Наименование": "Осиновая роща", "Описание": "конноспортивный клуб", "Рубрики": "Конные клубы", "Адрес": "Межозёрная улица, 7в", "Комментарий к адресу": null, "Почтовый индекс": 194362, "Микрорайон": "Парголово пос.", "Район": "Выборгский район", "Город": "Санкт-Петербург", "Округ": null, "Регион": "Санкт-Петербург", "Страна": "Россия", "Часы работы": "Пн: 09:00-20:00; Вт: 09:00-20:00; Ср: 09:00-20:00; Чт: 09:00-20:00; Пт: 09:00-20:00; Сб: 09:00-20:00; Вс: 09:00-20:00", "Часовой пояс": "+03:00", "Рейтинг": 5.0, "Количество отзывов": 2, "Телефон 1": "89052857750", "Телефон 2": 89112277024, "Телефон 3": 88125948071, "E-mail": null, "Веб-сайт 1": null, "Веб-сайт 2": null, "ВКонтакте": "https://vk.com/kskoinovazarosha", "WhatsApp 1": null, "WhatsApp 2": null, "WhatsApp 3": null, "Viber": null, "Telegram 1": "https://t.me/+79052857750", "Telegram 2": null, "YouTube": null, "Широта": 60.111976, "Долгота": 30.251899, "2GIS URL": "https://2gis.com/firm/70000001034842542" }, "geometry": { "type": "Point", "coordinates": [ 3367625.992209542077035, 8424710.418637746945024 ] } },
{ "type": "Feature", "properties": { "fid": 45, "Наименование": "Гермес", "Описание": "конноспортивный клуб", "Рубрики": "Конные клубы", "Адрес": "Учительская, 14а", "Комментарий к адресу": "1 этаж", "Почтовый индекс": 188653, "Микрорайон": null, "Район": null, "Город": null, "Округ": "Всеволожский муниципальный район", "Регион": "Ленинградская область", "Страна": "Россия", "Часы работы": "Пн: 09:00-14:00, 15:00-22:00; Вт: 09:00-14:00, 15:00-22:00; Ср: 09:00-14:00, 15:00-22:00; Чт: 09:00-14:00, 15:00-22:00; Пт: 09:00-14:00, 15:00-22:00; Сб: 09:00-14:00, 15:00-22:00; Вс: 09:00-14:00, 15:00-22:00", "Часовой пояс": "+03:00", "Рейтинг": null, "Количество отзывов": null, "Телефон 1": "89213581715", "Телефон 2": 89052838712, "Телефон 3": 89213461904, "E-mail": null, "Веб-сайт 1": "http://jivo.chat/1qjlO7LUcL", "Веб-сайт 2": null, "ВКонтакте": "https://vk.com/club2577778", "WhatsApp 1": "https://wa.me/79052838712", "WhatsApp 2": "https://wa.me/79213581715", "WhatsApp 3": "https://wa.me/79213461904", "Viber": null, "Telegram 1": "https://t.me/+79213461904", "Telegram 2": "https://t.me/+79052838712", "YouTube": null, "Широта": 60.168126, "Долгота": 30.331984, "2GIS URL": "https://2gis.com/firm/70000001024120560" }, "geometry": { "type": "Point", "coordinates": [ 3376541.013629721011966, 8437264.790391031652689 ] } },
{ "type": "Feature", "properties": { "fid": 46, "Наименование": "Киннар", "Описание": null, "Рубрики": "Конные клубы", "Адрес": "Приозерское шоссе, 105 лит А", "Комментарий к адресу": null, "Почтовый индекс": 188653, "Микрорайон": null, "Район": null, "Город": null, "Округ": "Всеволожский муниципальный район", "Регион": "Ленинградская область", "Страна": "Россия", "Часы работы": "Пн: 09:00-22:00; Вт: 09:00-22:00; Ср: 09:00-22:00; Чт: 09:00-22:00; Пт: 09:00-22:00; Сб: 09:00-22:00; Вс: 09:00-22:00", "Часовой пояс": "+03:00", "Рейтинг": 5.0, "Количество отзывов": 3, "Телефон 1": "89213332147", "Телефон 2": null, "Телефон 3": null, "E-mail": null, "Веб-сайт 1": "http://www.kinnar.ru", "Веб-сайт 2": null, "ВКонтакте": "https://vk.com/horses_kinnar", "WhatsApp 1": null, "WhatsApp 2": null, "WhatsApp 3": null, "Viber": null, "Telegram 1": null, "Telegram 2": null, "YouTube": null, "Широта": 60.180009, "Долгота": 30.313609, "2GIS URL": "https://2gis.com/firm/70000001048123036" }, "geometry": { "type": "Point", "coordinates": [ 3374495.517986394930631, 8439924.416805388405919 ] } },
{ "type": "Feature", "properties": { "fid": 47, "Наименование": "Перспектива", "Описание": "конноспортивный комплекс", "Рубрики": "Конные клубы", "Адрес": "Высокая, 7", "Комментарий к адресу": null, "Почтовый индекс": 188660, "Микрорайон": null, "Район": null, "Город": null, "Округ": "Всеволожский муниципальный район", "Регион": "Ленинградская область", "Страна": "Россия", "Часы работы": "Пн: 09:00-22:00; Вт: 09:00-22:00; Ср: 09:00-22:00; Чт: 09:00-22:00; Пт: 09:00-22:00; Сб: 09:00-22:00; Вс: 09:00-22:00", "Часовой пояс": "+03:00", "Рейтинг": null, "Количество отзывов": null, "Телефон 1": "89219337436", "Телефон 2": null, "Телефон 3": null, "E-mail": null, "Веб-сайт 1": null, "Веб-сайт 2": null, "ВКонтакте": null, "WhatsApp 1": null, "WhatsApp 2": null, "WhatsApp 3": null, "Viber": null, "Telegram 1": null, "Telegram 2": null, "YouTube": null, "Широта": 60.113836, "Долгота": 30.353088, "2GIS URL": "https://2gis.com/firm/70000001022359912" }, "geometry": { "type": "Point", "coordinates": [ 3378890.300163422245532, 8425125.946206245571375 ] } },
{ "type": "Feature", "properties": { "fid": 48, "Наименование": "Приневское", "Описание": "конно-спортивный комплекс", "Рубрики": "Конные клубы", "Адрес": null, "Комментарий к адресу": null, "Почтовый индекс": 188681, "Микрорайон": null, "Район": null, "Город": null, "Округ": "Всеволожский муниципальный район", "Регион": "Ленинградская область", "Страна": "Россия", "Часы работы": "Пн: 11:00-21:00; Вт: 11:00-21:00; Ср: 11:00-21:00; Чт: 11:00-21:00; Пт: 11:00-21:00; Сб: 11:00-21:00; Вс: 11:00-21:00", "Часовой пояс": "+03:00", "Рейтинг": 5.0, "Количество отзывов": 1, "Телефон 1": "89219944112", "Телефон 2": null, "Телефон 3": null, "E-mail": null, "Веб-сайт 1": null, "Веб-сайт 2": null, "ВКонтакте": null, "WhatsApp 1": null, "WhatsApp 2": null, "WhatsApp 3": null, "Viber": null, "Telegram 1": null, "Telegram 2": null, "YouTube": null, "Широта": 59.840649, "Долгота": 30.553425, "2GIS URL": "https://2gis.com/firm/70000001090889042" }, "geometry": { "type": "Point", "coordinates": [ 3401191.712990474421531, 8364345.277888297103345 ] } },
{ "type": "Feature", "properties": { "fid": 49, "Наименование": "Кентаврик", "Описание": "Санкт-Петербургская региональная общественная организация инвалидов", "Рубрики": "Конные клубы; Спортивные секции; Общественные организации", "Адрес": "улица Дорога в Каменку, 3", "Комментарий к адресу": "1 этаж", "Почтовый индекс": 194356, "Микрорайон": "Парголово пос.", "Район": "Выборгский район", "Город": "Санкт-Петербург", "Округ": null, "Регион": "Санкт-Петербург", "Страна": "Россия", "Часы работы": "Вт: 10:00-14:00, 15:30-17:00; Ср: 10:00-14:00, 15:30-17:00; Чт: 10:00-14:00, 15:30-17:00; Пт: 10:00-14:00, 15:30-17:00; Сб: 10:00-14:00, 15:30-17:00; Вс: 10:00-14:00, 15:30-17:00", "Часовой пояс": "+03:00", "Рейтинг": 5.0, "Количество отзывов": 8, "Телефон 1": "89119162952", "Телефон 2": 89992398691, "Телефон 3": null, "E-mail": null, "Веб-сайт 1": "http://www.kentavrik.org", "Веб-сайт 2": null, "ВКонтакте": "https://vk.com/spbkentavrik", "WhatsApp 1": "https://wa.me/79992398691", "WhatsApp 2": null, "WhatsApp 3": null, "Viber": null, "Telegram 1": null, "Telegram 2": null, "YouTube": null, "Широта": 60.072782, "Долгота": 30.288745, "2GIS URL": "https://2gis.com/firm/70000001006714135" }, "geometry": { "type": "Point", "coordinates": [ 3371727.67016731062904, 8415959.856871109455824 ] } },
{ "type": "Feature", "properties": { "fid": 51, "Наименование": "Гнедой", "Описание": "конный клуб", "Рубрики": "Конные клубы", "Адрес": "улица Некрасова, 14", "Комментарий к адресу": "1 этаж", "Почтовый индекс": 198218, "Микрорайон": "Константиновское", "Район": "Красносельский район", "Город": "Санкт-Петербург", "Округ": null, "Регион": "Санкт-Петербург", "Страна": "Россия", "Часы работы": "Вт: 10:00-19:00; Ср: 10:00-19:00; Чт: 10:00-19:00; Пт: 10:00-19:00; Сб: 10:00-19:00; Вс: 10:00-19:00 (по предварительной записи: вт-вс)", "Часовой пояс": "+03:00", "Рейтинг": 4.3, "Количество отзывов": 7, "Телефон 1": "89214456841", "Телефон 2": null, "Телефон 3": null, "E-mail": null, "Веб-сайт 1": null, "Веб-сайт 2": null, "ВКонтакте": "https://vk.com/kfhgnedoy", "WhatsApp 1": null, "WhatsApp 2": null, "WhatsApp 3": null, "Viber": null, "Telegram 1": null, "Telegram 2": null, "YouTube": null, "Широта": 59.818671, "Долгота": 30.086177, "2GIS URL": "https://2gis.com/firm/70000001021961051" }, "geometry": { "type": "Point", "coordinates": [ 3349177.903556299395859, 8359477.164341639727354 ] } },
{ "type": "Feature", "properties": { "fid": 52, "Наименование": "Булава", "Описание": "конный клуб", "Рубрики": "Конные клубы; Спортивные секции", "Адрес": "Конное территория, 34", "Комментарий к адресу": null, "Почтовый индекс": 188501, "Микрорайон": "Ольгинские просторы", "Район": null, "Город": null, "Округ": "Ломоносовский муниципальный район", "Регион": "Ленинградская область", "Страна": "Россия", "Часы работы": "Пн: 09:00-20:00; Вт: 09:00-20:00; Ср: 09:00-20:00; Чт: 09:00-20:00; Пт: 09:00-20:00; Сб: 09:00-20:00; Вс: 09:00-20:00", "Часовой пояс": "+03:00", "Рейтинг": 4.8, "Количество отзывов": 13, "Телефон 1": "89500063732", "Телефон 2": null, "Телефон 3": null, "E-mail": null, "Веб-сайт 1": null, "Веб-сайт 2": null, "ВКонтакте": "https://vk.com/donskoykon", "WhatsApp 1": "https://wa.me/79500063732", "WhatsApp 2": null, "WhatsApp 3": null, "Viber": null, "Telegram 1": "https://t.me/+79500063732", "Telegram 2": null, "YouTube": null, "Широта": 59.847349, "Долгота": 29.892523, "2GIS URL": "https://2gis.com/firm/70000001063963452" }, "geometry": { "type": "Point", "coordinates": [ 3327620.438886218238622, 8365829.962943655438721 ] } },
{ "type": "Feature", "properties": { "fid": 53, "Наименование": "Вива", "Описание": "конный клуб", "Рубрики": "Конные клубы", "Адрес": null, "Комментарий к адресу": null, "Почтовый индекс": 188320, "Микрорайон": null, "Район": null, "Город": null, "Округ": "Гатчинский муниципальный округ", "Регион": "Ленинградская область", "Страна": "Россия", "Часы работы": "Пн: 09:00-21:00; Вт: 09:00-21:00; Ср: 09:00-21:00; Чт: 09:00-21:00; Пт: 09:00-21:00; Сб: 09:00-21:00; Вс: 09:00-21:00 (по предварительной записи)", "Часовой пояс": "+03:00", "Рейтинг": null, "Количество отзывов": null, "Телефон 1": "89219110026", "Телефон 2": 89213793759, "Телефон 3": null, "E-mail": null, "Веб-сайт 1": null, "Веб-сайт 2": null, "ВКонтакте": "https://vk.com/kskviva", "WhatsApp 1": null, "WhatsApp 2": null, "WhatsApp 3": null, "Viber": null, "Telegram 1": null, "Telegram 2": null, "YouTube": null, "Широта": 59.632741, "Долгота": 30.373437, "2GIS URL": "https://2gis.com/firm/70000001033286591" }, "geometry": { "type": "Point", "coordinates": [ 3381155.540481575299054, 8318421.729715450666845 ] } },
{ "type": "Feature", "properties": { "fid": 54, "Наименование": "Рыжий Конь", "Описание": "конный клуб", "Рубрики": "Конные клубы", "Адрес": null, "Комментарий к адресу": null, "Почтовый индекс": 188676, "Микрорайон": null, "Район": null, "Город": null, "Округ": "Всеволожский муниципальный район", "Регион": "Ленинградская область", "Страна": "Россия", "Часы работы": "Пн: 11:00-13:00, 16:00-18:00; Вт: 11:00-13:00, 16:00-18:00; Ср: 11:00-13:00, 16:00-18:00; Чт: 11:00-13:00, 16:00-18:00; Пт: 11:00-13:00, 16:00-18:00; Сб: 11:00-13:00, 16:00-18:00; Вс: 09:00-13:00, 15:00-19:00", "Часовой пояс": "+03:00", "Рейтинг": 5.0, "Количество отзывов": 2, "Телефон 1": "89112864651", "Телефон 2": null, "Телефон 3": null, "E-mail": null, "Веб-сайт 1": null, "Веб-сайт 2": null, "ВКонтакте": "https://vk.com/roo_rk", "WhatsApp 1": null, "WhatsApp 2": null, "WhatsApp 3": null, "Viber": null, "Telegram 1": null, "Telegram 2": null, "YouTube": null, "Широта": 60.027795, "Долгота": 30.75839, "2GIS URL": "https://2gis.com/firm/70000001048072713" }, "geometry": { "type": "Point", "coordinates": [ 3424008.312420917209238, 8405928.74182747118175 ] } },
{ "type": "Feature", "properties": { "fid": 55, "Наименование": "Viera", "Описание": "конно-спортивная тренировочная база", "Рубрики": "Конные клубы; Спортивные секции", "Адрес": "Ропшинское шоссе, 8д", "Комментарий к адресу": null, "Почтовый индекс": 198517, "Микрорайон": "Петергоф г.", "Район": "Петродворцовый район", "Город": "Санкт-Петербург", "Округ": null, "Регион": "Санкт-Петербург", "Страна": "Россия", "Часы работы": "Пн: 11:00-20:00; Вт: 11:00-20:00; Ср: 11:00-20:00; Чт: 11:00-20:00; Пт: 11:00-20:00; Сб: 11:00-20:00; Вс: 11:00-20:00", "Часовой пояс": "+03:00", "Рейтинг": 3.7, "Количество отзывов": 3, "Телефон 1": "89313588844", "Телефон 2": 89052278524, "Телефон 3": null, "E-mail": null, "Веб-сайт 1": "http://kkviera.ru", "Веб-сайт 2": null, "ВКонтакте": "https://vk.com/vieraclub", "WhatsApp 1": null, "WhatsApp 2": null, "WhatsApp 3": null, "Viber": null, "Telegram 1": null, "Telegram 2": null, "YouTube": null, "Широта": 59.853318, "Долгота": 29.955031, "2GIS URL": "https://2gis.com/firm/5348553838669594" }, "geometry": { "type": "Point", "coordinates": [ 3334578.797616724390537, 8367152.91396754141897 ] } },
{ "type": "Feature", "properties": { "fid": 56, "Наименование": "Парадиз", "Описание": "конный центр", "Рубрики": "Конные клубы", "Адрес": "Заречная дорога, 7а", "Комментарий к адресу": "1 этаж", "Почтовый индекс": 197706, "Микрорайон": "Сестрорецк г.", "Район": "Курортный район", "Город": "Санкт-Петербург", "Округ": null, "Регион": "Санкт-Петербург", "Страна": "Россия", "Часы работы": "Пн: 09:00-18:00; Вт: 09:00-18:00; Ср: 09:00-18:00; Чт: 09:00-18:00; Пт: 09:00-18:00; Сб: 09:00-18:00; Вс: 09:00-18:00 (по предварительной записи)", "Часовой пояс": "+03:00", "Рейтинг": null, "Количество отзывов": null, "Телефон 1": "89117285700", "Телефон 2": null, "Телефон 3": null, "E-mail": null, "Веб-сайт 1": null, "Веб-сайт 2": null, "ВКонтакте": "https://vk.com/kcparadiz", "WhatsApp 1": null, "WhatsApp 2": null, "WhatsApp 3": null, "Viber": null, "Telegram 1": null, "Telegram 2": null, "YouTube": null, "Широта": 60.122504, "Долгота": 29.966324, "2GIS URL": "https://2gis.com/firm/70000001062735352" }, "geometry": { "type": "Point", "coordinates": [ 3335835.928626252803952, 8427062.703661687672138 ] } },
{ "type": "Feature", "properties": { "fid": 57, "Наименование": "Триумф", "Описание": "конный клуб", "Рубрики": "Конные клубы", "Адрес": null, "Комментарий к адресу": null, "Почтовый индекс": 188660, "Микрорайон": null, "Район": null, "Город": null, "Округ": "Всеволожский муниципальный район", "Регион": "Ленинградская область", "Страна": "Россия", "Часы работы": "Пн: 10:00-20:00; Вт: 10:00-20:00; Ср: 10:00-20:00; Чт: 10:00-20:00; Пт: 10:00-20:00; Сб: 10:00-20:00; Вс: 10:00-20:00", "Часовой пояс": "+03:00", "Рейтинг": 4.6, "Количество отзывов": 20, "Телефон 1": "89602564600", "Телефон 2": null, "Телефон 3": null, "E-mail": null, "Веб-сайт 1": "http://3umph.ru", "Веб-сайт 2": null, "ВКонтакте": "https://vk.com/ksk_triumph", "WhatsApp 1": "https://wa.me/79602564600", "WhatsApp 2": null, "WhatsApp 3": null, "Viber": null, "Telegram 1": null, "Telegram 2": null, "YouTube": null, "Широта": 60.09857, "Долгота": 30.464038, "2GIS URL": "https://2gis.com/firm/70000001069060058" }, "geometry": { "type": "Point", "coordinates": [ 3391241.197666936088353, 8421716.186504496261477 ] } },
{ "type": "Feature", "properties": { "fid": 60, "Наименование": "Детскосельский", "Описание": "конно-спортивный клуб", "Рубрики": "Конные клубы; Спортивные секции", "Адрес": null, "Комментарий к адресу": "1 этаж", "Почтовый индекс": 196634, "Микрорайон": "Шушары пос.", "Район": "Пушкинский район", "Город": "Санкт-Петербург", "Округ": null, "Регион": "Санкт-Петербург", "Страна": "Россия", "Часы работы": "Пн: 10:00-20:00; Вт: 10:00-20:00; Ср: 10:00-20:00; Чт: 10:00-20:00; Пт: 10:00-20:00; Сб: 10:00-20:00; Вс: 10:00-20:00 (по предварительной записи)", "Часовой пояс": "+03:00", "Рейтинг": null, "Количество отзывов": null, "Телефон 1": "88123340477", "Телефон 2": null, "Телефон 3": null, "E-mail": null, "Веб-сайт 1": "http://www.detskoselsky.ru", "Веб-сайт 2": null, "ВКонтакте": "https://vk.com/id488061156", "WhatsApp 1": null, "WhatsApp 2": null, "WhatsApp 3": null, "Viber": null, "Telegram 1": null, "Telegram 2": null, "YouTube": "https://youtube.com/channel/UCqQJuy-gXI9EXdUVkncpuvg", "Широта": 59.732465, "Долгота": 30.482195, "2GIS URL": "https://2gis.com/firm/70000001075262049" }, "geometry": { "type": "Point", "coordinates": [ 3393262.425661270041019, 8340413.527943724766374 ] } },
{ "type": "Feature", "properties": { "fid": 61, "Наименование": "Дубки", "Описание": "конно-спортивный комплекс", "Рубрики": "Конные клубы", "Адрес": "Дубковское шоссе, 79", "Комментарий к адресу": null, "Почтовый индекс": 197706, "Микрорайон": "Сестрорецк г.", "Район": "Курортный район", "Город": "Санкт-Петербург", "Округ": null, "Регион": "Санкт-Петербург", "Страна": "Россия", "Часы работы": "Пн: 09:00-20:00; Вт: 09:00-20:00; Ср: 09:00-20:00; Чт: 09:00-20:00; Пт: 09:00-20:00; Сб: 09:00-20:00; Вс: 09:00-20:00 (по предварительной записи)", "Часовой пояс": "+03:00", "Рейтинг": 2.9, "Количество отзывов": 1, "Телефон 1": "89112291098", "Телефон 2": null, "Телефон 3": null, "E-mail": null, "Веб-сайт 1": "http://parkdubki.ru", "Веб-сайт 2": null, "ВКонтакте": "https://vk.com/club25814886", "WhatsApp 1": "https://wa.me/79112291098", "WhatsApp 2": null, "WhatsApp 3": null, "Viber": null, "Telegram 1": null, "Telegram 2": null, "YouTube": null, "Широта": 60.08886, "Долгота": 29.942686, "2GIS URL": "https://2gis.com/firm/70000001062450607" }, "geometry": { "type": "Point", "coordinates": [ 3333204.558502881322056, 8419548.217213315889239 ] } },
{ "type": "Feature", "properties": { "fid": 63, "Наименование": "Селена", "Описание": null, "Рубрики": "Конные клубы", "Адрес": "Приозерское шоссе, 146а", "Комментарий к адресу": null, "Почтовый индекс": 188653, "Микрорайон": null, "Район": null, "Город": null, "Округ": "Всеволожский муниципальный район", "Регион": "Ленинградская область", "Страна": "Россия", "Часы работы": "Пн: 09:00-21:00; Вт: 09:00-21:00; Ср: 09:00-21:00; Чт: 09:00-21:00; Пт: 09:00-21:00; Сб: 09:00-21:00; Вс: 09:00-21:00", "Часовой пояс": "+03:00", "Рейтинг": null, "Количество отзывов": null, "Телефон 1": "89522207657", "Телефон 2": null, "Телефон 3": null, "E-mail": null, "Веб-сайт 1": "http://vk.link/kskselena", "Веб-сайт 2": null, "ВКонтакте": "https://vk.com/club119679668", "WhatsApp 1": null, "WhatsApp 2": null, "WhatsApp 3": null, "Viber": null, "Telegram 1": null, "Telegram 2": null, "YouTube": null, "Широта": 60.18501, "Долгота": 30.317846, "2GIS URL": "https://2gis.com/firm/70000001045954779" }, "geometry": { "type": "Point", "coordinates": [ 3374967.178668885491788, 8441044.017150977626443 ] } },
{ "type": "Feature", "properties": { "fid": 64, "Наименование": "Комарово", "Описание": "конноспортивный клуб", "Рубрики": "Конные клубы", "Адрес": "Отдыха, 4", "Комментарий к адресу": "1 этаж", "Почтовый индекс": 197733, "Микрорайон": "Комарово пос.", "Район": "Курортный район", "Город": "Санкт-Петербург", "Округ": null, "Регион": "Санкт-Петербург", "Страна": "Россия", "Часы работы": "Вт: 10:00-18:00; Ср: 10:00-18:00; Чт: 10:00-18:00; Пт: 10:00-18:00; Сб: 10:00-18:00; Вс: 10:00-18:00 (по предварительной записи: вт-вс)", "Часовой пояс": "+03:00", "Рейтинг": 4.7, "Количество отзывов": 7, "Телефон 1": "88124337264", "Телефон 2": null, "Телефон 3": null, "E-mail": null, "Веб-сайт 1": "http://kskkomarovo.ru", "Веб-сайт 2": null, "ВКонтакте": "https://vk.com/kskkomarovoru", "WhatsApp 1": null, "WhatsApp 2": null, "WhatsApp 3": null, "Viber": null, "Telegram 1": null, "Telegram 2": null, "YouTube": "https://youtube.com/channel/UCmJ0pJMyw_4bJFVnyCohVOA", "Широта": 60.180027, "Долгота": 29.82116, "2GIS URL": "https://2gis.com/firm/5348552838673791" }, "geometry": { "type": "Point", "coordinates": [ 3319676.346064737532288, 8439928.446254942566156 ] } },
{ "type": "Feature", "properties": { "fid": 65, "Наименование": "Территория лошади", "Описание": null, "Рубрики": "Конные клубы", "Адрес": null, "Комментарий к адресу": null, "Почтовый индекс": 188506, "Микрорайон": null, "Район": null, "Город": null, "Округ": "Ломоносовский муниципальный район", "Регион": "Ленинградская область", "Страна": "Россия", "Часы работы": "Пн: 12:00-19:00; Вт: 12:00-19:00; Ср: 12:00-19:00; Чт: 12:00-19:00; Пт: 12:00-19:00; Сб: 12:00-19:00; Вс: 12:00-19:00", "Часовой пояс": "+03:00", "Рейтинг": 5.0, "Количество отзывов": 1, "Телефон 1": "89052819961", "Телефон 2": null, "Телефон 3": null, "E-mail": null, "Веб-сайт 1": null, "Веб-сайт 2": null, "ВКонтакте": null, "WhatsApp 1": null, "WhatsApp 2": null, "WhatsApp 3": null, "Viber": null, "Telegram 1": null, "Telegram 2": null, "YouTube": null, "Широта": 59.717729, "Долгота": 30.253287, "2GIS URL": "https://2gis.com/firm/70000001098261645" }, "geometry": { "type": "Point", "coordinates": [ 3367780.503662763163447, 8337159.722441205754876 ] } },
{ "type": "Feature", "properties": { "fid": 66, "Наименование": "Невский стиль", "Описание": "конноспортивный клуб", "Рубрики": "Конные клубы", "Адрес": "Пушкинское шоссе, 19а", "Комментарий к адресу": null, "Почтовый индекс": 188506, "Микрорайон": null, "Район": null, "Город": null, "Округ": "Ломоносовский муниципальный район", "Регион": "Ленинградская область", "Страна": "Россия", "Часы работы": "Пн: 09:00-21:00; Вт: 09:00-21:00; Ср: 09:00-21:00; Чт: 09:00-21:00; Пт: 09:00-21:00; Сб: 09:00-21:00; Вс: 09:00-21:00 (по предварительной записи)", "Часовой пояс": "+03:00", "Рейтинг": null, "Количество отзывов": null, "Телефон 1": "89219108822", "Телефон 2": null, "Телефон 3": null, "E-mail": null, "Веб-сайт 1": null, "Веб-сайт 2": null, "ВКонтакте": "https://vk.com/nevsky.style", "WhatsApp 1": "https://wa.me/79219108822", "WhatsApp 2": null, "WhatsApp 3": null, "Viber": null, "Telegram 1": "https://t.me/+79219108822", "Telegram 2": null, "YouTube": null, "Широта": 59.717897, "Долгота": 30.257767, "2GIS URL": "https://2gis.com/firm/70000001027062596" }, "geometry": { "type": "Point", "coordinates": [ 3368279.214981516823173, 8337196.809866545721889 ] } },
{ "type": "Feature", "properties": { "fid": 67, "Наименование": "Конный клуб в Орловском парке", "Описание": null, "Рубрики": "Конные клубы", "Адрес": "Фронтовая улица, 2", "Комментарий к адресу": "1 этаж", "Почтовый индекс": 198515, "Микрорайон": "Стрельна пос.", "Район": "Петродворцовый район", "Город": "Санкт-Петербург", "Округ": null, "Регион": "Санкт-Петербург", "Страна": "Россия", "Часы работы": "Пн: 10:00-20:00; Вт: 10:00-20:00; Ср: 10:00-20:00; Чт: 10:00-20:00; Пт: 10:00-20:00; Сб: 10:00-20:00; Вс: 10:00-20:00", "Часовой пояс": "+03:00", "Рейтинг": 4.6, "Количество отзывов": 9, "Телефон 1": "89626858200", "Телефон 2": 89046140389, "Телефон 3": null, "E-mail": null, "Веб-сайт 1": "http://karetaspb.ru", "Веб-сайт 2": null, "ВКонтакте": "https://vk.com/kk_v_orlovskom_parke", "WhatsApp 1": "https://wa.me/79626858200", "WhatsApp 2": null, "WhatsApp 3": null, "Viber": null, "Telegram 1": "https://t.me/+79626858200", "Telegram 2": null, "YouTube": null, "Широта": 59.849793, "Долгота": 30.036871, "2GIS URL": "https://2gis.com/firm/70000001043850197" }, "geometry": { "type": "Point", "coordinates": [ 3343689.18474324606359, 8366371.614990584552288 ] } },
{ "type": "Feature", "properties": { "fid": 68, "Наименование": "Школа джигитовки", "Описание": null, "Рубрики": "Конные клубы; Стрелковые клубы; Спортивные секции", "Адрес": "дорога Красная 2-я, 6", "Комментарий к адресу": null, "Почтовый индекс": 187015, "Микрорайон": null, "Район": null, "Город": null, "Округ": "Тосненский муниципальный район", "Регион": "Ленинградская область", "Страна": "Россия", "Часы работы": "Пн: 09:00-20:00; Вт: 09:00-20:00; Чт: 09:00-20:00; Пт: 09:00-20:00; Сб: 09:00-20:00; Вс: 09:00-20:00", "Часовой пояс": "+03:00", "Рейтинг": null, "Количество отзывов": null, "Телефон 1": "89119190022", "Телефон 2": null, "Телефон 3": null, "E-mail": null, "Веб-сайт 1": null, "Веб-сайт 2": null, "ВКонтакте": "https://vk.com/djigitovkaspb", "WhatsApp 1": null, "WhatsApp 2": null, "WhatsApp 3": null, "Viber": null, "Telegram 1": null, "Telegram 2": null, "YouTube": null, "Широта": 59.69126, "Долгота": 30.679898, "2GIS URL": "https://2gis.com/firm/70000001053622727" }, "geometry": { "type": "Point", "coordinates": [ 3415270.622949572745711, 8331318.79075303953141 ] } },
{ "type": "Feature", "properties": { "fid": 70, "Наименование": "Хуторок", "Описание": "конный клуб", "Рубрики": "Конные клубы", "Адрес": "Деревенская улица, 11", "Комментарий к адресу": null, "Почтовый индекс": 188655, "Микрорайон": null, "Район": null, "Город": "Сертолово", "Округ": "Всеволожский муниципальный район", "Регион": "Ленинградская область", "Страна": "Россия", "Часы работы": "Пн: 10:00-14:00, 15:00-20:00; Вт: 10:00-14:00, 15:00-20:00; Ср: 10:00-14:00, 15:00-20:00; Чт: 10:00-14:00, 15:00-20:00; Пт: 10:00-14:00, 15:00-20:00; Сб: 10:00-14:00, 15:00-20:00; Вс: 10:00-14:00, 15:00-20:00", "Часовой пояс": "+03:00", "Рейтинг": 5.0, "Количество отзывов": 2, "Телефон 1": "89052027941", "Телефон 2": null, "Телефон 3": null, "E-mail": null, "Веб-сайт 1": null, "Веб-сайт 2": null, "ВКонтакте": "https://vk.com/club119375320", "WhatsApp 1": null, "WhatsApp 2": null, "WhatsApp 3": null, "Viber": null, "Telegram 1": null, "Telegram 2": null, "YouTube": null, "Широта": 60.159121, "Долгота": 30.230676, "2GIS URL": "https://2gis.com/firm/70000001041682622" }, "geometry": { "type": "Point", "coordinates": [ 3365263.458656435832381, 8435249.952076220884919 ] } },
{ "type": "Feature", "properties": { "fid": 71, "Наименование": "Ропшинский ипподром", "Описание": null, "Рубрики": "Конные клубы", "Адрес": null, "Комментарий к адресу": null, "Почтовый индекс": 188514, "Микрорайон": null, "Район": null, "Город": null, "Округ": "Ломоносовский муниципальный район", "Регион": "Ленинградская область", "Страна": "Россия", "Часы работы": "Пн: 10:00-20:00; Вт: 10:00-20:00; Ср: 10:00-20:00; Чт: 10:00-20:00; Пт: 10:00-20:00; Сб: 10:00-20:00; Вс: 10:00-20:00 (по предварительному звонку)", "Часовой пояс": "+03:00", "Рейтинг": null, "Количество отзывов": null, "Телефон 1": "89213934331", "Телефон 2": null, "Телефон 3": null, "E-mail": null, "Веб-сайт 1": null, "Веб-сайт 2": null, "ВКонтакте": "https://vk.com/club145870571", "WhatsApp 1": null, "WhatsApp 2": null, "WhatsApp 3": null, "Viber": null, "Telegram 1": null, "Telegram 2": null, "YouTube": null, "Широта": 59.744506, "Долгота": 29.838707, "2GIS URL": "https://2gis.com/firm/70000001089280287" }, "geometry": { "type": "Point", "coordinates": [ 3321629.669169687200338, 8343073.324497366324067 ] } },
{ "type": "Feature", "properties": { "fid": 72, "Наименование": "Лизар", "Описание": "конный клуб", "Рубрики": "Конные клубы", "Адрес": "Красносельское шоссе, 1а", "Комментарий к адресу": null, "Почтовый индекс": 188514, "Микрорайон": null, "Район": null, "Город": null, "Округ": "Ломоносовский муниципальный район", "Регион": "Ленинградская область", "Страна": "Россия", "Часы работы": "Пн: 09:00-19:00; Вт: 09:00-19:00; Ср: 09:00-19:00; Чт: 09:00-19:00; Пт: 09:00-19:00; Сб: 09:00-19:00; Вс: 09:00-19:00", "Часовой пояс": "+03:00", "Рейтинг": 5.0, "Количество отзывов": 2, "Телефон 1": "89217949499", "Телефон 2": null, "Телефон 3": null, "E-mail": null, "Веб-сайт 1": null, "Веб-сайт 2": null, "ВКонтакте": null, "WhatsApp 1": null, "WhatsApp 2": null, "WhatsApp 3": null, "Viber": null, "Telegram 1": null, "Telegram 2": null, "YouTube": null, "Широта": 59.719109, "Долгота": 29.814758, "2GIS URL": "https://2gis.com/firm/70000001048243780" }, "geometry": { "type": "Point", "coordinates": [ 3318963.67868467932567, 8337464.374667499214411 ] } },
{ "type": "Feature", "properties": { "fid": 73, "Наименование": "Светозар", "Описание": "конноспортивный клуб", "Рубрики": "Конные клубы", "Адрес": "Владимировка деревня, 9а", "Комментарий к адресу": "1 этаж", "Почтовый индекс": 188501, "Микрорайон": null, "Район": null, "Город": null, "Округ": "Ломоносовский муниципальный район", "Регион": "Ленинградская область", "Страна": "Россия", "Часы работы": "Пн: 10:00-20:00; Вт: 10:00-20:00; Ср: 10:00-20:00; Чт: 10:00-20:00; Пт: 10:00-20:00; Сб: 10:00-20:00; Вс: 10:00-20:00 (по предварительной записи)", "Часовой пояс": "+03:00", "Рейтинг": 5.0, "Количество отзывов": 3, "Телефон 1": "89213867384", "Телефон 2": null, "Телефон 3": null, "E-mail": null, "Веб-сайт 1": "http://payforms.ru/promo_site/DOMAV", "Веб-сайт 2": null, "ВКонтакте": "https://vk.com/svetozarru", "WhatsApp 1": null, "WhatsApp 2": null, "WhatsApp 3": null, "Viber": null, "Telegram 1": null, "Telegram 2": null, "YouTube": null, "Широта": 59.820093, "Долгота": 29.910976, "2GIS URL": "https://2gis.com/firm/70000001007152248" }, "geometry": { "type": "Point", "coordinates": [ 3329674.617449827026576, 8359792.039298366755247 ] } },
{ "type": "Feature", "properties": { "fid": 75, "Наименование": "Гардарика", "Описание": "пони-клуб", "Рубрики": "Конные клубы", "Адрес": "Родниковая улица, 13", "Комментарий к адресу": null, "Почтовый индекс": 188514, "Микрорайон": null, "Район": null, "Город": null, "Округ": "Ломоносовский муниципальный район", "Регион": "Ленинградская область", "Страна": "Россия", "Часы работы": "Пн: 09:00-21:00; Вт: 09:00-21:00; Ср: 09:00-21:00; Чт: 09:00-21:00; Пт: 09:00-21:00; Сб: 09:00-21:00; Вс: 09:00-21:00", "Часовой пояс": "+03:00", "Рейтинг": null, "Количество отзывов": null, "Телефон 1": "89523832209", "Телефон 2": null, "Телефон 3": null, "E-mail": null, "Веб-сайт 1": null, "Веб-сайт 2": null, "ВКонтакте": "https://vk.com/ponigardarica", "WhatsApp 1": "https://wa.me/79523832209", "WhatsApp 2": null, "WhatsApp 3": null, "Viber": "viber://chat/?number=79523832209", "Telegram 1": null, "Telegram 2": null, "YouTube": null, "Широта": 59.715916, "Долгота": 29.772269, "2GIS URL": "https://2gis.com/firm/70000001053610855" }, "geometry": { "type": "Point", "coordinates": [ 3314233.824840364512056, 8336759.499157921411097 ] } },
{ "type": "Feature", "properties": { "fid": 76, "Наименование": "Солнечный остров", "Описание": "оздоровительный конный центр", "Рубрики": "Конные клубы", "Адрес": "Грибоедова проспект, 110Б к1", "Комментарий к адресу": null, "Почтовый индекс": 188643, "Микрорайон": null, "Район": null, "Город": "Всеволожск", "Округ": "Всеволожский муниципальный район", "Регион": "Ленинградская область", "Страна": "Россия", "Часы работы": "Вт: 10:00-18:00; Ср: 10:00-18:00; Чт: 10:00-18:00; Пт: 10:00-18:00; Сб: 10:00-18:00; Вс: 10:00-18:00", "Часовой пояс": "+03:00", "Рейтинг": 2.9, "Количество отзывов": 5, "Телефон 1": "89219501549", "Телефон 2": null, "Телефон 3": null, "E-mail": null, "Веб-сайт 1": "http://www.sunny.spb.ru", "Веб-сайт 2": "http://solostrov.ru", "ВКонтакте": "https://vk.com/solostrov_ru", "WhatsApp 1": null, "WhatsApp 2": null, "WhatsApp 3": null, "Viber": null, "Telegram 1": null, "Telegram 2": null, "YouTube": null, "Широта": 59.985854, "Долгота": 30.698692, "2GIS URL": "https://2gis.com/firm/5348552838673998" }, "geometry": { "type": "Point", "coordinates": [ 3417362.761459541507065, 8396589.111966211348772 ] } },
{ "type": "Feature", "properties": { "fid": 77, "Наименование": "Лунная поляна", "Описание": "конный клуб", "Рубрики": "Конные клубы", "Адрес": null, "Комментарий к адресу": null, "Почтовый индекс": 188505, "Микрорайон": null, "Район": null, "Город": null, "Округ": "Ломоносовский муниципальный район", "Регион": "Ленинградская область", "Страна": "Россия", "Часы работы": "Пн: 09:00-21:00; Вт: 09:00-21:00; Ср: 09:00-21:00; Чт: 09:00-21:00; Пт: 09:00-21:00; Сб: 09:00-21:00; Вс: 09:00-21:00", "Часовой пояс": "+03:00", "Рейтинг": 5.0, "Количество отзывов": 4, "Телефон 1": "89811057070", "Телефон 2": null, "Телефон 3": null, "E-mail": null, "Веб-сайт 1": null, "Веб-сайт 2": null, "ВКонтакте": "https://vk.com/moonstable", "WhatsApp 1": "https://wa.me/79811057070", "WhatsApp 2": null, "WhatsApp 3": null, "Viber": null, "Telegram 1": null, "Telegram 2": null, "YouTube": null, "Широта": 59.772281, "Долгота": 30.011216, "2GIS URL": "https://2gis.com/firm/70000001075248905" }, "geometry": { "type": "Point", "coordinates": [ 3340833.28320694481954, 8349212.339437840506434 ] } },
{ "type": "Feature", "properties": { "fid": 78, "Наименование": "Эфа", "Описание": "конноспортивный клуб", "Рубрики": "Конные клубы", "Адрес": "Центральная улица, 21а", "Комментарий к адресу": null, "Почтовый индекс": 188501, "Микрорайон": null, "Район": null, "Город": null, "Округ": "Ломоносовский муниципальный район", "Регион": "Ленинградская область", "Страна": "Россия", "Часы работы": null, "Часовой пояс": "+03:00", "Рейтинг": 3.1, "Количество отзывов": 2, "Телефон 1": "88129639124", "Телефон 2": null, "Телефон 3": null, "E-mail": null, "Веб-сайт 1": null, "Веб-сайт 2": null, "ВКонтакте": "https://vk.com/club843424", "WhatsApp 1": null, "WhatsApp 2": null, "WhatsApp 3": null, "Viber": null, "Telegram 1": null, "Telegram 2": null, "YouTube": null, "Широта": 59.830232, "Долгота": 29.87849, "2GIS URL": "https://2gis.com/firm/70000001029420078" }, "geometry": { "type": "Point", "coordinates": [ 3326058.292471916414797, 8362037.518315371125937 ] } },
{ "type": "Feature", "properties": { "fid": 79, "Наименование": "Петергоф", "Описание": "конно-туристический клуб", "Рубрики": "Конные клубы", "Адрес": null, "Комментарий к адресу": null, "Почтовый индекс": null, "Микрорайон": null, "Район": null, "Город": null, "Округ": "Ломоносовский муниципальный район", "Регион": "Ленинградская область", "Страна": "Россия", "Часы работы": "Пн: 09:00-21:00; Вт: 09:00-21:00; Ср: 09:00-21:00; Чт: 09:00-21:00; Пт: 09:00-21:00; Сб: 09:00-21:00; Вс: 09:00-21:00", "Часовой пояс": "+03:00", "Рейтинг": 5.0, "Количество отзывов": 1, "Телефон 1": "89062517336", "Телефон 2": null, "Телефон 3": null, "E-mail": null, "Веб-сайт 1": null, "Веб-сайт 2": null, "ВКонтакте": "https://vk.com/ktkpetergof", "WhatsApp 1": null, "WhatsApp 2": null, "WhatsApp 3": null, "Viber": null, "Telegram 1": null, "Telegram 2": null, "YouTube": null, "Широта": null, "Долгота": null, "2GIS URL": "https://2gis.com/firm/70000001021032744" }, "geometry": null },
{ "type": "Feature", "properties": { "fid": 80, "Наименование": "Fellclub", "Описание": "конный клуб", "Рубрики": "Конные клубы", "Адрес": "Долинная улица, 1 ст1", "Комментарий к адресу": null, "Почтовый индекс": 188502, "Микрорайон": null, "Район": null, "Город": null, "Округ": "Ломоносовский муниципальный район", "Регион": "Ленинградская область", "Страна": "Россия", "Часы работы": "Вт: 10:00-19:00; Ср: 10:00-19:00; Чт: 10:00-19:00; Пт: 10:00-19:00; Сб: 10:00-19:00; Вс: 10:00-19:00", "Часовой пояс": "+03:00", "Рейтинг": 5.0, "Количество отзывов": 1, "Телефон 1": "89214311039", "Телефон 2": 89217988238, "Телефон 3": 89533773968, "E-mail": null, "Веб-сайт 1": null, "Веб-сайт 2": null, "ВКонтакте": "https://vk.com/fellclub", "WhatsApp 1": "https://wa.me/79214311039", "WhatsApp 2": null, "WhatsApp 3": null, "Viber": null, "Telegram 1": "https://t.me/+79214311039", "Telegram 2": null, "YouTube": null, "Широта": 59.788636, "Долгота": 29.958098, "2GIS URL": "https://2gis.com/firm/70000001048096762" }, "geometry": { "type": "Point", "coordinates": [ 3334920.214494986925274, 8352829.619741440750659 ] } },
{ "type": "Feature", "properties": { "fid": 81, "Наименование": "Шаг", "Описание": "конноспортивная школа Анны Громзиной", "Рубрики": "Конные клубы", "Адрес": "деревня Корпикюля, 1", "Комментарий к адресу": null, "Почтовый индекс": 188354, "Микрорайон": null, "Район": null, "Город": null, "Округ": "Гатчинский муниципальный округ", "Регион": "Ленинградская область", "Страна": "Россия", "Часы работы": "Вт: 08:00-22:00; Ср: 08:00-22:00; Чт: 08:00-22:00; Пт: 08:00-22:00; Сб: 08:00-22:00; Вс: 08:00-22:00", "Часовой пояс": "+03:00", "Рейтинг": 5.0, "Количество отзывов": 1, "Телефон 1": "89117246219", "Телефон 2": null, "Телефон 3": null, "E-mail": null, "Веб-сайт 1": "http://www.gromzina.com", "Веб-сайт 2": null, "ВКонтакте": "https://vk.com/ksaspb", "WhatsApp 1": null, "WhatsApp 2": null, "WhatsApp 3": null, "Viber": null, "Telegram 1": null, "Telegram 2": null, "YouTube": null, "Широта": 59.622272, "Долгота": 30.276083, "2GIS URL": "https://2gis.com/firm/70000001053602825" }, "geometry": { "type": "Point", "coordinates": [ 3370318.142774886451662, 8316116.827594524249434 ] } },
{ "type": "Feature", "properties": { "fid": 82, "Наименование": "Баланс ", "Описание": "конный клуб", "Рубрики": "Конные клубы", "Адрес": null, "Комментарий к адресу": null, "Почтовый индекс": 188505, "Микрорайон": null, "Район": null, "Город": null, "Округ": "Ломоносовский муниципальный район", "Регион": "Ленинградская область", "Страна": "Россия", "Часы работы": "Пн: 09:00-20:00; Вт: 09:00-20:00; Ср: 09:00-20:00; Чт: 09:00-20:00; Пт: 09:00-20:00; Сб: 09:00-20:00; Вс: 09:00-20:00", "Часовой пояс": "+03:00", "Рейтинг": 5.0, "Количество отзывов": 3, "Телефон 1": "89213531076", "Телефон 2": null, "Телефон 3": null, "E-mail": null, "Веб-сайт 1": null, "Веб-сайт 2": null, "ВКонтакте": "https://vk.com/ksk_balance", "WhatsApp 1": null, "WhatsApp 2": null, "WhatsApp 3": null, "Viber": null, "Telegram 1": null, "Telegram 2": null, "YouTube": null, "Широта": 59.750953, "Долгота": 29.974543, "2GIS URL": "https://2gis.com/firm/70000001093795000" }, "geometry": { "type": "Point", "coordinates": [ 3336750.863521082792431, 8344497.828401213511825 ] } },
{ "type": "Feature", "properties": { "fid": 83, "Наименование": "Gappo Team", "Описание": null, "Рубрики": "Конные клубы", "Адрес": "Сиреневая улица, 40", "Комментарий к адресу": null, "Почтовый индекс": 188505, "Микрорайон": null, "Район": null, "Город": null, "Округ": "Ломоносовский муниципальный район", "Регион": "Ленинградская область", "Страна": "Россия", "Часы работы": "Пн: 08:00-13:00, 14:00-22:00; Вт: 08:00-13:00, 14:00-22:00; Ср: 08:00-13:00, 14:00-22:00; Чт: 08:00-13:00, 14:00-22:00; Пт: 08:00-13:00, 14:00-22:00; Сб: 08:00-13:00, 14:00-22:00; Вс: 08:00-13:00, 14:00-22:00 (по предварительному звонку)", "Часовой пояс": "+03:00", "Рейтинг": null, "Количество отзывов": null, "Телефон 1": "89384313760", "Телефон 2": 89810013305, "Телефон 3": null, "E-mail": null, "Веб-сайт 1": "http://t.me/tihonovateamspb", "Веб-сайт 2": null, "ВКонтакте": "https://vk.com/club229286617", "WhatsApp 1": null, "WhatsApp 2": null, "WhatsApp 3": null, "Viber": null, "Telegram 1": null, "Telegram 2": null, "YouTube": null, "Широта": 59.7491, "Долгота": 29.973045, "2GIS URL": "https://2gis.com/firm/70000001101436294" }, "geometry": { "type": "Point", "coordinates": [ 3336584.10692387400195, 8344088.368624620139599 ] } },
{ "type": "Feature", "properties": { "fid": 84, "Наименование": "Ораниенбаум", "Описание": "конно-спортивный клуб", "Рубрики": "Конные клубы; Спортивные секции", "Адрес": null, "Комментарий к адресу": null, "Почтовый индекс": 188530, "Микрорайон": null, "Район": null, "Город": null, "Округ": "Ломоносовский муниципальный район", "Регион": "Ленинградская область", "Страна": "Россия", "Часы работы": "Вт: 11:00-16:00, 17:00-19:00; Ср: 11:00-16:00, 17:00-19:00; Чт: 11:00-16:00, 17:00-19:00; Пт: 11:00-16:00, 17:00-19:00; Сб: 11:00-16:00, 17:00-19:00; Вс: 11:00-16:00, 17:00-19:00 (по предварительной записи)", "Часовой пояс": "+03:00", "Рейтинг": 5.0, "Количество отзывов": 2, "Телефон 1": "89522098218", "Телефон 2": null, "Телефон 3": null, "E-mail": null, "Веб-сайт 1": null, "Веб-сайт 2": null, "ВКонтакте": "https://vk.com/club14821462", "WhatsApp 1": "https://wa.me/79522098218", "WhatsApp 2": null, "WhatsApp 3": null, "Viber": "viber://chat/?number=79522098218", "Telegram 1": "https://t.me/+79522098218", "Telegram 2": null, "YouTube": null, "Широта": 59.902284, "Долгота": 29.691472, "2GIS URL": "https://2gis.com/firm/70000001043001624" }, "geometry": { "type": "Point", "coordinates": [ 3305239.54394274065271, 8378014.557655800133944 ] } },
{ "type": "Feature", "properties": { "fid": 93, "Наименование": "Ковчег", "Описание": "конный клуб", "Рубрики": "Конные клубы", "Адрес": "Михайловская деревня, 7 ст1", "Комментарий к адресу": null, "Почтовый индекс": 188514, "Микрорайон": null, "Район": null, "Город": null, "Округ": "Ломоносовский муниципальный район", "Регион": "Ленинградская область", "Страна": "Россия", "Часы работы": "Пн: 10:00-20:00; Вт: 10:00-20:00; Ср: 10:00-20:00; Чт: 10:00-20:00; Пт: 10:00-20:00; Сб: 10:00-20:00; Вс: 10:00-20:00 (по предварительной записи: пн-вс)", "Часовой пояс": "+03:00", "Рейтинг": 4.1, "Количество отзывов": 3, "Телефон 1": "89213934331", "Телефон 2": 89633201146, "Телефон 3": null, "E-mail": null, "Веб-сайт 1": "http://koni-progulka.ru", "Веб-сайт 2": null, "ВКонтакте": "https://vk.com/koniprogulka", "WhatsApp 1": null, "WhatsApp 2": null, "WhatsApp 3": null, "Viber": null, "Telegram 1": null, "Telegram 2": null, "YouTube": null, "Широта": 59.737706, "Долгота": 29.850967, "2GIS URL": "https://2gis.com/firm/70000001019534807" }, "geometry": { "type": "Point", "coordinates": [ 3322994.446126813068986, 8341571.120832 ] } },
{ "type": "Feature", "properties": { "fid": 97, "Наименование": "Канди-клуб", "Описание": "конноспортивная школа", "Рубрики": "Конные клубы", "Адрес": null, "Комментарий к адресу": null, "Почтовый индекс": null, "Микрорайон": null, "Район": null, "Город": null, "Округ": "Ломоносовский муниципальный район", "Регион": "Ленинградская область", "Страна": "Россия", "Часы работы": "Пн: 10:00-19:00; Вт: 10:00-19:00; Ср: 10:00-19:00; Чт: 10:00-19:00; Пт: 10:00-19:00; Сб: 10:00-19:00; Вс: 10:00-19:00 (по предварительной записи)", "Часовой пояс": "+03:00", "Рейтинг": null, "Количество отзывов": null, "Телефон 1": "89219243815", "Телефон 2": null, "Телефон 3": null, "E-mail": null, "Веб-сайт 1": null, "Веб-сайт 2": null, "ВКонтакте": "https://vk.com/club187313154", "WhatsApp 1": "https://wa.me/79219243815", "WhatsApp 2": null, "WhatsApp 3": null, "Viber": null, "Telegram 1": null, "Telegram 2": null, "YouTube": null, "Широта": null, "Долгота": null, "2GIS URL": "https://2gis.com/firm/70000001053645578" }, "geometry": null },
{ "type": "Feature", "properties": { "fid": 98, "Наименование": "Лебер", "Описание": "конный клуб", "Рубрики": "Конные клубы", "Адрес": "Садовая, 86", "Комментарий к адресу": null, "Почтовый индекс": 188689, "Микрорайон": null, "Район": null, "Город": null, "Округ": "Всеволожский муниципальный район", "Регион": "Ленинградская область", "Страна": "Россия", "Часы работы": "Пн: 09:00-22:00; Вт: 09:00-22:00; Ср: 09:00-22:00; Чт: 09:00-22:00; Пт: 09:00-22:00; Сб: 09:00-22:00; Вс: 09:00-22:00 (по предварительной записи: пн-вс)", "Часовой пояс": "+03:00", "Рейтинг": null, "Количество отзывов": null, "Телефон 1": "89119072098", "Телефон 2": null, "Телефон 3": null, "E-mail": null, "Веб-сайт 1": null, "Веб-сайт 2": null, "ВКонтакте": "https://vk.com/club99099160", "WhatsApp 1": "https://wa.me/79119072098", "WhatsApp 2": null, "WhatsApp 3": null, "Viber": null, "Telegram 1": null, "Telegram 2": null, "YouTube": null, "Широта": 59.938196, "Долгота": 30.62105, "2GIS URL": "https://2gis.com/firm/70000001056936676" }, "geometry": { "type": "Point", "coordinates": [ 3408719.693555369973183, 8385990.745670758187771 ] } },
{ "type": "Feature", "properties": { "fid": 99, "Наименование": "Школа верховой езды", "Описание": null, "Рубрики": "Конные клубы; Спортивные секции", "Адрес": "Отдыха, 4", "Комментарий к адресу": null, "Почтовый индекс": 197733, "Микрорайон": "Комарово пос.", "Район": "Курортный район", "Город": "Санкт-Петербург", "Округ": null, "Регион": "Санкт-Петербург", "Страна": "Россия", "Часы работы": "Пн: 10:00-21:00; Вт: 10:00-21:00; Ср: 10:00-21:00; Чт: 10:00-21:00; Пт: 10:00-21:00; Сб: 10:00-21:00; Вс: 10:00-21:00", "Часовой пояс": "+03:00", "Рейтинг": null, "Количество отзывов": null, "Телефон 1": null, "Телефон 2": null, "Телефон 3": null, "E-mail": null, "Веб-сайт 1": null, "Веб-сайт 2": null, "ВКонтакте": null, "WhatsApp 1": "https://wa.me/79052827829", "WhatsApp 2": null, "WhatsApp 3": null, "Viber": null, "Telegram 1": null, "Telegram 2": null, "YouTube": null, "Широта": 60.180027, "Долгота": 29.82116, "2GIS URL": "https://2gis.com/firm/70000001025379919" }, "geometry": { "type": "Point", "coordinates": [ 3319676.346064737532288, 8439928.446254942566156 ] } },
{ "type": "Feature", "properties": { "fid": 100, "Наименование": "Верхом по лесам", "Описание": "конный клуб", "Рубрики": "Конные клубы", "Адрес": null, "Комментарий к адресу": null, "Почтовый индекс": 188689, "Микрорайон": null, "Район": null, "Город": null, "Округ": "Всеволожский муниципальный район", "Регион": "Ленинградская область", "Страна": "Россия", "Часы работы": "Пн: 10:00-20:00; Вт: 10:00-20:00; Ср: 10:00-20:00; Чт: 10:00-20:00; Пт: 10:00-20:00; Сб: 10:00-20:00; Вс: 10:00-20:00 (по предварительной записи)", "Часовой пояс": "+03:00", "Рейтинг": 5.0, "Количество отзывов": 1, "Телефон 1": "89118469798", "Телефон 2": null, "Телефон 3": null, "E-mail": null, "Веб-сайт 1": null, "Веб-сайт 2": null, "ВКонтакте": "https://vk.com/horsebackridingspb", "WhatsApp 1": "https://wa.me/79118469798", "WhatsApp 2": null, "WhatsApp 3": null, "Viber": null, "Telegram 1": null, "Telegram 2": null, "YouTube": null, "Широта": 59.961453, "Долгота": 30.61095, "2GIS URL": "https://2gis.com/firm/70000001095264144" }, "geometry": { "type": "Point", "coordinates": [ 3407595.36669835774228, 8391160.820702154189348 ] } },
{ "type": "Feature", "properties": { "fid": 108, "Наименование": "Илиада", "Описание": null, "Рубрики": "Конные клубы", "Адрес": "Александровское шоссе, 150", "Комментарий к адресу": null, "Почтовый индекс": 197730, "Микрорайон": null, "Район": null, "Город": "Санкт-Петербург", "Округ": "Всеволожский муниципальный район", "Регион": "Санкт-Петербург", "Страна": "Россия", "Часы работы": "Пн: 10:00-12:00, 13:00-22:00; Вт: 10:00-12:00, 13:00-22:00; Ср: 10:00-12:00, 13:00-22:00; Чт: 10:00-12:00, 13:00-22:00; Пт: 10:00-12:00, 13:00-22:00; Сб: 10:00-12:00, 13:00-22:00; Вс: 10:00-12:00, 13:00-22:00", "Часовой пояс": "+03:00", "Рейтинг": null, "Количество отзывов": null, "Телефон 1": "89213802950", "Телефон 2": null, "Телефон 3": null, "E-mail": null, "Веб-сайт 1": null, "Веб-сайт 2": null, "ВКонтакте": null, "WhatsApp 1": "https://wa.me/79213802950", "WhatsApp 2": null, "WhatsApp 3": null, "Viber": null, "Telegram 1": null, "Telegram 2": null, "YouTube": null, "Широта": 60.182406, "Долгота": 30.022476, "2GIS URL": "https://2gis.com/firm/70000001087356617" }, "geometry": { "type": "Point", "coordinates": [ 3342086.740673277061433, 8440461.024607637897134 ] } },
{ "type": "Feature", "properties": { "fid": 114, "Наименование": "Верево", "Описание": "конно-спортивный клуб", "Рубрики": "Конные клубы", "Адрес": "территория конно-спортивного клуба Верево, 1", "Комментарий к адресу": null, "Почтовый индекс": 188353, "Микрорайон": null, "Район": null, "Город": null, "Округ": "Гатчинский муниципальный округ", "Регион": "Ленинградская область", "Страна": "Россия", "Часы работы": "Пн: 09:00-21:00; Вт: 09:00-21:00; Ср: 09:00-21:00; Чт: 09:00-21:00; Пт: 09:00-21:00; Сб: 09:00-21:00; Вс: 09:00-21:00", "Часовой пояс": "+03:00", "Рейтинг": null, "Количество отзывов": null, "Телефон 1": "89119141338", "Телефон 2": null, "Телефон 3": null, "E-mail": null, "Веб-сайт 1": null, "Веб-сайт 2": null, "ВКонтакте": null, "WhatsApp 1": null, "WhatsApp 2": null, "WhatsApp 3": null, "Viber": null, "Telegram 1": null, "Telegram 2": null, "YouTube": null, "Широта": 59.604555, "Долгота": 30.249202, "2GIS URL": "https://2gis.com/firm/70000001034162016" }, "geometry": { "type": "Point", "coordinates": [ 3367325.763542872387916, 8312217.809452345594764 ] } },
{ "type": "Feature", "properties": { "fid": 115, "Наименование": "", "Описание": null, "Рубрики": null, "Адрес": null, "Комментарий к адресу": null, "Почтовый индекс": null, "Микрорайон": null, "Район": null, "Город": null, "Округ": null, "Регион": null, "Страна": null, "Часы работы": null, "Часовой пояс": null, "Рейтинг": null, "Количество отзывов": null, "Телефон 1": null, "Телефон 2": null, "Телефон 3": null, "E-mail": null, "Веб-сайт 1": null, "Веб-сайт 2": null, "ВКонтакте": null, "WhatsApp 1": null, "WhatsApp 2": null, "WhatsApp 3": null, "Viber": null, "Telegram 1": null, "Telegram 2": null, "YouTube": null, "Широта": null, "Долгота": null, "2GIS URL": null }, "geometry": { "type": "Point", "coordinates": [ 3371292.57340897154063, 8309693.616575997322798 ] } }
]
}
