{
"type": "FeatureCollection",
"name": "mask_stage",
"crs": { "type": "name", "properties": { "name": "urn:ogc:def:crs:EPSG::3857" } },
"features": [
{ "type": "Feature", "properties": { "fid": 1, "MINX": 3219775.8385000001, "MINY": 8284725.0911999997, "MAXX": 3555295.8385000001, "MAXY": 8491320.0911999997, "CNTX": 3387535.8385000001, "CNTY": 8388022.5911999997, "AREA": 69316754400.0, "PERIM": 1084230.0, "HEIGHT": 206595.0, "WIDTH": 335520.0 }, "geometry": { "type": "MultiPolygon", "coordinates": [ [ [ [ 3219775.8385, 8491320.091199999675155 ], [ 3555295.8385, 8491320.091199999675155 ], [ 3555295.8385, 8284725.091199999675155 ], [ 3219775.8385, 8284725.091199999675155 ], [ 3219775.8385, 8491320.091199999675155 ] ], [ [ 3395262.045240686275065, 8394572.080020826309919 ], [ 3395172.684638150036335, 8394551.953758994117379 ], [ 3395172.603474760893732, 8394552.152505241334438 ], [ 3394850.220613368786871, 8394457.949721068143845 ], [ 3394730.515395239461213, 8394308.318198408931494 ], [ 3394491.104958979878575, 8394257.015962067991495 ], [ 3394279.483234072569758, 8394224.952064353972673 ], [ 3394001.59612055728212, 8394118.072405310347676 ], [ 3393881.890902427490801, 8394120.209998492151499 ], [ 3393869.570455782115459, 8394155.802399912849069 ], [ 3393394.893001322168857, 8394585.272477757185698 ], [ 3393037.906728866975754, 8394371.080714283511043 ], [ 3392552.405398327857256, 8394025.993984244763851 ], [ 3392471.488509904593229, 8394199.727303506806493 ], [ 3392457.209059006068856, 8395199.288866382092237 ], [ 3390591.360808307304978, 8395313.524473575875163 ], [ 3389908.779927742667496, 8395396.251541309058666 ], [ 3389031.245888202916831, 8395450.612057032063603 ], [ 3388768.350910304579884, 8399702.07571629434824 ], [ 3388406.604820882901549, 8401544.124882163479924 ], [ 3388220.1692353351973, 8402869.889046050608158 ], [ 3388243.867341208737344, 8402896.997580444440246 ], [ 3387585.760717857629061, 8404651.948576048016548 ], [ 3387578.363548781722784, 8405118.539240829646587 ], [ 3387553.374509710352868, 8405731.365675210952759 ], [ 3387703.308744141831994, 8409101.316087188199162 ], [ 3378331.229137951508164, 8412911.549568524584174 ], [ 3374594.772819587495178, 8414375.193285588175058 ], [ 3373771.32448445726186, 8414675.061754450201988 ], [ 3373514.294368289876729, 8414653.642578102648258 ], [ 3373264.403977570589632, 8414556.066330295056105 ], [ 3372907.417705115396529, 8414310.935756543651223 ], [ 3372907.422626693733037, 8414310.921705082058907 ], [ 3372139.601910264696926, 8414025.329853238537908 ], [ 3372139.897219338454306, 8414043.196052195504308 ], [ 3371705.563921185210347, 8413781.406119061633945 ], [ 3371674.625110906548798, 8413670.74037460051477 ], [ 3371608.582650502212346, 8413261.991092639043927 ], [ 3371597.873062328435481, 8412982.351845882833004 ], [ 3371708.538806790020317, 8412711.637255936861038 ], [ 3371788.26574097154662, 8412564.082929987460375 ], [ 3371649.041094713844359, 8412517.67471457272768 ], [ 3371480.067592417821288, 8412440.327688872814178 ], [ 3371558.604572358075529, 8412304.672905338928103 ], [ 3371528.85571631975472, 8412283.253728991374373 ], [ 3371431.279468515422195, 8412141.649174252524972 ], [ 3371476.497729693073779, 8412033.363338273018599 ], [ 3371367.021939474157989, 8411969.105809230357409 ], [ 3371481.257546660490334, 8411663.287569163367152 ], [ 3371795.405466420575976, 8411225.384408285841346 ], [ 3371885.841988775879145, 8411134.947885930538177 ], [ 3371862.042903945781291, 8411030.231912676244974 ], [ 3371700.209127099253237, 8410925.515939423814416 ], [ 3371800.165283386595547, 8410763.682162577286363 ], [ 3371881.082171809859574, 8410787.481247406452894 ], [ 3372004.837412927765399, 8410625.647470561787486 ], [ 3372119.07302011270076, 8409978.312363177537918 ], [ 3372328.504966620355844, 8409316.697804890573025 ], [ 3371783.505924005527049, 8408636.043978743255138 ], [ 3371666.89040833665058, 8408362.354503193870187 ], [ 3371769.226473107468337, 8408252.87871297262609 ], [ 3372097.653843766078353, 8408374.25404560752213 ], [ 3372430.841031390242279, 8408205.280543314293027 ], [ 3372092.894026800524443, 8407443.709828741848469 ], [ 3371689.499538926407695, 8407640.052278591319919 ], [ 3371527.665762080345303, 8407298.535411275923252 ], [ 3371405.10047520371154, 8407324.714404590427876 ], [ 3371403.910520962439477, 8407325.904358832165599 ], [ 3371345.602763128001243, 8407378.26234545558691 ], [ 3371265.875828945077956, 8407592.45410892739892 ], [ 3370958.86763463402167, 8407678.130814315751195 ], [ 3370568.562643414828926, 8407778.08697060123086 ], [ 3370259.174540620762855, 8407863.76367599144578 ], [ 3369507.123459982220083, 8407903.032165955752134 ], [ 3369439.296068215742707, 8407997.038551036268473 ], [ 3369365.518905242905021, 8407993.468688311055303 ], [ 3368193.695343116298318, 8407270.141332970932126 ], [ 3368020.906560994219035, 8407594.36298032104969 ], [ 3368060.974199415184557, 8407634.384027352556586 ], [ 3368141.891087837982923, 8407874.754784137010574 ], [ 3368184.729440532624722, 8408124.645174855366349 ], [ 3368251.366878057364374, 8408291.238768668845296 ], [ 3368384.641753107775003, 8408388.815016474574804 ], [ 3368548.855438436381519, 8408843.377536732703447 ], [ 3367851.542252907063812, 8409045.669757790863514 ], [ 3367316.417248679790646, 8409150.162051606923342 ], [ 3367256.564639614894986, 8408964.191444870084524 ], [ 3366604.040830664802343, 8409154.194530945271254 ], [ 3366271.16355159971863, 8409027.027929954230785 ], [ 3366047.571622765623033, 8409277.710834881290793 ], [ 3365833.379859292414039, 8409302.699873948469758 ], [ 3365250.302280949428678, 8409352.677952092140913 ], [ 3365081.328778652939945, 8409434.784794757142663 ], [ 3363294.017507894895971, 8408750.561105884611607 ], [ 3361937.469672564882785, 8408794.589412819594145 ], [ 3361863.692509591113776, 8408769.6003737449646 ], [ 3360680.877993524074554, 8407508.248877735808492 ], [ 3363731.920668773818761, 8405159.279204985126853 ], [ 3364331.657606498338282, 8404711.85641017369926 ], [ 3365670.356128204613924, 8402465.222802190110087 ], [ 3365090.848412587773055, 8402130.845660327002406 ], [ 3364957.573537537828088, 8402014.23014465905726 ], [ 3364838.578113386407495, 8401826.217374498024583 ], [ 3364790.979943725280464, 8401667.9534603767097 ], [ 3364779.080401309765875, 8401667.953460378572345 ], [ 3362829.935353705193847, 8402136.795431533828378 ], [ 3362572.905237537343055, 8402186.773509679362178 ], [ 3362430.110728555358946, 8402174.873967263847589 ], [ 3362292.076036539394408, 8402117.756163669750094 ], [ 3362114.772854553069919, 8401966.631974998861551 ], [ 3361576.913537389133126, 8401138.423822900280356 ], [ 3361431.739119924139231, 8400850.454896453768015 ], [ 3361279.42497700965032, 8400271.343832246959209 ], [ 3361074.752847469877452, 8399408.230355735868216 ], [ 3360958.930634629912674, 8398259.527861258015037 ], [ 3360871.667323585599661, 8398086.58784482255578 ], [ 3360166.884417780674994, 8397350.619854688644409 ], [ 3360161.850944226142019, 8397348.346226552501321 ], [ 3360162.717948631383479, 8397346.269028497859836 ], [ 3360154.521567364688963, 8397337.709975494071841 ], [ 3360166.71673031616956, 8397336.68861404620111 ], [ 3360390.322158597409725, 8396800.967275453731418 ], [ 3360890.102940034586936, 8396924.722516572102904 ], [ 3361056.69653384713456, 8396539.177342319861054 ], [ 3361480.320243827532977, 8396420.181918170303106 ], [ 3363293.810507900081575, 8395934.680587632581592 ], [ 3363243.83242975641042, 8395584.834040625020862 ], [ 3363171.657341416459531, 8395241.421143805608153 ], [ 3363311.441524705849588, 8394860.897533738985658 ], [ 3363435.694132074248046, 8394635.689682887867093 ], [ 3363288.144160824362189, 8394107.616101572290063 ], [ 3363319.207312666345388, 8393703.795127624645829 ], [ 3363404.630980232264847, 8393439.758336966857314 ], [ 3363567.712527403142303, 8392981.576847296208143 ], [ 3363629.838831087574363, 8392173.934899399057031 ], [ 3363614.307255166117102, 8391110.021948806941509 ], [ 3363427.085382950957865, 8390529.908422661945224 ], [ 3362846.387713090050966, 8388554.584381742402911 ], [ 3360133.292042430490255, 8389516.067408889532089 ], [ 3359971.458265583962202, 8389287.596194518730044 ], [ 3359961.93863165192306, 8389163.840953400358558 ], [ 3361189.97140889801085, 8388764.016328250989318 ], [ 3360761.587881951592863, 8387178.997278552502394 ], [ 3359904.820828059222549, 8387436.027394720353186 ], [ 3359838.183390534482896, 8387188.516912484541535 ], [ 3359790.585220873821527, 8387131.399108891375363 ], [ 3359790.585220873821527, 8387121.879474959336221 ], [ 3359823.903939636424184, 8386983.844782942906022 ], [ 3360014.296618279069662, 8386603.059425657615066 ], [ 3360456.959596123546362, 8385698.694202104583383 ], [ 3360809.186051612719893, 8384994.24129112623632 ], [ 3360902.143673497252166, 8384852.696078355424106 ], [ 3361042.41708295000717, 8384694.372822263278067 ], [ 3361236.190487048123032, 8384512.684143134392798 ], [ 3361468.830232199281454, 8384335.718866907991469 ], [ 3362019.609799780417234, 8384039.451157269999385 ], [ 3362432.283637042623013, 8383928.042290725745261 ], [ 3363092.523923588450998, 8383905.453398142009974 ], [ 3363124.337905833031982, 8383281.103996592573822 ], [ 3363114.396036381367594, 8382811.847758485004306 ], [ 3362992.421725552994758, 8381767.982534472830594 ], [ 3362910.898396055679768, 8380807.597945514135063 ], [ 3362841.305309899151325, 8380531.213974778540432 ], [ 3362763.261634708382189, 8380311.250113177113235 ], [ 3362598.413011850789189, 8379932.682365349493921 ], [ 3362498.000130391214043, 8379612.55416901409626 ], [ 3362511.918747622985393, 8379288.449224896728992 ], [ 3362551.686225428711623, 8379105.518826990388334 ], [ 3362627.244433260522783, 8378932.530298535712063 ], [ 3362812.163205057382584, 8378630.297467212192714 ], [ 3363089.541362752206624, 8378400.64028288424015 ], [ 3363477.274271358270198, 8378164.023789940401912 ], [ 3362435.366352847777307, 8376915.324986839666963 ], [ 3362658.374942931812257, 8376382.542445257306099 ], [ 3362515.580433949362487, 8376173.110498750582337 ], [ 3362772.610550117213279, 8375925.600016514770687 ], [ 3361773.048987242858857, 8374573.81199815031141 ], [ 3360135.671950914897025, 8374164.467739068903029 ], [ 3359669.209888239856809, 8373840.800185375846922 ], [ 3359440.738673868589103, 8374050.232131883502007 ], [ 3358345.980771672446281, 8374564.292364218272269 ], [ 3358307.902235943824053, 8374497.654926693998277 ], [ 3358755.325030754320323, 8374002.633962222374976 ], [ 3358088.950655504595488, 8373250.582881583832204 ], [ 3358218.600662542507052, 8372982.022152719087899 ], [ 3358204.662468343041837, 8372962.508680840022862 ], [ 3357001.792594274505973, 8370924.705600062385201 ], [ 3356994.192753307521343, 8370927.792202139273286 ], [ 3356461.093253107275814, 8369985.348442858085036 ], [ 3356089.827529754023999, 8369595.043451639823616 ], [ 3355644.624082744587213, 8369369.018557008355856 ], [ 3355623.365467078983784, 8368138.539460024796426 ], [ 3355621.110557754989713, 8367800.025162238627672 ], [ 3355217.105446567758918, 8367795.749975876882672 ], [ 3355200.00470112124458, 8367423.808762401342392 ], [ 3354466.729944325052202, 8366482.123155830428004 ], [ 3354447.690676460508257, 8366006.141459222882986 ], [ 3354448.677637559361756, 8366006.100335843861103 ], [ 3354308.481552010402083, 8365342.505530909635127 ], [ 3354233.498912986833602, 8365335.007267007604241 ], [ 3353981.228613785468042, 8365377.845619703643024 ], [ 3353200.603021935094148, 8365603.214514422230422 ], [ 3353178.544321430847049, 8365512.528745681978762 ], [ 3353180.485768421087414, 8365335.85706957988441 ], [ 3353229.021943174768239, 8365165.009734448045492 ], [ 3353298.914034819696099, 8365034.932786109857261 ], [ 3353428.990983158815652, 8364792.25191234331578 ], [ 3353471.70281694130972, 8364662.174964004196227 ], [ 3353473.644263931550086, 8364662.174964004196227 ], [ 3353463.937028981279582, 8364384.548044415190816 ], [ 3353427.049536168575287, 8364225.34939122479409 ], [ 3353384.337702385149896, 8364019.556010268628597 ], [ 3353437.024725184310228, 8363822.498650909401476 ], [ 3353537.491604685783386, 8363711.343805503100157 ], [ 3353540.163596162106842, 8363594.310578851029277 ], [ 3353546.041977409273386, 8363183.892688121646643 ], [ 3353548.085269872099161, 8363183.569998348131776 ], [ 3355199.741757098119706, 8363193.089632278308272 ], [ 3355190.222123166080564, 8361089.250533275306225 ], [ 3358265.063883246853948, 8360917.897122495807707 ], [ 3360026.565699226222932, 8360729.702484035864472 ], [ 3360032.432183315046132, 8360725.019261068664491 ], [ 3361465.137090101838112, 8360558.425667256116867 ], [ 3362157.136618533637375, 8360710.096796775236726 ], [ 3362158.067329539917409, 8360704.803377927280962 ], [ 3364167.236921173520386, 8360917.897122494876385 ], [ 3365223.916287641040981, 8361241.564676187932491 ], [ 3365211.152201858349144, 8361267.486054186709225 ], [ 3366512.288084036204964, 8361894.652270776219666 ], [ 3366528.106136342510581, 8361869.860515719279647 ], [ 3367837.055802010465413, 8362450.558185580186546 ], [ 3369541.07027586363256, 8363283.526154641062021 ], [ 3369721.943320574704558, 8363778.547119111754 ], [ 3369702.904052710160613, 8363769.027485179714859 ], [ 3370540.631838738452643, 8365073.217333882115781 ], [ 3370672.022526014130563, 8365376.775128623470664 ], [ 3371459.253020321950316, 8364873.179150647483766 ], [ 3371456.896604706533253, 8364869.735158594325185 ], [ 3371433.097519877366722, 8364584.146140629425645 ], [ 3372366.021645227447152, 8362489.826675559394062 ], [ 3373260.867234848439693, 8360633.498058792203665 ], [ 3373936.76124403020367, 8360385.987576556392014 ], [ 3374298.507333451416343, 8360109.918192524462938 ], [ 3374298.578087796922773, 8360111.532678041607141 ], [ 3374307.123264556750655, 8360099.10333002731204 ], [ 3374402.319603878073394, 8359394.650419048964977 ], [ 3375813.212186268996447, 8359257.807994670234621 ], [ 3375844.257893182802945, 8359253.151138633489609 ], [ 3377124.648657055571675, 8359200.793152004480362 ], [ 3380599.31504228617996, 8359191.27351807244122 ], [ 3381898.745074023026973, 8359576.81869232468307 ], [ 3381895.263059422373772, 8359588.372649863362312 ], [ 3384570.74195110751316, 8360668.854509967379272 ], [ 3384583.281842884607613, 8360666.816777553409338 ], [ 3386877.513620529323816, 8361433.147309089079499 ], [ 3388667.20479977177456, 8362480.307041624560952 ], [ 3389247.90246963314712, 8363460.829336633905768 ], [ 3389857.159041290171444, 8363736.898720665834844 ], [ 3390523.53341653989628, 8365507.550632043741643 ], [ 3390799.602800571359694, 8365678.904042821377516 ], [ 3392341.783497577998787, 8364688.862113879062235 ], [ 3396178.195972229819745, 8361899.609371761791408 ], [ 3397796.533740693703294, 8360562.100804296322167 ], [ 3398134.480745284352452, 8360552.581170364283025 ], [ 3398581.405017631594092, 8360434.186624286696315 ], [ 3398594.741092626005411, 8360481.400992176495492 ], [ 3398627.23525197757408, 8360527.951288569718599 ], [ 3398678.453349671326578, 8360582.695875938050449 ], [ 3398292.918754621874541, 8361636.429829861037433 ], [ 3398094.891161628533155, 8361947.061348281800747 ], [ 3397972.580001248978078, 8361985.890288083814085 ], [ 3397644.4754599169828, 8361923.763984398916364 ], [ 3397460.037995854392648, 8361983.948841093108058 ], [ 3397425.091950031928718, 8362013.070545945316553 ], [ 3397454.213654884137213, 8362556.675703181885183 ], [ 3397472.994609524961561, 8363056.932040419429541 ], [ 3396987.364856460131705, 8363672.641191625967622 ], [ 3396040.161280212458223, 8364262.85849541798234 ], [ 3395830.729333705734462, 8364596.045683043077588 ], [ 3395507.061780012678355, 8364834.036531345918775 ], [ 3394840.68740476295352, 8364843.556165277957916 ], [ 3394279.029002766590565, 8365072.027379648759961 ], [ 3393960.121266040019691, 8365581.327795017510653 ], [ 3393898.243645481299609, 8366504.732286435551941 ], [ 3394143.374219234101474, 8367350.789752154611051 ], [ 3394229.050924623385072, 8367864.849984489381313 ], [ 3394210.011656759306788, 8368264.674609638750553 ], [ 3395180.293867728672922, 8368446.540509574115276 ], [ 3395359.877714316360652, 8368489.252343355678022 ], [ 3395573.436883230693638, 8368566.91022296063602 ], [ 3395826.795715442858636, 8368483.428002387285233 ], [ 3396081.125271150376648, 8368580.50035189371556 ], [ 3396188.875579102430493, 8368928.990086622536182 ], [ 3396145.678383570630103, 8369050.573204378597438 ], [ 3396214.114389973692596, 8369094.98380427621305 ], [ 3396412.141982967033982, 8369190.114706791006029 ], [ 3396611.140299454797059, 8369053.728055734187365 ], [ 3397224.637548335827887, 8369261.948245425708592 ], [ 3397197.457290474325418, 8369654.120537431910634 ], [ 3396708.212648960761726, 8370853.934777333401144 ], [ 3396549.013995769899338, 8371405.305722529999912 ], [ 3395590.358576920349151, 8373809.861375114880502 ], [ 3394840.687404764350504, 8373543.311625014990568 ], [ 3394566.997929216362536, 8373740.844029108062387 ], [ 3394838.307496282272041, 8376663.371646275743842 ], [ 3394837.727799572050571, 8376663.560934997163713 ], [ 3394972.488518552854657, 8377775.927922371774912 ], [ 3394972.772325574420393, 8377775.978862093761563 ], [ 3394996.571410404518247, 8377993.740488288924098 ], [ 3395056.069122480694205, 8378507.800720626488328 ], [ 3394882.335803219117224, 8378610.136785397306085 ], [ 3394537.158658068161458, 8378473.410773356445134 ], [ 3394350.962204652838409, 8378769.333491953089833 ], [ 3394051.747742639388889, 8379321.72942182328552 ], [ 3395160.785095733590424, 8379916.706542581319809 ], [ 3395236.94216719083488, 8380411.72750705294311 ], [ 3394913.274613498244435, 8381185.197764042764902 ], [ 3395313.099238647613674, 8381377.970351167954504 ], [ 3395491.592374875675887, 8383205.740066139027476 ], [ 3395482.072740943171084, 8383453.250548374839127 ], [ 3395472.183569182176143, 8383456.7868842035532 ], [ 3395848.506056200712919, 8387615.150365760549903 ], [ 3395880.707411852665246, 8387616.900439437478781 ], [ 3393988.680167839862406, 8391262.920235449448228 ], [ 3394781.189692690502852, 8391793.639827165752649 ], [ 3394896.280260841362178, 8391937.086042542010546 ], [ 3394568.05831349035725, 8392495.639181016013026 ], [ 3394843.990405827760696, 8392673.161925734952092 ], [ 3394732.652988420799375, 8392921.020224010571837 ], [ 3395285.567294075619429, 8393973.801706362515688 ], [ 3395262.045240686275065, 8394572.080020826309919 ] ] ] ] } }
]
}
