{
"type": "FeatureCollection",
"name": "paragliding_clubs",
"crs": { "type": "name", "properties": { "name": "urn:ogc:def:crs:EPSG::3857" } },
"features": [
{ "type": "Feature", "properties": { "name": "Щеглово", "description": "дропзона", "type": "Щеглово посёлок, 7а" }, "geometry": { "type": "Point", "coordinates": [ 3426315.742826080415398, 8405057.319988876581192 ] } },
{ "type": "Feature", "properties": { "name": "Тандем мастер", "description": "авиаклуб", "type": null }, "geometry": null },
{ "type": "Feature", "properties": { "name": "СпортАвиаСервис", "description": "авиационный клуб", "type": null }, "geometry": null },
{ "type": "Feature", "properties": { "name": "Валькирия", "description": "парашютный клуб", "type": "Щеглово посёлок, 7а" }, "geometry": { "type": "Point", "coordinates": [ 3426315.742826080415398, 8405057.319988876581192 ] } },
{ "type": "Feature", "properties": { "name": "#Небонутые", "description": "авиационная компания", "type": null }, "geometry": null },
{ "type": "Feature", "properties": { "name": "Аэронавт Санкт-Петербург", "description": null, "type": null }, "geometry": null },
{ "type": "Feature", "properties": { "name": "Флай Питер", "description": "аэроклуб", "type": null }, "geometry": null },
{ "type": "Feature", "properties": { "name": "Dream and Fly", "description": null, "type": "Авиационная улица, 15" }, "geometry": { "type": "Point", "coordinates": [ 3341361.939468721859157, 8406357.91766593977809 ] } },
{ "type": "Feature", "properties": { "name": "Skyjumper", "description": "аэроклуб", "type": "Аэродромный кольцевой проезд, 2" }, "geometry": { "type": "Point", "coordinates": [ 3341239.599348340183496, 8406803.163900004699826 ] } },
{ "type": "Feature", "properties": { "name": "Санкт-Петербургский Аэроклуб им. В.П. Чкалова", "description": "ДОСААФ России", "type": "Аэродромный кольцевой проезд, 1а" }, "geometry": { "type": "Point", "coordinates": [ 3341266.761304093524814, 8406941.77958513982594 ] } },
{ "type": "Feature", "properties": { "name": "Aerotandem", "description": null, "type": "Аэродромный кольцевой проезд, 1а" }, "geometry": { "type": "Point", "coordinates": [ 3341266.761304093524814, 8406941.77958513982594 ] } },
{ "type": "Feature", "properties": { "name": "Прыгаем-Летаем", "description": "авиаклуб", "type": null }, "geometry": { "type": "Point", "coordinates": [ 3424067.75702900160104, 8406886.065571656450629 ] } },
{ "type": "Feature", "properties": { "name": "Парацентр", "description": null, "type": "Щеглово посёлок, 7а" }, "geometry": { "type": "Point", "coordinates": [ 3426321.976717565674335, 8405046.402803564444184 ] } },
{ "type": "Feature", "properties": { "name": "Парадром «Крыло ветра»", "description": null, "type": null }, "geometry": { "type": "Point", "coordinates": [ 3361716.218494049273431, 8331261.453862641938031 ] } },
{ "type": "Feature", "properties": { "name": "Парадром парапланерного клуба «Крыло Ветра»", "description": null, "type": null }, "geometry": { "type": "Point", "coordinates": [ 3383901.434550324920565, 8437180.294019082561135 ] } },
{ "type": "Feature", "properties": { "name": "Paragliding site", "description": null, "type": null }, "geometry": { "type": "Point", "coordinates": [ 3419999.016357457730919, 8415392.67121815122664 ] } },
{ "type": "Feature", "properties": { "name": "Площадка для парафойл", "description": null, "type": null }, "geometry": { "type": "Point", "coordinates": [ 3387676.280129202175885, 8442019.112842136994004 ] } },
{ "type": "Feature", "properties": { "name": "Учебные горки парапланерного клуба «Крыло Ветра» СПб", "description": null, "type": null }, "geometry": { "type": "Point", "coordinates": [ 3386441.693417250178754, 8438593.130383791401982 ] } },
{ "type": "Feature", "properties": { "name": "Парадром \"Можайское\" Восточный старт", "description": null, "type": null }, "geometry": { "type": "Point", "coordinates": [ 3358724.89277666201815, 8332329.303979905322194 ] } },
{ "type": "Feature", "properties": { "name": "Парадром", "description": null, "type": null }, "geometry": { "type": "Point", "coordinates": [ 3365914.098816224373877, 8338859.356685188598931 ] } },
{ "type": "Feature", "properties": { "name": "Площадка авиамоделистов", "description": null, "type": null }, "geometry": { "type": "Point", "coordinates": [ 3405732.873785638716072, 8389414.105104835703969 ] } },
{ "type": "Feature", "properties": { "name": "Парапланерный старт", "description": null, "type": null }, "geometry": { "type": "Point", "coordinates": [ 3381716.326835767365992, 8426148.701962128281593 ] } }
]
}
