{
"type": "FeatureCollection",
"name": "ski_resorts",
"crs": { "type": "name", "properties": { "name": "urn:ogc:def:crs:EPSG::3857" } },
"features": [
{ "type": "Feature", "properties": { "fid": 1, "Наименование": "ОхтаПарк", "Описание": "всесезонный курорт", "Рубрики": "Горнолыжные комплексы; Тюбинговые трассы", "Адрес": "улица Людмилы Кедриной, 1 лит А ст2", "Комментарий к адресу": null, "Почтовый индекс": 188660, "Микрорайон": null, "Район": null, "Город": null, "Округ": "Всеволожский муниципальный район", "Регион": "Ленинградская область", "Страна": "Россия", "Часы работы": "Пн: 10:00-22:30; Вт: 10:00-22:30; Ср: 10:00-22:30; Чт: 10:00-22:30; Пт: 10:00-22:30; Сб: 09:00-22:30; Вс: 09:00-22:30", "Часовой пояс": "+03:00", "Рейтинг": 4.4, "Количество отзывов": 311, "Телефон 1": 88123892999, "Телефон 2": 88005005333, "Веб-сайт 1": "http://t.me/ohtapark", "Веб-сайт 2": null, "Веб-сайт 3": null, "Twitter": null, "ВКонтакте": "https://vk.com/ohtapark", "WhatsApp": null, "YouTube": "https://youtube.com/channel/UCiFjd1Wf7sp_yauZzVi3Ytw", "Широта": 60.127333, "Долгота": 30.44581, "2GIS URL": "https://2gis.com/firm/5348552841135616" }, "geometry": { "type": "Point", "coordinates": [ 3388347.24004296399653, 8428430.665032366290689 ] } },
{ "type": "Feature", "properties": { "fid": 2, "Наименование": "Лазурные озёра", "Описание": "горнолыжный курорт", "Рубрики": "Горнолыжные комплексы", "Адрес": "Манушкино деревня, 1а", "Комментарий к адресу": null, "Почтовый индекс": 188681, "Микрорайон": null, "Район": null, "Город": null, "Округ": "Всеволожский муниципальный район", "Регион": "Ленинградская область", "Страна": "Россия", "Часы работы": "Вт: 12:00-21:00; Ср: 12:00-21:00; Чт: 12:00-21:00; Пт: 12:00-21:00; Сб: 11:00-21:00; Вс: 11:00-21:00", "Часовой пояс": "+03:00", "Рейтинг": 5.0, "Количество отзывов": 1, "Телефон 1": 88129466060, "Телефон 2": 89219630348, "Веб-сайт 1": "http://lazoorsnow.ru", "Веб-сайт 2": null, "Веб-сайт 3": null, "Twitter": null, "ВКонтакте": "https://vk.com/lazurnyi_spb", "WhatsApp": null, "YouTube": null, "Широта": 59.873324, "Долгота": 30.8088, "2GIS URL": "https://2gis.com/firm/70000001040735162" }, "geometry": { "type": "Point", "coordinates": [ 3429619.927951807156205, 8371588.714367590844631 ] } },
{ "type": "Feature", "properties": { "fid": 3, "Наименование": "Юкки", "Описание": "спортивный комплекс", "Рубрики": "Горнолыжные комплексы", "Адрес": "Ленинградское шоссе, 90", "Комментарий к адресу": null, "Почтовый индекс": 188652, "Микрорайон": null, "Район": null, "Город": null, "Округ": "Всеволожский муниципальный район", "Регион": "Ленинградская область", "Страна": "Россия", "Часы работы": "Вт: 10:00-21:00; Ср: 10:00-21:00; Чт: 10:00-21:00; Пт: 10:00-21:00; Сб: 10:00-21:00; Вс: 10:00-21:00 (администрация: пн-пт 9:00-18:00)", "Часовой пояс": "+03:00", "Рейтинг": 3.8, "Количество отзывов": 17, "Телефон 1": 88124954570, "Телефон 2": null, "Веб-сайт 1": "http://stc.lenobl.ru", "Веб-сайт 2": "http://t.me/gaulostc", "Веб-сайт 3": null, "Twitter": null, "ВКонтакте": "https://vk.com/skyukki", "WhatsApp": "https://wa.me/79319904979", "YouTube": null, "Широта": 60.109183, "Долгота": 30.312895, "2GIS URL": "https://2gis.com/firm/5348553838626015" }, "geometry": { "type": "Point", "coordinates": [ 3374416.035869968589395, 8424086.501159025356174 ] } },
{ "type": "Feature", "properties": { "fid": 4, "Наименование": "Туутари-парк", "Описание": "центр активного отдыха", "Рубрики": "Горнолыжные комплексы; Тюбинговые трассы; Лыжные базы", "Адрес": "территория Туутари парк, 1 ст1", "Комментарий к адресу": null, "Почтовый индекс": 188510, "Микрорайон": null, "Район": null, "Город": null, "Округ": "Ломоносовский муниципальный район", "Регион": "Ленинградская область", "Страна": "Россия", "Часы работы": "Пн: 10:00-21:00; Вт: 10:00-21:00; Ср: 10:00-21:00; Чт: 10:00-21:00; Пт: 10:00-21:00; Сб: 10:00-21:00; Вс: 10:00-21:00", "Часовой пояс": "+03:00", "Рейтинг": 4.1, "Количество отзывов": 32, "Телефон 1": 88125000515, "Телефон 2": null, "Веб-сайт 1": "http://tyytari.ru", "Веб-сайт 2": "http://2-park.ru", "Веб-сайт 3": "http://t.me/tuutaripark", "Twitter": null, "ВКонтакте": "https://vk.com/tyytari_activity", "WhatsApp": null, "YouTube": null, "Широта": 59.693522, "Долгота": 30.178159, "2GIS URL": "https://2gis.com/firm/5348553838535217" }, "geometry": { "type": "Point", "coordinates": [ 3358700.694783612620085, 8332017.425865944474936 ] } },
{ "type": "Feature", "properties": { "fid": 5, "Наименование": "Северный склон", "Описание": "горнолыжный комплекс", "Рубрики": "Горнолыжные комплексы; Тюбинговые трассы", "Адрес": "Офицерская улица, 17Б к2", "Комментарий к адресу": null, "Почтовый индекс": 188664, "Микрорайон": null, "Район": null, "Город": null, "Округ": "Всеволожский муниципальный район", "Регион": "Ленинградская область", "Страна": "Россия", "Часы работы": "Пн: 09:00-22:00; Вт: 09:00-22:00; Ср: 09:00-22:00; Чт: 09:00-22:00; Пт: 09:00-22:00; Сб: 09:00-22:00; Вс: 09:00-22:00", "Часовой пояс": "+03:00", "Рейтинг": 1.9, "Количество отзывов": 3, "Телефон 1": 88129248181, "Телефон 2": 89119248181, "Веб-сайт 1": "http://sevsklon.com", "Веб-сайт 2": "http://t.me/sev_sklon", "Веб-сайт 3": null, "Twitter": null, "ВКонтакте": "https://vk.com/ssklon", "WhatsApp": "https://wa.me/79119248181", "YouTube": null, "Широта": 60.155435, "Долгота": 30.549806, "2GIS URL": "https://2gis.com/firm/70000001094672890" }, "geometry": { "type": "Point", "coordinates": [ 3400788.847753293346614, 8434425.381255306303501 ] } },
{ "type": "Feature", "properties": { "fid": 7, "Наименование": "Лыжная база Трамплин", "Описание": null, "Рубрики": null, "Адрес": null, "Комментарий к адресу": null, "Почтовый индекс": null, "Микрорайон": null, "Район": null, "Город": null, "Округ": null, "Регион": null, "Страна": null, "Часы работы": null, "Часовой пояс": null, "Рейтинг": null, "Количество отзывов": null, "Телефон 1": null, "Телефон 2": null, "Веб-сайт 1": null, "Веб-сайт 2": null, "Веб-сайт 3": null, "Twitter": null, "ВКонтакте": null, "WhatsApp": null, "YouTube": null, "Широта": null, "Долгота": null, "2GIS URL": null }, "geometry": { "type": "Point", "coordinates": [ 3375573.273420351557434, 8424725.090330524370074 ] } },
{ "type": "Feature", "properties": { "fid": 8, "Наименование": "Пухтолова гора", "Описание": null, "Рубрики": null, "Адрес": null, "Комментарий к адресу": null, "Почтовый индекс": null, "Микрорайон": null, "Район": null, "Город": null, "Округ": null, "Регион": null, "Страна": null, "Часы работы": null, "Часовой пояс": null, "Рейтинг": null, "Количество отзывов": null, "Телефон 1": null, "Телефон 2": null, "Веб-сайт 1": null, "Веб-сайт 2": null, "Веб-сайт 3": null, "Twitter": null, "ВКонтакте": null, "WhatsApp": null, "YouTube": null, "Широта": null, "Долгота": null, "2GIS URL": null }, "geometry": { "type": "Point", "coordinates": [ 3304093.867102348711342, 8451165.177731683477759 ] } },
{ "type": "Feature", "properties": { "fid": 1, "Наименование": null, "Описание": null, "Рубрики": null, "Адрес": null, "Комментарий к адресу": null, "Почтовый индекс": null, "Микрорайон": null, "Район": null, "Город": null, "Округ": null, "Регион": null, "Страна": null, "Часы работы": null, "Часовой пояс": null, "Рейтинг": null, "Количество отзывов": null, "Телефон 1": null, "Телефон 2": null, "Веб-сайт 1": null, "Веб-сайт 2": null, "Веб-сайт 3": null, "Twitter": null, "ВКонтакте": null, "WhatsApp": null, "YouTube": null, "Широта": null, "Долгота": null, "2GIS URL": null }, "geometry": null }
]
}
