{
"type": "FeatureCollection",
"name": "возвышенность",
"crs": { "type": "name", "properties": { "name": "urn:ogc:def:crs:EPSG::3857" } },
"xy_coordinate_resolution": 1e-15,
"features": [
{ "type": "Feature", "properties": { "fid": 1, "type": "возвышенность", "name": "Орлиная", "fact": "97.96", "description ": "97.96 метров" }, "geometry": { "type": "Point", "coordinates": [ 3400293.331728257704526, 8433989.27087682671845 ] } },
{ "type": "Feature", "properties": { "fid": 2, "type": "возвышенность", "name": "Красная горка", "fact": "70.98", "description ": "70.98 метров" }, "geometry": { "type": "Point", "coordinates": [ 3413282.777921732515097, 8389821.747495697811246 ] } },
{ "type": "Feature", "properties": { "fid": 5, "type": "возвышенность", "name": "Останец Красная горка", "fact": "13.85", "description ": "13.85 метров" }, "geometry": { "type": "Point", "coordinates": [ 3428190.36305103963241, 8328164.900190986692905 ] } },
{ "type": "Feature", "properties": { "fid": 7, "type": "возвышенность", "name": " Адольфа", "fact": "44.76", "description ": "44.76 метров" }, "geometry": { "type": "Point", "coordinates": [ 3371752.494413758162409, 8418093.066567707806826 ] } },
{ "type": "Feature", "properties": { "fid": 11, "type": "возвышенность", "name": "Ласточкина ", "fact": "15.29", "description ": "15.29 метров" }, "geometry": { "type": "Point", "coordinates": [ 3427172.680266208015382, 8326668.37035530526191 ] } },
{ "type": "Feature", "properties": { "fid": 14, "type": "возвышенность", "name": "Святая (Керина) ", "fact": "52.98", "description ": "52.98 метров" }, "geometry": { "type": "Point", "coordinates": [ 3374389.430511669255793, 8437042.806680781766772 ] } },
{ "type": "Feature", "properties": { "fid": 23, "type": "возвышенность", "name": "Серенада", "fact": "53.28", "description ": "53.28 метров" }, "geometry": { "type": "Point", "coordinates": [ 3311683.829264762811363, 8446549.352084748446941 ] } },
{ "type": "Feature", "properties": { "fid": 24, "type": "возвышенность", "name": "Брусничная", "fact": "51.74", "description ": "51.74 метров" }, "geometry": { "type": "Point", "coordinates": [ 3313531.064894986338913, 8445799.237148854881525 ] } },
{ "type": "Feature", "properties": { "fid": 27, "type": "возвышенность", "name": "Поклонная", "fact": "34.83", "description ": "34.83 метров" }, "geometry": { "type": "Point", "coordinates": [ 3375315.68674041563645, 8406580.473362868651748 ] } },
{ "type": "Feature", "properties": { "fid": 29, "type": "возвышенность", "name": "Высокая", "fact": "88.5", "description ": "88.50 метров" }, "geometry": { "type": "Point", "coordinates": [ 3311635.182647285982966, 8464539.410029601305723 ] } },
{ "type": "Feature", "properties": { "fid": 32, "type": "возвышенность", "name": "Ненаглядная", "fact": "68.5", "description ": "68.50 метров" }, "geometry": { "type": "Point", "coordinates": [ 3395731.046689101029187, 8430576.444924123585224 ] } },
{ "type": "Feature", "properties": { "fid": 42, "type": "возвышенность", "name": "Большеижорская", "fact": "17.72", "description ": "17.72 метров" }, "geometry": { "type": "Point", "coordinates": [ 3290490.673869893420488, 8386706.482396326027811 ] } },
{ "type": "Feature", "properties": { "fid": 46, "type": "возвышенность", "name": "Лазурка", "fact": "62.07", "description ": "62.07 метров" }, "geometry": { "type": "Point", "coordinates": [ 3429679.662389704026282, 8371378.571938242763281 ] } },
{ "type": "Feature", "properties": { "fid": 47, "type": "возвышенность", "name": "Катальная горка", "fact": "21.09", "description ": "21.09 метров" }, "geometry": { "type": "Point", "coordinates": [ 3311132.944129280280322, 8381142.146107500419021 ] } },
{ "type": "Feature", "properties": { "fid": 52, "type": "возвышенность", "name": "Бронная", "fact": "65.46", "description ": "65.46 метров" }, "geometry": { "type": "Point", "coordinates": [ 3298233.555991838686168, 8381817.409882353618741 ] } },
{ "type": "Feature", "properties": { "fid": 54, "type": "возвышенность", "name": "Пухтолова", "fact": "83.48", "description ": "83.48 метров" }, "geometry": { "type": "Point", "coordinates": [ 3303900.370468496810645, 8451094.24790839292109 ] } },
{ "type": "Feature", "properties": { "fid": 55, "type": "возвышенность", "name": "Аннинские высоты", "fact": "100.14", "description ": "100.14 метров" }, "geometry": { "type": "Point", "coordinates": [ 3344454.95151421520859, 8345040.06626979727298 ] } },
{ "type": "Feature", "properties": { "fid": 57, "type": "возвышенность", "name": "Кудыкина", "fact": "42.52", "description ": "42.52 метров" }, "geometry": { "type": "Point", "coordinates": [ 3352200.242879632394761, 8437218.39286945015192 ] } },
{ "type": "Feature", "properties": { "fid": 59, "type": "возвышенность", "name": "Чертова ", "fact": "45.62", "description ": "45.62 метров" }, "geometry": { "type": "Point", "coordinates": [ 3373746.914766749367118, 8423564.646317759528756 ] } },
{ "type": "Feature", "properties": { "fid": 64, "type": "возвышенность", "name": " Решетниковская (Кулёмяки)", "fact": "62.65", "description ": "62.65 метров" }, "geometry": { "type": "Point", "coordinates": [ 3308141.792163447942585, 8453396.398083940148354 ] } },
{ "type": "Feature", "properties": { "fid": 68, "type": "возвышенность", "name": "Кузьмоловские горы", "fact": "35.43", "description ": "35.43 метров" }, "geometry": { "type": "Point", "coordinates": [ 3394939.65372067084536, 8426179.773173255845904 ] } },
{ "type": "Feature", "properties": { "fid": 70, "type": "возвышенность", "name": "Гумбург-гора", "fact": "66.11", "description ": "66.11 метров" }, "geometry": { "type": "Point", "coordinates": [ 3416753.582345716189593, 8378899.857699070125818 ] } },
{ "type": "Feature", "properties": { "fid": 72, "type": "возвышенность", "name": "Мистоловские холмы", "fact": "82.4", "description ": "82.40 метров" }, "geometry": { "type": "Point", "coordinates": [ 3386652.083005475345999, 8426264.694698473438621 ] } },
{ "type": "Feature", "properties": { "fid": 75, "type": "возвышенность", "name": "Корабсельская", "fact": "68.3", "description ": "68.30 метров" }, "geometry": { "type": "Point", "coordinates": [ 3385559.545031685847789, 8422774.695094119757414 ] } },
{ "type": "Feature", "properties": { "fid": 81, "type": "возвышенность", "name": "Комендантская ", "fact": "106.49", "description ": "106.49 метров" }, "geometry": { "type": "Point", "coordinates": [ 3397981.073355755768716, 8434935.391570560634136 ] } },
{ "type": "Feature", "properties": { "fid": 90, "type": "возвышенность", "name": "Глиняная горка", "fact": "52.23", "description ": "52.23 метров" }, "geometry": { "type": "Point", "coordinates": [ 3371160.052083756309003, 8351422.529224545694888 ] } },
{ "type": "Feature", "properties": { "fid": 92, "type": "возвышенность", "name": "Сухая", "fact": "77.77", "description ": "77.77 метров" }, "geometry": { "type": "Point", "coordinates": [ 3309710.21261664154008, 8471693.875500150024891 ] } },
{ "type": "Feature", "properties": { "fid": 94, "type": "возвышенность", "name": "Офицерская", "fact": "110.22", "description ": "110.22 метров" }, "geometry": { "type": "Point", "coordinates": [ 3356410.553512119688094, 8343114.418480092659593 ] } },
{ "type": "Feature", "properties": { "fid": 102, "type": "возвышенность", "name": "Райволовская гряда (Райволанселька)", "fact": "88.62", "description ": "88.62 метров" }, "geometry": { "type": "Point", "coordinates": [ 3297384.565210666041821, 8454093.756792344152927 ] } },
{ "type": "Feature", "properties": { "fid": 124, "type": "возвышенность", "name": "Ногелайсен-Мяки", "fact": "92.54", "description ": "92.54 метров" }, "geometry": { "type": "Point", "coordinates": [ 3411653.254089692141861, 8439255.244946366176009 ] } },
{ "type": "Feature", "properties": { "fid": 158, "type": "возвышенность", "name": "Пудомяги", "fact": "66.21", "description ": "66.21 метров" }, "geometry": { "type": "Point", "coordinates": [ 3376579.832403003238142, 8312357.749210133217275 ] } },
{ "type": "Feature", "properties": { "fid": 159, "type": "возвышенность", "name": "Саарселькя", "fact": "76.23", "description ": "76.23 метров" }, "geometry": { "type": "Point", "coordinates": [ 3367674.484667833894491, 8443277.092530805617571 ] } },
{ "type": "Feature", "properties": { "fid": 166, "type": "возвышенность", "name": "Райволанселькя", "fact": "83.01", "description ": "83.01 метров" }, "geometry": { "type": "Point", "coordinates": [ 3295911.777672264259309, 8455385.457952866330743 ] } },
{ "type": "Feature", "properties": { "fid": 174, "type": "возвышенность", "name": "Сеппясенмяки", "fact": "72.62", "description ": "72.62 метров" }, "geometry": { "type": "Point", "coordinates": [ 3309791.64017691463232, 8470173.823914645239711 ] } },
{ "type": "Feature", "properties": { "fid": 198, "type": "возвышенность", "name": "Косая гора (Вяярямяки)", "fact": "18.34", "description ": "18.34 метров" }, "geometry": { "type": "Point", "coordinates": [ 3396960.644689799286425, 8380072.953577203676105 ] } },
{ "type": "Feature", "properties": { "fid": 228, "type": "возвышенность", "name": "Кавголовские холмы", "fact": "85.25", "description ": "85.25 метров" }, "geometry": { "type": "Point", "coordinates": [ 3387854.29133579088375, 8442135.397011021152139 ] } },
{ "type": "Feature", "properties": { "fid": 232, "type": "возвышенность", "name": "Парапланерный старт ", "fact": "72.41", "description ": "72.41 метров" }, "geometry": { "type": "Point", "coordinates": [ 3381818.503357085864991, 8426383.152910023927689 ] } },
{ "type": "Feature", "properties": { "fid": 235, "type": "возвышенность", "name": "Скотные горы", "fact": "30.98", "description ": "30.98 метров" }, "geometry": { "type": "Point", "coordinates": [ 3374382.221891514025629, 8416860.00190694630146 ] } },
{ "type": "Feature", "properties": { "fid": 240, "type": "возвышенность", "name": "Высота Родниковая", "fact": "74.43", "description ": "74.43 метров" }, "geometry": { "type": "Point", "coordinates": [ 3313875.806954002939165, 8368840.829806484282017 ] } },
{ "type": "Feature", "properties": { "fid": 241, "type": "возвышенность", "name": "Солнечная", "fact": "14.1", "description ": "14.10 метров" }, "geometry": { "type": "Point", "coordinates": [ 3337645.9307, 8430375.942251570522785 ] } },
{ "type": "Feature", "properties": { "fid": 242, "type": "возвышенность", "name": null, "fact": "24.7", "description ": "24.70 метров" }, "geometry": { "type": "Point", "coordinates": [ 3286866.929217943456024, 8445908.022965496405959 ] } }
]
}
