{
"type": "FeatureCollection",
"name": "гора",
"crs": { "type": "name", "properties": { "name": "urn:ogc:def:crs:EPSG::3857" } },
"xy_coordinate_resolution": 1e-15,
"features": [
{ "type": "Feature", "properties": { "fid": 3, "type": "гора", "name": "Вершина кама", "fact": "64.13", "description ": "64.13 метров" }, "geometry": { "type": "Point", "coordinates": [ 3411336.177698475308716, 8391013.506475130096078 ] } },
{ "type": "Feature", "properties": { "fid": 4, "type": "гора", "name": "Румболовская", "fact": "61.25", "description ": "61.25 метров" }, "geometry": { "type": "Point", "coordinates": [ 3411002.967631030362099, 8407878.060941837728024 ] } },
{ "type": "Feature", "properties": { "fid": 9, "type": "гора", "name": "Колтушская возвышенность ", "fact": "52.75", "description ": "52.75 метров" }, "geometry": { "type": "Point", "coordinates": [ 3409743.498912195209414, 8390999.37466499209404 ] } },
{ "type": "Feature", "properties": { "fid": 13, "type": "гора", "name": "Кирхгоф", "fact": "169.03", "description ": "169.03 метров" }, "geometry": { "type": "Point", "coordinates": [ 3358611.785123065579683, 8332080.284042225219309 ] } },
{ "type": "Feature", "properties": { "fid": 18, "type": "гора", "name": "Воронья", "fact": "143.99", "description ": "143.99 метров" }, "geometry": { "type": "Point", "coordinates": [ 3353735.768787338864058, 8333786.207983667030931 ] } },
{ "type": "Feature", "properties": { "fid": 19, "type": "гора", "name": "Ореховая", "fact": "169", "description ": "169.00 метров" }, "geometry": { "type": "Point", "coordinates": [ 3354353.925919714383781, 8332643.954337402246892 ] } },
{ "type": "Feature", "properties": { "fid": 30, "type": "гора", "name": "Рощинская", "fact": "60.55", "description ": "60.55 метров" }, "geometry": { "type": "Point", "coordinates": [ 3294304.29640364414081, 8461989.861497631296515 ] } },
{ "type": "Feature", "properties": { "fid": 33, "type": "гора", "name": "Осельская", "fact": "139.66", "description ": "139.66 метров" }, "geometry": { "type": "Point", "coordinates": [ 3389113.102961441036314, 8453162.996482128277421 ] } },
{ "type": "Feature", "properties": { "fid": 34, "type": "гора", "name": "Малиновая ", "fact": "76.45", "description ": "76.45 метров" }, "geometry": { "type": "Point", "coordinates": [ 3392928.133230417966843, 8437494.389464773237705 ] } },
{ "type": "Feature", "properties": { "fid": 35, "type": "гора", "name": "Троицкая", "fact": "53.72", "description ": "53.72 метров" }, "geometry": { "type": "Point", "coordinates": [ 3321997.802725741174072, 8370189.57274666428566 ] } },
{ "type": "Feature", "properties": { "fid": 36, "type": "гора", "name": "Токсовские высоты", "fact": "81.29", "description ": "81.29 метров" }, "geometry": { "type": "Point", "coordinates": [ 3398256.218018255662173, 8436895.343384625390172 ] } },
{ "type": "Feature", "properties": { "fid": 37, "type": "гора", "name": "Старый Парнас", "fact": "49.44", "description ": "49.44 метров" }, "geometry": { "type": "Point", "coordinates": [ 3373156.789790115319192, 8416643.336080268025398 ] } },
{ "type": "Feature", "properties": { "fid": 38, "type": "гора", "name": "Ропшинские высоты", "fact": "132.76", "description ": "132.76 метров" }, "geometry": { "type": "Point", "coordinates": [ 3319539.852284909691662, 8341012.767982835881412 ] } },
{ "type": "Feature", "properties": { "fid": 39, "type": "гора", "name": "Сторожевая ", "fact": "69.89", "description ": "69.89 метров" }, "geometry": { "type": "Point", "coordinates": [ 3376984.527049736119807, 8438412.876417882740498 ] } },
{ "type": "Feature", "properties": { "fid": 40, "type": "гора", "name": "Юковская камовая гряда", "fact": "74.56", "description ": "74.56 метров" }, "geometry": { "type": "Point", "coordinates": [ 3374114.585338240023702, 8424330.7019556555897 ] } },
{ "type": "Feature", "properties": { "fid": 41, "type": "гора", "name": "Каллеловские высоты", "fact": "109.92", "description ": "109.92 метров" }, "geometry": { "type": "Point", "coordinates": [ 3337578.832304431125522, 8456743.388890899717808 ] } },
{ "type": "Feature", "properties": { "fid": 44, "type": "гора", "name": "Смерть", "fact": "16.63", "description ": "16.63 метров" }, "geometry": { "type": "Point", "coordinates": [ 3291811.63036580150947, 8444351.42711815983057 ] } },
{ "type": "Feature", "properties": { "fid": 49, "type": "гора", "name": "Бабигонские высоты", "fact": "54.54", "description ": "54.54 метров" }, "geometry": { "type": "Point", "coordinates": [ 3326096.049364946316928, 8366076.363777339458466 ] } },
{ "type": "Feature", "properties": { "fid": 50, "type": "гора", "name": "Колтушская возвышенность ", "fact": "48.51", "description ": "48.51 метров" }, "geometry": { "type": "Point", "coordinates": [ 3408116.644438108429313, 8385676.001874478533864 ] } },
{ "type": "Feature", "properties": { "fid": 51, "type": "гора", "name": "Пулковские высоты ", "fact": "57.21", "description ": "57.21 метров" }, "geometry": { "type": "Point", "coordinates": [ 3376658.567011998966336, 8348966.680800407193601 ] } },
{ "type": "Feature", "properties": { "fid": 53, "type": "гора", "name": "Дудергофские высоты", "fact": "109.21", "description ": "109.21 метров" }, "geometry": { "type": "Point", "coordinates": [ 3359637.693180417641997, 8334946.430331478826702 ] } },
{ "type": "Feature", "properties": { "fid": 56, "type": "гора", "name": "Лемболовская возвышенность", "fact": "94.51", "description ": "94.51 метров" }, "geometry": { "type": "Point", "coordinates": [ 3355075.928537284955382, 8449325.800970051437616 ] } },
{ "type": "Feature", "properties": { "fid": 61, "type": "гора", "name": "Старая крепость (Линнамяки)", "fact": "119.16", "description ": "119.16 метров" }, "geometry": { "type": "Point", "coordinates": [ 3312487.413273735437542, 8479527.599895473569632 ] } },
{ "type": "Feature", "properties": { "fid": 62, "type": "гора", "name": "Лысая", "fact": "66.73", "description ": "66.73 метров" }, "geometry": { "type": "Point", "coordinates": [ 3418686.496623326092958, 8390256.197627583518624 ] } },
{ "type": "Feature", "properties": { "fid": 66, "type": "гора", "name": "Дедова ", "fact": "105.38", "description ": "105.38 метров" }, "geometry": { "type": "Point", "coordinates": [ 3273865.362054636701941, 8346566.337546117603779 ] } },
{ "type": "Feature", "properties": { "fid": 73, "type": "гора", "name": "Охтинские высоты", "fact": "80.35", "description ": "80.35 метров" }, "geometry": { "type": "Point", "coordinates": [ 3388520.783300869632512, 8428156.586243389174342 ] } },
{ "type": "Feature", "properties": { "fid": 74, "type": "гора", "name": "Белоостровская высота", "fact": "54.91", "description ": "54.91 метров" }, "geometry": { "type": "Point", "coordinates": [ 3343370.490108650177717, 8441986.409638177603483 ] } },
{ "type": "Feature", "properties": { "fid": 78, "type": "гора", "name": "Каменная ", "fact": "45.08", "description ": "45.08 метров" }, "geometry": { "type": "Point", "coordinates": [ 3296839.324387351516634, 8448923.027762314304709 ] } },
{ "type": "Feature", "properties": { "fid": 93, "type": "гора", "name": "Трифонова горка", "fact": "69.81", "description ": "69.81 метров" }, "geometry": { "type": "Point", "coordinates": [ 3384403.43134080665186, 8335708.183009842410684 ] } },
{ "type": "Feature", "properties": { "fid": 95, "type": "гора", "name": "Лебяжья ", "fact": "95.27", "description ": "95.27 метров" }, "geometry": { "type": "Point", "coordinates": [ 3291582.657305188942701, 8470836.429963773116469 ] } },
{ "type": "Feature", "properties": { "fid": 97, "type": "гора", "name": "Бугры", "fact": "35.52", "description ": "35.52 метров" }, "geometry": { "type": "Point", "coordinates": [ 3383533.635758657939732, 8415492.374155083671212 ] } },
{ "type": "Feature", "properties": { "fid": 99, "type": "гора", "name": "Копорская", "fact": "125.11", "description ": "125.11 метров" }, "geometry": { "type": "Point", "coordinates": [ 3336772.492523089982569, 8342635.82610603608191 ] } },
{ "type": "Feature", "properties": { "fid": 104, "type": "гора", "name": "Недоступная", "fact": "76.95", "description ": "76.95 метров" }, "geometry": { "type": "Point", "coordinates": [ 3267936.934805653989315, 8476902.801285341382027 ] } },
{ "type": "Feature", "properties": { "fid": 135, "type": "гора", "name": "Хумоземяки", "fact": "94.06", "description ": "94.06 метров" }, "geometry": { "type": "Point", "coordinates": [ 3404757.129390466026962, 8454532.391758721321821 ] } },
{ "type": "Feature", "properties": { "fid": 172, "type": "гора", "name": "Куутерселька", "fact": "95.47", "description ": "95.47 метров" }, "geometry": { "type": "Point", "coordinates": [ 3291709.76226630108431, 8470807.74823765642941 ] } },
{ "type": "Feature", "properties": { "fid": 183, "type": "гора", "name": "Волчьи горы", "fact": "68.04", "description ": "68.04 метров" }, "geometry": { "type": "Point", "coordinates": [ 3419332.814495298545808, 8417269.05897113494575 ] } },
{ "type": "Feature", "properties": { "fid": 191, "type": "гора", "name": "Симагинские высоты", "fact": "84.89", "description ": "84.89 метров" }, "geometry": { "type": "Point", "coordinates": [ 3323338.091400856617838, 8459938.096229515969753 ] } },
{ "type": "Feature", "properties": { "fid": 230, "type": "гора", "name": "Змеиная ", "fact": "63.72", "description ": "63.72 метров" }, "geometry": { "type": "Point", "coordinates": [ 3373437.017207699362189, 8426339.905117064714432 ] } },
{ "type": "Feature", "properties": { "fid": 231, "type": "гора", "name": "Безымянная", "fact": "69.1", "description ": "69.10 метров" }, "geometry": { "type": "Point", "coordinates": [ 3375405.900699680671096, 8423846.280300000682473 ] } }
]
}
