{
"type": "FeatureCollection",
"name": "Мыза",
"crs": { "type": "name", "properties": { "name": "urn:ogc:def:crs:EPSG::3857" } },
"xy_coordinate_resolution": 1e-15,
"features": [
{ "type": "Feature", "properties": { "name": "Мыза Нагорное (Трофимовича)", "type_2": "Нет", "fact": "Нет данных", "type": "Мыза", "type_3": "2", "description": "Усадьба Мыза в Тосненском районе возникла в конце XVIII века как владение генерала Фридриха Буксгевдена. В середине XIX века ее владельцем стал Евгений Вонлярлярский, при котором были построены каменный усадебный дом и церковь Смоленской иконы Божией Матери. Храм, возведенный по проекту архитектора Бориса Гейденрейха, сохранился и действует до сих пор, тогда как исторический усадебный дом не пережил XX век: обветшавшее здание было снесено и заменено современной копией. Сегодня усадьба интересна прежде всего как пример дворянского имения, тесно связанного с благотворительной деятельностью своих владельцев и историей Смоленского храма.", "id": 2 }, "geometry": { "type": "Point", "coordinates": [ 3303833.76498186821118, 8380365.471349244937301 ] } },
{ "type": "Feature", "properties": { "name": "Мыза Койрово графа Орлова", "type_2": "Нет", "fact": "Дворянство", "type": "Мыза", "type_3": "2", "description": "Мыза Койрово — усадьба графа Алексей Орлов. Загородное имение с парком и хозяйственными постройками.", "id": 33 }, "geometry": { "type": "Point", "coordinates": [ 3365309.079750283621252, 8351714.056391508318484 ] } },
{ "type": "Feature", "properties": { "name": "Мыза \"Парголово\" большой дворец графов Воронцовых-Дашковых", "type_2": "Да", "fact": "Дворянство", "type": "Мыза", "type_3": "2", "description": "Парголово (усадьба Воронцовых-Дашковых) — крупная мыза с дворцом и парком. Связана с графами Воронцовыми-Дашковыми, важный усадебный ансамбль северных окрестностей Петербурга.", "id": 34 }, "geometry": { "type": "Point", "coordinates": [ 3372867.763999804388732, 8416986.135049602016807 ] } },
{ "type": "Feature", "properties": { "name": "Мыза \"Бугры\" купца Генриха Загамеля", "type_2": "Нет", "fact": "Купечество", "type": "Мыза", "type_3": "2", "description": "Мыза Бугры — купеческая усадьба Генриха Загамеля. Сельское имение с хозяйственными постройками и жилым домом.", "id": 35 }, "geometry": { "type": "Point", "coordinates": [ 3382942.783062441740185, 8414722.268495757132769 ] } },
{ "type": "Feature", "properties": { "name": "Мыза \"Рябово\" камергера Всеволода Всеволожского", "type_2": "Нет", "fact": "Чиновники", "type": "Мыза", "type_3": "2", "description": "Рябово (усадьба Всеволожских) — мыза камергера Всеволод Всеволожский. Родовое имение с парком, давшее название району Всеволожск.", "id": 44 }, "geometry": { "type": "Point", "coordinates": [ 3410863.550100224558264, 8408231.906551253050566 ] } },
{ "type": "Feature", "properties": { "name": "Мыза Зеленая графа Ягужинского (усадьба Чоглоковых)", "type_2": "Нет", "fact": "Дворянство", "type": "Мыза", "type_3": "2", "description": "Мыза Зелёная (Отрада) — усадьба графа Пётр Ягужинский, позже связанная с Чоглоковыми. Пейзажное имение с парком.", "id": 45 }, "geometry": { "type": "Point", "coordinates": [ 3413039.829299843404442, 8384852.602687918581069 ] } },
{ "type": "Feature", "properties": { "name": "Мыза президента Академии художеств А. Н. Оленина \"Приютино\"", "type_2": "Да", "fact": null, "type": "Мыза", "type_3": "2", "description": "Приютино — усадьба президента Академии художеств Алексей Оленин. Культурный центр начала XIX века, посещаемый Пушкиным и Гнедичем.", "id": 48 }, "geometry": { "type": "Point", "coordinates": [ 3404152.627912771888077, 8402512.105724273249507 ] } },
{ "type": "Feature", "properties": { "name": "Мыза Михайловка", "type_2": "Нет", "fact": null, "type": "Мыза", "type_3": "2", "description": "Михайловка — великокняжеская резиденция Романовых. Дворцово-парковый ансамбль XIX века с живописным расположением у Финского залива.", "id": 76 }, "geometry": { "type": "Point", "coordinates": [ 3420493.709338369779289, 8376610.889359075576067 ] } }
]
}
