{
"type": "FeatureCollection",
"name": "Особняк",
"crs": { "type": "name", "properties": { "name": "urn:ogc:def:crs:EPSG::3857" } },
"xy_coordinate_resolution": 1e-15,
"features": [
{ "type": "Feature", "properties": { "name": "Особняк Забелина", "type_2": null, "fact": null, "type": "Особняк", "type_3": "3", "description": "Усадьба Забелина — городской особняк XIX века, связанный с семьёй Забелиных. Представляет собой образец доходно-дворянской архитектуры, сочетает жилые и представительские функции, частично сохранился.", "id": 124 }, "geometry": { "type": "Point", "coordinates": [ 3318111.956562696956098, 8440641.861530225723982 ] } },
{ "type": "Feature", "properties": { "name": "Особняк Н.Я.Андреева", "type_2": null, "fact": null, "type": "Особняк", "type_3": "3", "description": "Усадьба Н. Я. Андреева — особняк конца XIX века, принадлежавший Н. Я. Андрееву. Характерен эклектичной архитектурой и богатым декором фасадов, отражает вкусы петербургской буржуазии.", "id": 127 }, "geometry": { "type": "Point", "coordinates": [ 3318394.978676698636264, 8440250.104490654543042 ] } },
{ "type": "Feature", "properties": { "name": "Особняк Сандина", "type_2": null, "fact": null, "type": "Особняк", "type_3": "3", "description": "Усадьба Сандина — городская усадьба купеческого типа. Использовалась как жилой дом с представительскими залами, типичный пример частной застройки Петербурга конца XIX века.", "id": 147 }, "geometry": { "type": "Point", "coordinates": [ 3318464.174928485881537, 8440496.990427227690816 ] } },
{ "type": "Feature", "properties": { "name": "Особняк Байковой", "type_2": null, "fact": null, "type": "Особняк", "type_3": "3", "description": "Особняк Байковой — особняк начала XX века, принадлежавший семье Байковых. Отличается декоративной архитектурой модерна и сохранившимися элементами интерьеров.", "id": 165 }, "geometry": { "type": "Point", "coordinates": [ 3317648.516824600752443, 8440779.784156648442149 ] } },
{ "type": "Feature", "properties": { "name": "Особняк инженера Б. К. Правдзика", "type_2": "Да", "fact": "Инженеры", "type": "Особняк", "type_3": "3", "description": "Особняк Б. К. Правдзика — жилой особняк инженера Б. К. Правдзика. Связан с инженерной интеллигенцией Петербурга, отражает рациональную архитектуру начала XX века.", "id": 178 }, "geometry": { "type": "Point", "coordinates": [ 3334409.084419016726315, 8422551.86058259755373 ] } },
{ "type": "Feature", "properties": { "name": "Особняк Лоховой", "type_2": null, "fact": null, "type": "Особняк", "type_3": "3", "description": "Усадьба Лоховой — малоизвестный особняк городской усадебной застройки. Представляет тип жилого дома с хозяйственными постройками, характерного для частных владений.", "id": 223 }, "geometry": { "type": "Point", "coordinates": [ 3318528.591360990423709, 8440352.531504146754742 ] } },
{ "type": "Feature", "properties": { "name": "Особняк Духновского", "type_2": null, "fact": null, "type": "Особняк", "type_3": "3", "description": "Усадьба Духновского — городской особняк XIX века, связанный с фамилией Духновских. Использовался как жилое и представительское здание.", "id": 226 }, "geometry": { "type": "Point", "coordinates": [ 3318477.919388679787517, 8440235.933349274098873 ] } },
{ "type": "Feature", "properties": { "name": "Особняк Макаровой", "type_2": null, "fact": null, "type": "Особняк", "type_3": "3", "description": "Усадьба Макаровой — купеческий особняк, принадлежавший семье Макаровых. Архитектура отражает переход от классицизма к эклектике.", "id": 255 }, "geometry": { "type": "Point", "coordinates": [ 3318986.236250381916761, 8440433.741252340376377 ] } },
{ "type": "Feature", "properties": { "name": "Особняк Рогалева", "type_2": null, "fact": null, "type": "Особняк", "type_3": "3", "description": "Усадьба Рогалева — особняк городской усадьбы Рогалевых. Использовался как доходный и жилой дом, типичный пример петербургской застройки XIX века.", "id": 261 }, "geometry": { "type": "Point", "coordinates": [ 3317398.912434668745846, 8441062.492660447955132 ] } }
]
}
