{
"type": "FeatureCollection",
"name": "холм",
"crs": { "type": "name", "properties": { "name": "urn:ogc:def:crs:EPSG::3857" } },
"xy_coordinate_resolution": 1e-15,
"features": [
{ "type": "Feature", "properties": { "fid": 6, "type": "холм", "name": "Охтинская", "fact": "26.02", "description ": "26.02 метров" }, "geometry": { "type": "Point", "coordinates": [ 3389687.622853425331414, 8420093.163601806387305 ] } },
{ "type": "Feature", "properties": { "fid": 8, "type": "холм", "name": "Филева ", "fact": "33.07", "description ": "33.07 метров" }, "geometry": { "type": "Point", "coordinates": [ 3410740.142313267569989, 8380684.393558397889137 ] } },
{ "type": "Feature", "properties": { "fid": 10, "type": "холм", "name": "Шведская горка", "fact": "13.89", "description ": "13.89 метров" }, "geometry": { "type": "Point", "coordinates": [ 3427408.009669744409621, 8327493.099823594093323 ] } },
{ "type": "Feature", "properties": { "fid": 12, "type": "холм", "name": "Федоровский холм", "fact": "63.55", "description ": "63.55 метров" }, "geometry": { "type": "Point", "coordinates": [ 3398875.265706557780504, 8324986.789441199041903 ] } },
{ "type": "Feature", "properties": { "fid": 15, "type": "холм", "name": "Парнас ", "fact": "71.61", "description ": "71.61 метров" }, "geometry": { "type": "Point", "coordinates": [ 3382837.80062644276768, 8337553.785858226940036 ] } },
{ "type": "Feature", "properties": { "fid": 16, "type": "холм", "name": " Колокольня", "fact": "100.68", "description ": "100.68 метров" }, "geometry": { "type": "Point", "coordinates": [ 3295218.118103566579521, 8349214.108386567793787 ] } },
{ "type": "Feature", "properties": { "fid": 17, "type": "холм", "name": "Красносельский холм", "fact": "87.16", "description ": "87.16 метров" }, "geometry": { "type": "Point", "coordinates": [ 3349514.533696457743645, 8339232.488716528750956 ] } },
{ "type": "Feature", "properties": { "fid": 20, "type": "холм", "name": "Золотая", "fact": "14.35", "description ": "14.35 метров" }, "geometry": { "type": "Point", "coordinates": [ 3328108.890425321180373, 8374535.661340371705592 ] } },
{ "type": "Feature", "properties": { "fid": 21, "type": "холм", "name": "Шахматная", "fact": "15.57", "description ": "15.57 метров" }, "geometry": { "type": "Point", "coordinates": [ 3330295.635033199563622, 8373730.894923768006265 ] } },
{ "type": "Feature", "properties": { "fid": 22, "type": "холм", "name": "Келломяки (Колокольный холм)", "fact": "27.52", "description ": "27.52 метров" }, "geometry": { "type": "Point", "coordinates": [ 3317223.268367140553892, 8440263.802143091335893 ] } },
{ "type": "Feature", "properties": { "fid": 25, "type": "холм", "name": "Марьина ", "fact": "27.05", "description ": "27.05 метров" }, "geometry": { "type": "Point", "coordinates": [ 3288435.755488004535437, 8444704.448730640113354 ] } },
{ "type": "Feature", "properties": { "fid": 26, "type": "холм", "name": "Стеклянная горка", "fact": "11.86", "description ": "11.86 метров" }, "geometry": { "type": "Point", "coordinates": [ 3372281.624847922474146, 8403309.606639744713902 ] } },
{ "type": "Feature", "properties": { "fid": 28, "type": "холм", "name": "Яковлевка", "fact": "52.22", "description ": "52.22 метров" }, "geometry": { "type": "Point", "coordinates": [ 3282642.911826103925705, 8463533.45318141579628 ] } },
{ "type": "Feature", "properties": { "fid": 31, "type": "холм", "name": "Крестовая", "fact": "93.37", "description ": "93.37 метров" }, "geometry": { "type": "Point", "coordinates": [ 3397132.893036661203951, 8437266.133054830133915 ] } },
{ "type": "Feature", "properties": { "fid": 43, "type": "холм", "name": "Белая горка", "fact": "12.24", "description ": "12.24 метров" }, "geometry": { "type": "Point", "coordinates": [ 3336956.833579607773572, 8416619.798957960680127 ] } },
{ "type": "Feature", "properties": { "fid": 45, "type": "холм", "name": "Парнас", "fact": "13.88", "description ": "13.88 метров" }, "geometry": { "type": "Point", "coordinates": [ 3339621.369516684208065, 8369162.262111931107938 ] } },
{ "type": "Feature", "properties": { "fid": 48, "type": "холм", "name": "Гайдабуровская ", "fact": "14.85", "description ": "14.85 метров" }, "geometry": { "type": "Point", "coordinates": [ 3336744.425417229533195, 8414388.263793217018247 ] } },
{ "type": "Feature", "properties": { "fid": 58, "type": "холм", "name": "Ленинские (Сомерикомяки)", "fact": "52.76", "description ": "52.76 метров" }, "geometry": { "type": "Point", "coordinates": [ 3320169.348989161197096, 8454643.33284953981638 ] } },
{ "type": "Feature", "properties": { "fid": 60, "type": "холм", "name": "Золотая ", "fact": "62.56", "description ": "62.56 метров" }, "geometry": { "type": "Point", "coordinates": [ 3377601.760180407669395, 8438146.741485023871064 ] } },
{ "type": "Feature", "properties": { "fid": 63, "type": "холм", "name": "Крутая (Куйппамяки)", "fact": "59.09", "description ": "59.09 метров" }, "geometry": { "type": "Point", "coordinates": [ 3322090.761132749263197, 8454980.713083317503333 ] } },
{ "type": "Feature", "properties": { "fid": 65, "type": "холм", "name": "Школьная ", "fact": "87.69", "description ": "87.69 метров" }, "geometry": { "type": "Point", "coordinates": [ 3350259.831843336112797, 8341958.329882292076945 ] } },
{ "type": "Feature", "properties": { "fid": 67, "type": "холм", "name": "Старая Пустошь", "fact": "64.44", "description ": "64.44 метров" }, "geometry": { "type": "Point", "coordinates": [ 3414701.969389082398266, 8392853.824507480487227 ] } },
{ "type": "Feature", "properties": { "fid": 69, "type": "холм", "name": "Чугуева", "fact": "8.53", "description ": "8.53 метров" }, "geometry": { "type": "Point", "coordinates": [ 3328355.481483926530927, 8434752.648297941312194 ] } },
{ "type": "Feature", "properties": { "fid": 71, "type": "холм", "name": "Хепоярви ", "fact": "88.51", "description ": "88.51 метров" }, "geometry": { "type": "Point", "coordinates": [ 3398692.281213846523315, 8427892.628288690000772 ] } },
{ "type": "Feature", "properties": { "fid": 76, "type": "холм", "name": "Киурумяки", "fact": "65.46", "description ": "65.46 метров" }, "geometry": { "type": "Point", "coordinates": [ 3405048.50100953085348, 8429547.081243371590972 ] } },
{ "type": "Feature", "properties": { "fid": 77, "type": "холм", "name": "Таскунмяки", "fact": "83.98", "description ": "83.98 метров" }, "geometry": { "type": "Point", "coordinates": [ 3404885.866420701146126, 8434203.373180026188493 ] } },
{ "type": "Feature", "properties": { "fid": 79, "type": "холм", "name": "Семейная", "fact": "98.54", "description ": "98.54 метров" }, "geometry": { "type": "Point", "coordinates": [ 3400318.525961806066334, 8436240.623287156224251 ] } },
{ "type": "Feature", "properties": { "fid": 80, "type": "холм", "name": "Понтуксен мяки", "fact": "100.29", "description ": "100.29 метров" }, "geometry": { "type": "Point", "coordinates": [ 3399060.611518265213817, 8438370.03363617695868 ] } },
{ "type": "Feature", "properties": { "fid": 82, "type": "холм", "name": "Сосновая ", "fact": "67.31", "description ": "67.31 метров" }, "geometry": { "type": "Point", "coordinates": [ 3401210.151249091606587, 8437286.897632736712694 ] } },
{ "type": "Feature", "properties": { "fid": 83, "type": "холм", "name": "Чайная ", "fact": "89.83", "description ": "89.83 метров" }, "geometry": { "type": "Point", "coordinates": [ 3401213.497704301960766, 8438585.322254782542586 ] } },
{ "type": "Feature", "properties": { "fid": 84, "type": "холм", "name": "Пелёвина ", "fact": "45.23", "description ": "45.23 метров" }, "geometry": { "type": "Point", "coordinates": [ 3369912.584702343214303, 8417278.26426131464541 ] } },
{ "type": "Feature", "properties": { "fid": 85, "type": "холм", "name": "Майоровка", "fact": "35.84", "description ": "35.84 метров" }, "geometry": { "type": "Point", "coordinates": [ 3372663.89513502176851, 8415716.439537957310677 ] } },
{ "type": "Feature", "properties": { "fid": 86, "type": "холм", "name": "Туккова ", "fact": "39.21", "description ": "39.21 метров" }, "geometry": { "type": "Point", "coordinates": [ 3368873.034166472498327, 8417735.566540319472551 ] } },
{ "type": "Feature", "properties": { "fid": 87, "type": "холм", "name": "Вокзальная ", "fact": "48.32", "description ": "48.32 метров" }, "geometry": { "type": "Point", "coordinates": [ 3368880.530925144907087, 8418297.823440730571747 ] } },
{ "type": "Feature", "properties": { "fid": 88, "type": "холм", "name": "Малые горки", "fact": "86.07", "description ": "86.07 метров" }, "geometry": { "type": "Point", "coordinates": [ 3325217.057789025828242, 8336309.316766790114343 ] } },
{ "type": "Feature", "properties": { "fid": 89, "type": "холм", "name": "Холм Славы", "fact": "11.27", "description ": "11.27 метров" }, "geometry": { "type": "Point", "coordinates": [ 3423567.375917884986848, 8349221.184185717254877 ] } },
{ "type": "Feature", "properties": { "fid": 91, "type": "холм", "name": "Коркинские холмы", "fact": "85.87", "description ": "85.87 метров" }, "geometry": { "type": "Point", "coordinates": [ 3418279.627118234056979, 8385160.534688608720899 ] } },
{ "type": "Feature", "properties": { "fid": 96, "type": "холм", "name": "Холм Кавигонт", "fact": "73.42", "description ": "73.42 метров" }, "geometry": { "type": "Point", "coordinates": [ 3336892.793474498670548, 8348433.943481932394207 ] } },
{ "type": "Feature", "properties": { "fid": 98, "type": "холм", "name": "Мустосенмяки ", "fact": "89.34", "description ": "89.34 метров" }, "geometry": { "type": "Point", "coordinates": [ 3404653.072134962305427, 8431457.206367898732424 ] } },
{ "type": "Feature", "properties": { "fid": 100, "type": "холм", "name": "Сювемяки", "fact": "50.85", "description ": "50.85 метров" }, "geometry": { "type": "Point", "coordinates": [ 3403832.780924972612411, 8427417.727699225768447 ] } },
{ "type": "Feature", "properties": { "fid": 101, "type": "холм", "name": "Царский валик", "fact": "101.44", "description ": "101.44 метров" }, "geometry": { "type": "Point", "coordinates": [ 3347449.286411481443793, 8333646.481716829352081 ] } },
{ "type": "Feature", "properties": { "fid": 103, "type": "холм", "name": "Катальная горка", "fact": "8.42", "description ": "8.42 метров" }, "geometry": { "type": "Point", "coordinates": [ 3395243.545083424542099, 8389643.291278153657913 ] } },
{ "type": "Feature", "properties": { "fid": 105, "type": "холм", "name": "Таммиселька ", "fact": "92.3", "description ": "92.30 метров" }, "geometry": { "type": "Point", "coordinates": [ 3324932.555366756394506, 8459477.424551580101252 ] } },
{ "type": "Feature", "properties": { "fid": 106, "type": "холм", "name": "Pohjalaisen mäellä", "fact": "94.02", "description ": "94.02 метров" }, "geometry": { "type": "Point", "coordinates": [ 3324761.809553778730333, 8459680.798732340335846 ] } },
{ "type": "Feature", "properties": { "fid": 107, "type": "холм", "name": "Куккамяки (Цветочный холм)", "fact": "26.06", "description ": "26.06 метров" }, "geometry": { "type": "Point", "coordinates": [ 3308280.704315060283989, 8443030.767321102321148 ] } },
{ "type": "Feature", "properties": { "fid": 108, "type": "холм", "name": "Кютелямяки", "fact": "53.29", "description ": "53.29 метров" }, "geometry": { "type": "Point", "coordinates": [ 3379363.953260097187012, 8431387.696454744786024 ] } },
{ "type": "Feature", "properties": { "fid": 109, "type": "холм", "name": "Нокеломяки", "fact": "60", "description ": "60.00 метров" }, "geometry": { "type": "Point", "coordinates": [ 3380199.532931223046035, 8430452.915544124320149 ] } },
{ "type": "Feature", "properties": { "fid": 110, "type": "холм", "name": "Пёкколомяки", "fact": "48.11", "description ": "48.11 метров" }, "geometry": { "type": "Point", "coordinates": [ 3378570.343344142194837, 8430208.727877676486969 ] } },
{ "type": "Feature", "properties": { "fid": 111, "type": "холм", "name": "Больничная горка", "fact": "8.2", "description ": "8.20 метров" }, "geometry": { "type": "Point", "coordinates": [ 3344700.750921383500099, 8367242.012919373810291 ] } },
{ "type": "Feature", "properties": { "fid": 112, "type": "холм", "name": "Чертова горка", "fact": "22.39", "description ": "22.39 метров" }, "geometry": { "type": "Point", "coordinates": [ 3329483.535145101603121, 8372123.2226267978549 ] } },
{ "type": "Feature", "properties": { "fid": 113, "type": "холм", "name": "Илимовская гора", "fact": "13.37", "description ": "13.37 метров" }, "geometry": { "type": "Point", "coordinates": [ 3315692.019233858212829, 8380149.62035050522536 ] } },
{ "type": "Feature", "properties": { "fid": 114, "type": "холм", "name": "Ряйконемяки", "fact": "76.17", "description ": "76.17 метров" }, "geometry": { "type": "Point", "coordinates": [ 3404095.196384143549949, 8441801.959822587668896 ] } },
{ "type": "Feature", "properties": { "fid": 115, "type": "холм", "name": "Кякесенмяки", "fact": "104.89", "description ": "104.89 метров" }, "geometry": { "type": "Point", "coordinates": [ 3401589.370151422917843, 8443383.043701194226742 ] } },
{ "type": "Feature", "properties": { "fid": 116, "type": "холм", "name": "Ленжуомяки ", "fact": "74.52", "description ": "74.52 метров" }, "geometry": { "type": "Point", "coordinates": [ 3399245.937697960529476, 8443748.429704524576664 ] } },
{ "type": "Feature", "properties": { "fid": 117, "type": "холм", "name": "Иткомяки", "fact": "93.63", "description ": "93.63 метров" }, "geometry": { "type": "Point", "coordinates": [ 3399394.798662279266864, 8445128.776828216388822 ] } },
{ "type": "Feature", "properties": { "fid": 118, "type": "холм", "name": "Тарымяки", "fact": "70.74", "description ": "70.74 метров" }, "geometry": { "type": "Point", "coordinates": [ 3399340.667402526829392, 8443110.131933270022273 ] } },
{ "type": "Feature", "properties": { "fid": 119, "type": "холм", "name": "Рандиямяки", "fact": "85.8", "description ": "85.80 метров" }, "geometry": { "type": "Point", "coordinates": [ 3398842.208718970883638, 8445776.096476091071963 ] } },
{ "type": "Feature", "properties": { "fid": 120, "type": "холм", "name": "Раколайнемяки ", "fact": "86.12", "description ": "86.12 метров" }, "geometry": { "type": "Point", "coordinates": [ 3404029.787778607103974, 8445712.943339716643095 ] } },
{ "type": "Feature", "properties": { "fid": 121, "type": "холм", "name": "Вилкимяки", "fact": "93.54", "description ": "93.54 метров" }, "geometry": { "type": "Point", "coordinates": [ 3404237.290940992068499, 8434823.538252791389823 ] } },
{ "type": "Feature", "properties": { "fid": 122, "type": "холм", "name": "Луискиринмяки ", "fact": "57.29", "description ": "57.29 метров" }, "geometry": { "type": "Point", "coordinates": [ 3406131.885032340418547, 8430278.767902720719576 ] } },
{ "type": "Feature", "properties": { "fid": 123, "type": "холм", "name": "Кеземяки", "fact": "80.22", "description ": "80.22 метров" }, "geometry": { "type": "Point", "coordinates": [ 3410587.854414379224181, 8435339.97517410852015 ] } },
{ "type": "Feature", "properties": { "fid": 125, "type": "холм", "name": "Мойсионмяки", "fact": "57.35", "description ": "57.35 метров" }, "geometry": { "type": "Point", "coordinates": [ 3409450.118832860141993, 8433658.640348482877016 ] } },
{ "type": "Feature", "properties": { "fid": 126, "type": "холм", "name": "Кемпи-Мяки", "fact": "84.66", "description ": "84.66 метров" }, "geometry": { "type": "Point", "coordinates": [ 3412186.362989611458033, 8438752.155688092112541 ] } },
{ "type": "Feature", "properties": { "fid": 127, "type": "холм", "name": "Кивиккомяки", "fact": "33.91", "description ": "33.91 метров" }, "geometry": { "type": "Point", "coordinates": [ 3289130.272900174837559, 8447936.610546594485641 ] } },
{ "type": "Feature", "properties": { "fid": 128, "type": "холм", "name": "Пугелан-Мяки", "fact": "92.74", "description ": "92.74 метров" }, "geometry": { "type": "Point", "coordinates": [ 3412387.51408130954951, 8439925.511116124689579 ] } },
{ "type": "Feature", "properties": { "fid": 129, "type": "холм", "name": "Пурнунмяки", "fact": "44.15", "description ": "44.15 метров" }, "geometry": { "type": "Point", "coordinates": [ 3419085.941529064439237, 8444443.85440419614315 ] } },
{ "type": "Feature", "properties": { "fid": 130, "type": "холм", "name": "Путронмяки", "fact": "18.18", "description ": "18.18 метров" }, "geometry": { "type": "Point", "coordinates": [ 3403730.538455215748399, 8332214.334962722845376 ] } },
{ "type": "Feature", "properties": { "fid": 131, "type": "холм", "name": "Ревонмяки", "fact": "10.9", "description ": "10.90 метров" }, "geometry": { "type": "Point", "coordinates": [ 3337502.6407091319561, 8408667.505549030378461 ] } },
{ "type": "Feature", "properties": { "fid": 132, "type": "холм", "name": "Питке-Мяки", "fact": "54.8", "description ": "54.80 метров" }, "geometry": { "type": "Point", "coordinates": [ 3416042.057243184652179, 8376552.428190901875496 ] } },
{ "type": "Feature", "properties": { "fid": 133, "type": "холм", "name": "Торккелин-мяки", "fact": "21.5", "description ": "21.50 метров" }, "geometry": { "type": "Point", "coordinates": [ 3297871.691747051198035, 8443646.195161985233426 ] } },
{ "type": "Feature", "properties": { "fid": 134, "type": "холм", "name": "Лассымяки", "fact": "96.07", "description ": "96.07 метров" }, "geometry": { "type": "Point", "coordinates": [ 3404011.644433772191405, 8447885.867057202383876 ] } },
{ "type": "Feature", "properties": { "fid": 136, "type": "холм", "name": "Поккизенмяки", "fact": "92.5", "description ": "92.50 метров" }, "geometry": { "type": "Point", "coordinates": [ 3400866.372768292669207, 8432164.884149238467216 ] } },
{ "type": "Feature", "properties": { "fid": 137, "type": "холм", "name": "Киурумяки", "fact": "94.19", "description ": "94.19 метров" }, "geometry": { "type": "Point", "coordinates": [ 3402453.08255813177675, 8431342.66846027597785 ] } },
{ "type": "Feature", "properties": { "fid": 138, "type": "холм", "name": "Пуккеланмяки", "fact": "92.79", "description ": "92.79 метров" }, "geometry": { "type": "Point", "coordinates": [ 3402129.665263267699629, 8432327.87519515119493 ] } },
{ "type": "Feature", "properties": { "fid": 139, "type": "холм", "name": "Кярпянмяки", "fact": "78.22", "description ": "78.22 метров" }, "geometry": { "type": "Point", "coordinates": [ 3412739.93127339752391, 8438647.213110027834773 ] } },
{ "type": "Feature", "properties": { "fid": 140, "type": "холм", "name": "Систаканмяки", "fact": "41.05", "description ": "41.05 метров" }, "geometry": { "type": "Point", "coordinates": [ 3421770.884488835465163, 8375931.055754945613444 ] } },
{ "type": "Feature", "properties": { "fid": 141, "type": "холм", "name": "Каарленмяки", "fact": "12.93", "description ": "12.93 метров" }, "geometry": { "type": "Point", "coordinates": [ 3284283.154065855313092, 8440307.852114921435714 ] } },
{ "type": "Feature", "properties": { "fid": 142, "type": "холм", "name": "Суденмяки", "fact": "15.62", "description ": "15.62 метров" }, "geometry": { "type": "Point", "coordinates": [ 3287858.474112806841731, 8443310.134853569790721 ] } },
{ "type": "Feature", "properties": { "fid": 143, "type": "холм", "name": "Лаволанмяки", "fact": "89.94", "description ": "89.94 метров" }, "geometry": { "type": "Point", "coordinates": [ 3316833.106876636389643, 8462459.814337879419327 ] } },
{ "type": "Feature", "properties": { "fid": 144, "type": "холм", "name": "Вехнамяки", "fact": "95.64", "description ": "95.64 метров" }, "geometry": { "type": "Point", "coordinates": [ 3320062.816112048458308, 8462207.574039686471224 ] } },
{ "type": "Feature", "properties": { "fid": 145, "type": "холм", "name": "Ракколанмяки", "fact": "104.24", "description ": "104.24 метров" }, "geometry": { "type": "Point", "coordinates": [ 3319091.624624247662723, 8461999.900981577113271 ] } },
{ "type": "Feature", "properties": { "fid": 146, "type": "холм", "name": "Унимяки", "fact": "24.49", "description ": "24.49 метров" }, "geometry": { "type": "Point", "coordinates": [ 3286499.255603493656963, 8446261.712723888456821 ] } },
{ "type": "Feature", "properties": { "fid": 147, "type": "холм", "name": "Тееренмяки", "fact": "28.8", "description ": "28.80 метров" }, "geometry": { "type": "Point", "coordinates": [ 3290268.04766466608271, 8446912.243302926421165 ] } },
{ "type": "Feature", "properties": { "fid": 148, "type": "холм", "name": "Юхимяки", "fact": "19", "description ": "19.00 метров" }, "geometry": { "type": "Point", "coordinates": [ 3269997.364219451788813, 8392698.128579201176763 ] } },
{ "type": "Feature", "properties": { "fid": 149, "type": "холм", "name": "Канкуринмяки", "fact": "43.94", "description ": "43.94 метров" }, "geometry": { "type": "Point", "coordinates": [ 3420279.462735164910555, 8376270.933637030422688 ] } },
{ "type": "Feature", "properties": { "fid": 150, "type": "холм", "name": "Ленимяки", "fact": "128.7", "description ": "128.70 метров" }, "geometry": { "type": "Point", "coordinates": [ 3362629.453017671592534, 8335807.606508927419782 ] } },
{ "type": "Feature", "properties": { "fid": 151, "type": "холм", "name": "Янисьмяки", "fact": "132.38", "description ": "132.38 метров" }, "geometry": { "type": "Point", "coordinates": [ 3362443.725190918426961, 8334670.037145524285734 ] } },
{ "type": "Feature", "properties": { "fid": 152, "type": "холм", "name": "Лемедимяки", "fact": "124.13", "description ": "124.13 метров" }, "geometry": { "type": "Point", "coordinates": [ 3362903.925946769770235, 8335242.135755716823041 ] } },
{ "type": "Feature", "properties": { "fid": 153, "type": "холм", "name": "Пулькизимяки", "fact": "119.47", "description ": "119.47 метров" }, "geometry": { "type": "Point", "coordinates": [ 3363578.088230445515364, 8334364.673188854008913 ] } },
{ "type": "Feature", "properties": { "fid": 154, "type": "холм", "name": "Ховинмяки", "fact": "28.48", "description ": "28.48 метров" }, "geometry": { "type": "Point", "coordinates": [ 3403482.566519336774945, 8328868.165719232521951 ] } },
{ "type": "Feature", "properties": { "fid": 155, "type": "холм", "name": "Иоут-селькя", "fact": "79.53", "description ": "79.53 метров" }, "geometry": { "type": "Point", "coordinates": [ 3320094.544588172342628, 8460483.911250725388527 ] } },
{ "type": "Feature", "properties": { "fid": 156, "type": "холм", "name": "Олликайсмяки", "fact": "49.22", "description ": "49.22 метров" }, "geometry": { "type": "Point", "coordinates": [ 3413312.926686143502593, 8393087.998816262930632 ] } },
{ "type": "Feature", "properties": { "fid": 157, "type": "холм", "name": "Коломяги", "fact": "17.66", "description ": "17.66 метров" }, "geometry": { "type": "Point", "coordinates": [ 3371757.838955611456186, 8404351.280876791104674 ] } },
{ "type": "Feature", "properties": { "fid": 160, "type": "холм", "name": "Петаямяки", "fact": "75.94", "description ": "75.94 метров" }, "geometry": { "type": "Point", "coordinates": [ 3374274.322950326837599, 8444479.427961573004723 ] } },
{ "type": "Feature", "properties": { "fid": 161, "type": "холм", "name": "Коннунселькя", "fact": "71.33", "description ": "71.33 метров" }, "geometry": { "type": "Point", "coordinates": [ 3338299.756132597569376, 8447368.834810964763165 ] } },
{ "type": "Feature", "properties": { "fid": 162, "type": "холм", "name": "Корканмяки ", "fact": "78.67", "description ": "78.67 метров" }, "geometry": { "type": "Point", "coordinates": [ 3364629.6034368830733, 8314488.021633822470903 ] } },
{ "type": "Feature", "properties": { "fid": 163, "type": "холм", "name": "Никкозимяки", "fact": "116.02", "description ": "116.02 метров" }, "geometry": { "type": "Point", "coordinates": [ 3322841.849780065473169, 8328799.220037874765694 ] } },
{ "type": "Feature", "properties": { "fid": 164, "type": "холм", "name": "Кивисенмяки", "fact": "123.4", "description ": "123.40 метров" }, "geometry": { "type": "Point", "coordinates": [ 3322276.900649001821876, 8327315.393791921436787 ] } },
{ "type": "Feature", "properties": { "fid": 165, "type": "холм", "name": "Олосинмяки", "fact": "29.33", "description ": "29.33 метров" }, "geometry": { "type": "Point", "coordinates": [ 3404148.592139692977071, 8327033.096217054873705 ] } },
{ "type": "Feature", "properties": { "fid": 167, "type": "холм", "name": "Вуоримяки", "fact": "98.59", "description ": "98.59 метров" }, "geometry": { "type": "Point", "coordinates": [ 3311313.896839952562004, 8464948.073525266721845 ] } },
{ "type": "Feature", "properties": { "fid": 168, "type": "холм", "name": "Холмамяки", "fact": "111.75", "description ": "111.75 метров" }, "geometry": { "type": "Point", "coordinates": [ 3318564.772784230764955, 8463321.725655402988195 ] } },
{ "type": "Feature", "properties": { "fid": 169, "type": "холм", "name": "Карьяланмяки", "fact": "14.68", "description ": "14.68 метров" }, "geometry": { "type": "Point", "coordinates": [ 3405382.889194395858794, 8380314.935328741557896 ] } },
{ "type": "Feature", "properties": { "fid": 170, "type": "холм", "name": "Койвумяки ", "fact": "69.56", "description ": "69.56 метров" }, "geometry": { "type": "Point", "coordinates": [ 3405776.862423018552363, 8430575.038803959265351 ] } },
{ "type": "Feature", "properties": { "fid": 171, "type": "холм", "name": "Ниверинмяки ", "fact": "90.17", "description ": "90.17 метров" }, "geometry": { "type": "Point", "coordinates": [ 3403734.251287593971938, 8430625.39593518525362 ] } },
{ "type": "Feature", "properties": { "fid": 173, "type": "холм", "name": "Лемписенмяки", "fact": "77.72", "description ": "77.72 метров" }, "geometry": { "type": "Point", "coordinates": [ 3310640.361212289892137, 8470683.253762511536479 ] } },
{ "type": "Feature", "properties": { "fid": 175, "type": "холм", "name": "Хенттисенмяки", "fact": "74.87", "description ": "74.87 метров" }, "geometry": { "type": "Point", "coordinates": [ 3311392.426073668058962, 8470954.004394890740514 ] } },
{ "type": "Feature", "properties": { "fid": 176, "type": "холм", "name": "Мустомяки", "fact": "50.11", "description ": "50.11 метров" }, "geometry": { "type": "Point", "coordinates": [ 3282407.565341138280928, 8465822.05729522742331 ] } },
{ "type": "Feature", "properties": { "fid": 177, "type": "холм", "name": "Каурасенмяки", "fact": "77.69", "description ": "77.69 метров" }, "geometry": { "type": "Point", "coordinates": [ 3310408.337941435631365, 8470399.978885618969798 ] } },
{ "type": "Feature", "properties": { "fid": 178, "type": "холм", "name": "Таскунмяки", "fact": "68.66", "description ": "68.66 метров" }, "geometry": { "type": "Point", "coordinates": [ 3402711.594153966289014, 8435157.436633171513677 ] } },
{ "type": "Feature", "properties": { "fid": 179, "type": "холм", "name": "Коросенмяки", "fact": "75.47", "description ": "75.47 метров" }, "geometry": { "type": "Point", "coordinates": [ 3406197.733270090073347, 8431231.156929710879922 ] } },
{ "type": "Feature", "properties": { "fid": 180, "type": "холм", "name": "Кивиккомяки", "fact": "59.56", "description ": "59.56 метров" }, "geometry": { "type": "Point", "coordinates": [ 3290559.934767988044769, 8448489.119283156469464 ] } },
{ "type": "Feature", "properties": { "fid": 181, "type": "холм", "name": "Пеллонмяки", "fact": "28.95", "description ": "28.95 метров" }, "geometry": { "type": "Point", "coordinates": [ 3290122.805323884822428, 8446740.785124970600009 ] } },
{ "type": "Feature", "properties": { "fid": 182, "type": "холм", "name": "Песчаные холмы", "fact": "40.47", "description ": "40.47 метров" }, "geometry": { "type": "Point", "coordinates": [ 3388273.521130121778697, 8421204.486239172518253 ] } },
{ "type": "Feature", "properties": { "fid": 184, "type": "холм", "name": "Пущина горка", "fact": "74.42", "description ": "74.42 метров" }, "geometry": { "type": "Point", "coordinates": [ 3389200.640192052815109, 8472034.67407887801528 ] } },
{ "type": "Feature", "properties": { "fid": 185, "type": "холм", "name": "Болгарский обрыв", "fact": "20.26", "description ": "20.26 метров" }, "geometry": { "type": "Point", "coordinates": [ 3319840.975208111107349, 8438917.616010485216975 ] } },
{ "type": "Feature", "properties": { "fid": 186, "type": "холм", "name": "Хампула Мяки", "fact": "90.06", "description ": "90.06 метров" }, "geometry": { "type": "Point", "coordinates": [ 3400054.763376260176301, 8432015.724633440375328 ] } },
{ "type": "Feature", "properties": { "fid": 187, "type": "холм", "name": "Келломяки", "fact": "93.94", "description ": "93.94 метров" }, "geometry": { "type": "Point", "coordinates": [ 3400546.875271724537015, 8431423.418764941394329 ] } },
{ "type": "Feature", "properties": { "fid": 188, "type": "холм", "name": "Капаканмяки", "fact": "71.48", "description ": "71.48 метров" }, "geometry": { "type": "Point", "coordinates": [ 3306155.95223433803767, 8378345.755498321726918 ] } },
{ "type": "Feature", "properties": { "fid": 189, "type": "холм", "name": "Ханникуисенмяки", "fact": "51.51", "description ": "51.51 метров" }, "geometry": { "type": "Point", "coordinates": [ 3415465.592424682807177, 8378605.533830471336842 ] } },
{ "type": "Feature", "properties": { "fid": 190, "type": "холм", "name": "Сопки", "fact": "22.49", "description ": "22.49 метров" }, "geometry": { "type": "Point", "coordinates": [ 3280015.052339934743941, 8451175.096845308318734 ] } },
{ "type": "Feature", "properties": { "fid": 192, "type": "холм", "name": "Хиеккамяки", "fact": "71.69", "description ": "71.69 метров" }, "geometry": { "type": "Point", "coordinates": [ 3313136.579866541549563, 8460483.15891095250845 ] } },
{ "type": "Feature", "properties": { "fid": 193, "type": "холм", "name": "Хиетамяки", "fact": "114.73", "description ": "114.73 метров" }, "geometry": { "type": "Point", "coordinates": [ 3334550.638944293372333, 8340293.485048593953252 ] } },
{ "type": "Feature", "properties": { "fid": 194, "type": "холм", "name": "Пеккоземяки", "fact": "131.65", "description ": "131.65 метров" }, "geometry": { "type": "Point", "coordinates": [ 3362606.212935927789658, 8334233.816110954619944 ] } },
{ "type": "Feature", "properties": { "fid": 195, "type": "холм", "name": "Öljymäki", "fact": "49.43", "description ": "49.43 метров" }, "geometry": { "type": "Point", "coordinates": [ 3334975.9307, 8446239.243424117565155 ] } },
{ "type": "Feature", "properties": { "fid": 196, "type": "холм", "name": "Люйзамяки", "fact": "102.29", "description ": "102.29 метров" }, "geometry": { "type": "Point", "coordinates": [ 3368009.091813622042537, 8325944.291140732355416 ] } },
{ "type": "Feature", "properties": { "fid": 197, "type": "холм", "name": "Ансарейнмяки", "fact": "30.14", "description ": "30.14 метров" }, "geometry": { "type": "Point", "coordinates": [ 3427454.028974199667573, 8355036.280299999751151 ] } },
{ "type": "Feature", "properties": { "fid": 199, "type": "холм", "name": "Мюллюмяки", "fact": "64.45", "description ": "64.45 метров" }, "geometry": { "type": "Point", "coordinates": [ 3334397.257330665364861, 8460022.77713818103075 ] } },
{ "type": "Feature", "properties": { "fid": 200, "type": "холм", "name": "Терваканкаанмяки", "fact": "79.5", "description ": "79.50 метров" }, "geometry": { "type": "Point", "coordinates": [ 3332817.983213471714407, 8459295.897908832877874 ] } },
{ "type": "Feature", "properties": { "fid": 201, "type": "холм", "name": "Viesoinmaki", "fact": "108.23", "description ": "108.23 метров" }, "geometry": { "type": "Point", "coordinates": [ 3330787.391806554514915, 8457946.073360864073038 ] } },
{ "type": "Feature", "properties": { "fid": 202, "type": "холм", "name": "Роккаланмяки ", "fact": "66.7", "description ": "66.70 метров" }, "geometry": { "type": "Point", "coordinates": [ 3314005.409038258250803, 8464546.173513755202293 ] } },
{ "type": "Feature", "properties": { "fid": 203, "type": "холм", "name": "Камппиланмаки", "fact": "82.75", "description ": "82.75 метров" }, "geometry": { "type": "Point", "coordinates": [ 3325631.945244479458779, 8458177.031859435141087 ] } },
{ "type": "Feature", "properties": { "fid": 204, "type": "холм", "name": "Пекосенмяки", "fact": "99.4", "description ": "99.40 метров" }, "geometry": { "type": "Point", "coordinates": [ 3325066.806861040182412, 8459699.516400007531047 ] } },
{ "type": "Feature", "properties": { "fid": 205, "type": "холм", "name": "Киуруланмаки", "fact": "92.24", "description ": "92.24 метров" }, "geometry": { "type": "Point", "coordinates": [ 3323384.950992083642632, 8459483.634151069447398 ] } },
{ "type": "Feature", "properties": { "fid": 206, "type": "холм", "name": "Хонкасуонмяки", "fact": "98.44", "description ": "98.44 метров" }, "geometry": { "type": "Point", "coordinates": [ 3324103.808308242354542, 8461592.734389988705516 ] } },
{ "type": "Feature", "properties": { "fid": 207, "type": "холм", "name": "Ханникяйсенмяки", "fact": "104.25", "description ": "104.25 метров" }, "geometry": { "type": "Point", "coordinates": [ 3325679.416954036336392, 8460317.779904725030065 ] } },
{ "type": "Feature", "properties": { "fid": 208, "type": "холм", "name": "Тиканмяки", "fact": "93.52", "description ": "93.52 метров" }, "geometry": { "type": "Point", "coordinates": [ 3320296.789632692467421, 8461223.101878240704536 ] } },
{ "type": "Feature", "properties": { "fid": 209, "type": "холм", "name": "Кивимяки", "fact": "86.41", "description ": "86.41 метров" }, "geometry": { "type": "Point", "coordinates": [ 3336033.183305564336479, 8461941.130711872130632 ] } },
{ "type": "Feature", "properties": { "fid": 210, "type": "холм", "name": "Коккоахонмяки", "fact": "97.97", "description ": "97.97 метров" }, "geometry": { "type": "Point", "coordinates": [ 3337942.817299655172974, 8462014.203441238030791 ] } },
{ "type": "Feature", "properties": { "fid": 211, "type": "холм", "name": "Анттиланмяки", "fact": "77.57", "description ": "77.57 метров" }, "geometry": { "type": "Point", "coordinates": [ 3338956.092480193357915, 8460737.86643498390913 ] } },
{ "type": "Feature", "properties": { "fid": 212, "type": "холм", "name": "Мунненмяки", "fact": "116.74", "description ": "116.74 метров" }, "geometry": { "type": "Point", "coordinates": [ 3324448.719943451695144, 8464493.804724384099245 ] } },
{ "type": "Feature", "properties": { "fid": 213, "type": "холм", "name": "Ликасенмяки", "fact": "103.32", "description ": "103.32 метров" }, "geometry": { "type": "Point", "coordinates": [ 3322724.203530420549214, 8466003.974464610219002 ] } },
{ "type": "Feature", "properties": { "fid": 214, "type": "холм", "name": "Теросенмяки", "fact": "88.62", "description ": "88.62 метров" }, "geometry": { "type": "Point", "coordinates": [ 3319262.991916127502918, 8466773.673880606889725 ] } },
{ "type": "Feature", "properties": { "fid": 215, "type": "холм", "name": "Мулламяки", "fact": "12.34", "description ": "12.34 метров" }, "geometry": { "type": "Point", "coordinates": [ 3285271.993972822092474, 8449495.627022068947554 ] } },
{ "type": "Feature", "properties": { "fid": 216, "type": "холм", "name": "Jukonyllönmäki", "fact": "25.35", "description ": "25.35 метров" }, "geometry": { "type": "Point", "coordinates": [ 3286646.979163721203804, 8446930.774221330881119 ] } },
{ "type": "Feature", "properties": { "fid": 217, "type": "холм", "name": "Мякряпяссинмяки (Барсучий холм)", "fact": "57.63", "description ": "57.63 метров" }, "geometry": { "type": "Point", "coordinates": [ 3311771.819277310278267, 8459926.759139014407992 ] } },
{ "type": "Feature", "properties": { "fid": 218, "type": "холм", "name": "Суосааренмяки ", "fact": "53.7", "description ": "53.70 метров" }, "geometry": { "type": "Point", "coordinates": [ 3309729.436491535976529, 8456491.122980002313852 ] } },
{ "type": "Feature", "properties": { "fid": 219, "type": "холм", "name": "Кертапалонмяки", "fact": "63.33", "description ": "63.33 метров" }, "geometry": { "type": "Point", "coordinates": [ 3310401.705601701047271, 8455706.809018144384027 ] } },
{ "type": "Feature", "properties": { "fid": 220, "type": "холм", "name": "Карьяланмяки", "fact": "75.63", "description ": "75.63 метров" }, "geometry": { "type": "Point", "coordinates": [ 3310070.442561909556389, 8453563.34229008294642 ] } },
{ "type": "Feature", "properties": { "fid": 221, "type": "холм", "name": "Куломяки ", "fact": "47.26", "description ": "47.26 метров" }, "geometry": { "type": "Point", "coordinates": [ 3313631.520239666569978, 8455623.993258198723197 ] } },
{ "type": "Feature", "properties": { "fid": 222, "type": "холм", "name": "Киурумяки", "fact": "46.72", "description ": "46.72 метров" }, "geometry": { "type": "Point", "coordinates": [ 3306945.365502700675279, 8452350.334982613101602 ] } },
{ "type": "Feature", "properties": { "fid": 223, "type": "холм", "name": "Каскимяки", "fact": "57.89", "description ": "57.89 метров" }, "geometry": { "type": "Point", "coordinates": [ 3304295.261184368282557, 8454425.600496605038643 ] } },
{ "type": "Feature", "properties": { "fid": 224, "type": "холм", "name": "Суопеллонмяки", "fact": "57.31", "description ": "57.31 метров" }, "geometry": { "type": "Point", "coordinates": [ 3305167.262421465478837, 8455209.914458464831114 ] } },
{ "type": "Feature", "properties": { "fid": 225, "type": "холм", "name": "Каухимяки", "fact": "62.97", "description ": "62.97 метров" }, "geometry": { "type": "Point", "coordinates": [ 3315956.07634587213397, 8456377.380608009174466 ] } },
{ "type": "Feature", "properties": { "fid": 226, "type": "холм", "name": "Тервасмяки", "fact": "55.63", "description ": "55.63 метров" }, "geometry": { "type": "Point", "coordinates": [ 3293521.530551760923117, 8454924.451172448694706 ] } },
{ "type": "Feature", "properties": { "fid": 227, "type": "холм", "name": "Паломяки", "fact": "94.69", "description ": "94.69 метров" }, "geometry": { "type": "Point", "coordinates": [ 3297998.453104235697538, 8453730.929926140233874 ] } },
{ "type": "Feature", "properties": { "fid": 229, "type": "холм", "name": "Добрая горка", "fact": "23.35", "description ": "23.35 метров" }, "geometry": { "type": "Point", "coordinates": [ 3353558.034578518010676, 8421590.558023480698466 ] } },
{ "type": "Feature", "properties": { "fid": 233, "type": "холм", "name": "Парголовский холм", "fact": "43.28", "description ": "43.28 метров" }, "geometry": { "type": "Point", "coordinates": [ 3370336.702463614754379, 8417157.964025359600782 ] } },
{ "type": "Feature", "properties": { "fid": 234, "type": "холм", "name": "Заманиловка", "fact": "39.69", "description ": "39.69 метров" }, "geometry": { "type": "Point", "coordinates": [ 3374536.457959583960474, 8417802.516734849661589 ] } },
{ "type": "Feature", "properties": { "fid": 236, "type": "холм", "name": "Церковная ", "fact": "35.45", "description ": "35.45 метров" }, "geometry": { "type": "Point", "coordinates": [ 3373579.731115228496492, 8411437.109691441059113 ] } },
{ "type": "Feature", "properties": { "fid": 237, "type": "холм", "name": "Брусничная", "fact": "27.12", "description ": "27.12 метров" }, "geometry": { "type": "Point", "coordinates": [ 3374131.915133616421372, 8409008.956063624471426 ] } },
{ "type": "Feature", "properties": { "fid": 238, "type": "холм", "name": "Плешивка ", "fact": "62.92", "description ": "62.92 метров" }, "geometry": { "type": "Point", "coordinates": [ 3381213.815448074601591, 8317057.593826778233051 ] } },
{ "type": "Feature", "properties": { "fid": 239, "type": "холм", "name": "Высота Инженерная", "fact": "67.04", "description ": "67.04 метров" }, "geometry": { "type": "Point", "coordinates": [ 3312305.565261877141893, 8368463.90232065320015 ] } }
]
}
