{
"type": "FeatureCollection",
"name": "05_mask",
"crs": { "type": "name", "properties": { "name": "urn:ogc:def:crs:EPSG::3857" } },
"features": [
{ "type": "Feature", "properties": { "MINX": 2900920.8385443371, "MINY": 8059140.0912254471, "MAXX": 3703810.8385443371, "MAXY": 8610735.0912254471, "CNTX": 3302365.8385443371, "CNTY": 8334937.5912254471, "AREA": 442870109550.0, "PERIM": 2708970.0, "HEIGHT": 551595.0, "WIDTH": 802890.0, "fid": null, "name": null, "id": null, "type": null }, "geometry": { "type": "MultiPolygon", "coordinates": [ [ [ [ 2900920.838544337078929, 8610735.091225447133183 ], [ 3703810.838544337078929, 8610735.091225447133183 ], [ 3703810.838544337078929, 8059140.091225447133183 ], [ 2900920.838544337078929, 8059140.091225447133183 ], [ 2900920.838544337078929, 8610735.091225447133183 ] ], [ [ 3409981.94043006375432, 8423605.305827055126429 ], [ 3409605.038583132438362, 8424224.481286324560642 ], [ 3407034.440461800899357, 8422639.696572490036488 ], [ 3403701.658301270101219, 8420582.881623709574342 ], [ 3402529.526983910240233, 8420096.10810923203826 ], [ 3401575.266033151652664, 8419695.907461665570736 ], [ 3400141.158067356795073, 8418917.013822661712766 ], [ 3400095.18311768071726, 8418896.723173212260008 ], [ 3400064.726105010602623, 8418890.138210985809565 ], [ 3400034.870217596180737, 8418902.683127149939537 ], [ 3399994.260867376346141, 8418935.541087213903666 ], [ 3399972.765073716640472, 8418975.542280105873942 ], [ 3399947.083667205646634, 8419017.93217439763248 ], [ 3399917.227779791690409, 8419033.468500129878521 ], [ 3399870.050579612143338, 8419010.186346102505922 ], [ 3399834.817960791755468, 8418987.484642690047622 ], [ 3399775.106185957789421, 8418995.83314691670239 ], [ 3399687.92076080897823, 8418975.542280120775104 ], [ 3399594.757479003164917, 8418956.434540314599872 ], [ 3399538.61905981739983, 8418897.303543070331216 ], [ 3399458.012616569641978, 8418862.079641435295343 ], [ 3399426.353353398386389, 8418831.63275458291173 ], [ 3399379.17615321977064, 8418796.98952922038734 ], [ 3399295.575215669814497, 8418750.404469773173332 ], [ 3399213.766521918587387, 8418692.48047798871994 ], [ 3399170.173809341154993, 8418663.819989403709769 ], [ 3399150.470259472727776, 8418604.110996708273888 ], [ 3399132.547821461223066, 8418565.294831033796072 ], [ 3399075.229415679816157, 8418586.18723288923502 ], [ 3399014.315390347968787, 8418603.508328974246979 ], [ 3398986.841740033123642, 8418583.798889080062509 ], [ 3398931.304446099791676, 8418575.450852312147617 ], [ 3398908.617533887736499, 8418586.789899218827486 ], [ 3398851.287996155675501, 8418593.954935897141695 ], [ 3398798.734064577613026, 8418587.392565589398146 ], [ 3398737.83117118710652, 8418533.041186118498445 ], [ 3398672.141539693810046, 8418475.118905309587717 ], [ 3398591.52396449400112, 8418395.099856970831752 ], [ 3398521.058726847637445, 8418319.858192743733525 ], [ 3398497.770689377561212, 8418268.499670013785362 ], [ 3398495.377320321742445, 8418200.4239537473768 ], [ 3398477.466014260891825, 8418166.966644011437893 ], [ 3398421.928720326162875, 8418141.745423691347241 ], [ 3398419.323844242375344, 8418139.022429851815104 ], [ 3398417.553864339832217, 8418138.687635598704219 ], [ 3398346.086751276161522, 8418062.46654007025063 ], [ 3398259.502451372332871, 8417987.830894138664007 ], [ 3398058.704353958833963, 8417841.307074554264545 ], [ 3398051.546510702930391, 8417836.084497209638357 ], [ 3398035.839330559596419, 8417831.509165396913886 ], [ 3398023.29362395266071, 8417827.871220674365759 ], [ 3397956.735700433142483, 8417778.234657604247332 ], [ 3397809.838500436861068, 8417626.53721877746284 ], [ 3397733.395406139548868, 8417546.527397319674492 ], [ 3397639.04100578231737, 8417515.483374480158091 ], [ 3397591.273812295403332, 8417407.97967186383903 ], [ 3397596.049418439157307, 8417292.130958626046777 ], [ 3397565.592405763454735, 8417207.929214466363192 ], [ 3397534.545399793889374, 8417190.008850988000631 ], [ 3397524.393062237184495, 8417172.1108478307724 ], [ 3397496.91941191861406, 8417136.270338954403996 ], [ 3397462.877911645453423, 8417074.766111573204398 ], [ 3397082.488079734146595, 8415975.989107809960842 ], [ 3396965.446767156478018, 8415846.998449245467782 ], [ 3396828.089647529181093, 8415825.489069655537605 ], [ 3396622.671791253145784, 8415702.480723788961768 ], [ 3396527.126272334717214, 8415555.578474910929799 ], [ 3396496.068134407978505, 8415408.679158251732588 ], [ 3396511.597203344106674, 8415196.077487474307418 ], [ 3396467.759587884880602, 8415122.229461906477809 ], [ 3396459.611001160461456, 8415097.799538003280759 ], [ 3396448.412260388955474, 8415081.490656781941652 ], [ 3396438.226526987273246, 8415073.347384884953499 ], [ 3396422.953492856118828, 8415061.121338788419962 ], [ 3396415.829045446123928, 8415040.774387387558818 ], [ 3396418.879199490882456, 8415023.46167478710413 ], [ 3396410.730612767860293, 8415010.20944550447166 ], [ 3396396.481717952992767, 8414994.949332246556878 ], [ 3396404.619172723032534, 8414977.636727437376976 ], [ 3396404.61917272163555, 8414961.328112479299307 ], [ 3396388.33313122484833, 8414941.985383465886116 ], [ 3396368.985803734976798, 8414946.068100580945611 ], [ 3396344.54004356591031, 8414947.072047766298056 ], [ 3396330.291148751042783, 8414947.07204776071012 ], [ 3396322.142562031745911, 8414955.23748990893364 ], [ 3396295.670787130482495, 8414951.154767705127597 ], [ 3396277.33646700438112, 8414929.759555585682392 ], [ 3396248.827545423526317, 8414904.304019268602133 ], [ 3396216.233198534231633, 8414891.074314305558801 ], [ 3396184.674122908618301, 8414890.048065008595586 ], [ 3396164.302656102925539, 8414890.048065004870296 ], [ 3396126.62100848602131, 8414885.987688714638352 ], [ 3396108.297820309642702, 8414875.792138347402215 ], [ 3396096.074940225109458, 8414862.562484635040164 ], [ 3396063.491725282277912, 8414835.077006909996271 ], [ 3396039.045965112745762, 8414811.651964876800776 ], [ 3396014.611336892936379, 8414797.396190073341131 ], [ 3395971.842388549353927, 8414781.087974509224296 ], [ 3395958.606501098722219, 8414769.888646313920617 ], [ 3395933.147733565419912, 8414760.719487901777029 ], [ 3395909.726112713105977, 8414747.490041047334671 ], [ 3395868.994311049114913, 8414727.121647415682673 ], [ 3395876.118758453056216, 8414689.441383272409439 ], [ 3395855.758423591963947, 8414654.817651664838195 ], [ 3395825.201223385054618, 8414649.731189351528883 ], [ 3395811.965335931628942, 8414615.107644548639655 ], [ 3395773.270680947229266, 8414582.536675058305264 ], [ 3395743.737620051950216, 8414568.259035235270858 ], [ 3395688.756923571228981, 8414523.463120095431805 ], [ 3395670.055249124765396, 8414502.31454573944211 ], [ 3395640.533320175949484, 8414477.819753926247358 ], [ 3395621.08580514555797, 8414479.269807638600469 ], [ 3395591.563876200467348, 8414467.736311404034495 ], [ 3395588.691833337768912, 8414449.019515546038747 ], [ 3395568.52074161497876, 8414441.813896464183927 ], [ 3395565.648698749952018, 8414423.0971665289253 ], [ 3395572.127493109554052, 8414400.788849763572216 ], [ 3395563.923246641643345, 8414382.33992287889123 ], [ 3395560.605925815645605, 8414374.866670617833734 ], [ 3395549.807935212738812, 8414362.619476592168212 ], [ 3395535.403193110600114, 8414335.24740626104176 ], [ 3395524.761049791704863, 8414311.712414948269725 ], [ 3395517.402831451501697, 8414299.978409484028816 ], [ 3395510.200460401829332, 8414294.200645606964827 ], [ 3395496.519294988829643, 8414294.200645603239536 ], [ 3395478.518933335319161, 8414289.159048393368721 ], [ 3395456.199375440832227, 8414275.484291058033705 ], [ 3395427.389891237020493, 8414269.728854293003678 ], [ 3395387.069971689488739, 8414254.604123320430517 ], [ 3395360.431217552162707, 8414243.807136740535498 ], [ 3395363.314392362255603, 8414229.396307433024049 ], [ 3395363.314392359461635, 8414214.293967053294182 ], [ 3395357.548042739275843, 8414199.169349996373057 ], [ 3395356.958049437962472, 8414194.730124639347196 ], [ 3395353.952423186041415, 8414181.880924616008997 ], [ 3395348.90965025452897, 8414164.59253984503448 ], [ 3395338.824104391038418, 8414152.368003252893686 ], [ 3395328.02611378999427, 8414158.837189797312021 ], [ 3395312.185350257903337, 8414152.658001147210598 ], [ 3395309.302175445947796, 8414131.064342927187681 ], [ 3395322.270896115340292, 8414118.103716919198632 ], [ 3395335.22848483780399, 8414110.898421801626682 ], [ 3395334.037366283591837, 8414091.535620329901576 ], [ 3395296.979107814375311, 8414073.377463383600116 ], [ 3395274.192008058074862, 8414033.692900406196713 ], [ 3395250.258317544125021, 8414024.480044832453132 ], [ 3395234.729248587042093, 8414016.761777615174651 ], [ 3395195.155169628560543, 8414010.426558542996645 ], [ 3395183.666998184286058, 8413995.21313220448792 ], [ 3395173.859751047100872, 8413972.74996342509985 ], [ 3395168.015477780718356, 8413955.752060012891889 ], [ 3395161.213856895454228, 8413924.343963818624616 ], [ 3395146.575343857053667, 8413890.549180474132299 ], [ 3395116.329838220030069, 8413853.118571843951941 ], [ 3395094.73385701328516, 8413831.503485862165689 ], [ 3395058.733133706264198, 8413817.115770321339369 ], [ 3395011.199711158871651, 8413791.195646788924932 ], [ 3394975.198987850919366, 8413742.233184028416872 ], [ 3394956.875799669418484, 8413709.732995662838221 ], [ 3394936.315089725423604, 8413670.228841885924339 ], [ 3394900.41455396078527, 8413648.525068989023566 ], [ 3394881.590428073424846, 8413627.022113526239991 ], [ 3394862.042725498322397, 8413618.077437901869416 ], [ 3394840.001466330140829, 8413608.017479045316577 ], [ 3394806.338452330324799, 8413616.493718415498734 ], [ 3394763.591767882928252, 8413582.165009286254644 ], [ 3394729.717246850952506, 8413576.878536146134138 ], [ 3394712.941399594768882, 8413570.008357310667634 ], [ 3394698.692504777573049, 8413551.784569848328829 ], [ 3394711.394058670382947, 8413522.921037958934903 ], [ 3394710.314259606879205, 8413482.280306290835142 ], [ 3394703.835465240292251, 8413433.721394795924425 ], [ 3394702.332652110140771, 8413376.552999630570412 ], [ 3394673.745806881692261, 8413322.396224856376648 ], [ 3394657.192598605528474, 8413283.27333315834403 ], [ 3394622.594500881619751, 8413259.206389646977186 ], [ 3394598.52722697891295, 8413230.633966661989689 ], [ 3394534.128901585005224, 8413216.559691345319152 ], [ 3394457.541091952938586, 8413179.177119299769402 ], [ 3394434.43116567004472, 8413133.274435508996248 ], [ 3394453.934340443462133, 8413097.297459252178669 ], [ 3394489.033375871367753, 8413045.083202075213194 ], [ 3394516.217595505993813, 8413002.616176757961512 ], [ 3394535.030589437577873, 8412954.818762257695198 ], [ 3394540.329397193621844, 8412935.771255660802126 ], [ 3394554.088486247695982, 8412913.534357747063041 ], [ 3394577.443315404001623, 8412905.148142879828811 ], [ 3394607.032036042306572, 8412890.249252796173096 ], [ 3394595.376885359641165, 8412866.964221516624093 ], [ 3394589.465820399112999, 8412854.028124848380685 ], [ 3394593.072571899276227, 8412836.809769397601485 ], [ 3394617.718707146123052, 8412820.862753305584192 ], [ 3394616.549852491822094, 8412787.563710840418935 ], [ 3394622.906195410527289, 8412769.564893944188952 ], [ 3394623.262417778372765, 8412726.943335756659508 ], [ 3394603.826034691184759, 8412692.797200072556734 ], [ 3394594.085579246748239, 8412651.135114507749677 ], [ 3394567.858707225415856, 8412617.100844891741872 ], [ 3394530.800448756664991, 8412596.983676955103874 ], [ 3394493.74219028884545, 8412598.054212227463722 ], [ 3394466.224012178368866, 8412614.982071846723557 ], [ 3394430.223288871813565, 8412586.412149552255869 ], [ 3394395.291232674382627, 8412570.532584171742201 ], [ 3394372.00319521361962, 8412593.816677706316113 ], [ 3394316.944575093686581, 8412590.627377016469836 ], [ 3394310.599364117253572, 8412566.295065488666296 ], [ 3394319.059645412955433, 8412545.10750868730247 ], [ 3394295.771607948001474, 8412524.990537514910102 ], [ 3394271.426035321783274, 8412522.87179097905755 ], [ 3394266.12722756061703, 8412495.350444024428725 ], [ 3394311.656899271998554, 8412481.589809132739902 ], [ 3394305.300556349102408, 8412456.187343265861273 ], [ 3394277.77124628610909, 8412427.595735017210245 ], [ 3394252.368138497695327, 8412427.5957350153476 ], [ 3394244.954260414466262, 8412407.479085007682443 ], [ 3394261.897086902521551, 8412392.670411042869091 ], [ 3394258.713349465280771, 8412367.245949925854802 ], [ 3394241.158265772741288, 8412336.937430752441287 ], [ 3394219.573416515253484, 8412306.562130575999618 ], [ 3394179.431608150247484, 8412264.946834726259112 ], [ 3394134.447401934303343, 8412179.932824410498142 ], [ 3394116.202137397136539, 8412136.913254722952843 ], [ 3394105.571126028895378, 8412102.680650817230344 ], [ 3393814.248018725775182, 8411733.669978963211179 ], [ 3393810.084669770672917, 8411728.317932726815343 ], [ 3393779.738976591732353, 8411689.315013241022825 ], [ 3393818.144200890790671, 8411630.331573901697993 ], [ 3393836.267013980541378, 8411588.80930008366704 ], [ 3393830.645379696041346, 8411563.945107530802488 ], [ 3393811.520691180136055, 8411479.340582774952054 ], [ 3393759.26732222083956, 8411427.98517394810915 ], [ 3393698.353296883404255, 8411381.692025203257799 ], [ 3393628.48918449273333, 8411361.109952859580517 ], [ 3393548.472734550945461, 8411402.898532647639513 ], [ 3393454.719459449406713, 8411424.997071759775281 ], [ 3393411.427309497259557, 8411367.286798439919949 ], [ 3393363.9050188860856, 8411235.388857835903764 ], [ 3393349.355561442673206, 8411195.608100090175867 ], [ 3393329.473900394048542, 8411173.309563094750047 ], [ 3393299.406505944207311, 8411165.549688063561916 ], [ 3393292.126211246941239, 8411143.719508791342378 ], [ 3393285.346854259259999, 8411120.930565379559994 ], [ 3393267.880826162174344, 8411114.15187176130712 ], [ 3393242.66696150880307, 8411108.332011494785547 ], [ 3393239.271717037539929, 8411085.543177640065551 ], [ 3393276.129600420594215, 8411053.522978436201811 ], [ 3393252.852694902103394, 8411008.904534803703427 ], [ 3393215.972547617740929, 8410982.45914813503623 ], [ 3393190.602835675701499, 8410974.922453308477998 ], [ 3393167.77120812330395, 8410945.511578975245357 ], [ 3393122.018897427245975, 8410928.275389572605491 ], [ 3393089.78077290719375, 8410921.429980145767331 ], [ 3393028.744296135846525, 8410940.628359515219927 ], [ 3392929.992775898426771, 8410935.143103163689375 ], [ 3392816.146332713309675, 8410899.489036468788981 ], [ 3392731.109373730607331, 8410845.997111458331347 ], [ 3392670.751945848576725, 8410819.931366391479969 ], [ 3392648.810874216258526, 8410729.404345951974392 ], [ 3392587.084216593299061, 8410673.171126823872328 ], [ 3392521.249869763851166, 8410600.461007276549935 ], [ 3392478.725824296008795, 8410545.611162329092622 ], [ 3392395.058095048647374, 8410482.512049490585923 ], [ 3392359.391330210026354, 8410420.773547030985355 ], [ 3392236.461216561030596, 8410165.062598248943686 ], [ 3392235.648584276903421, 8410163.011417200788856 ], [ 3392231.240332443732768, 8410151.908294942229986 ], [ 3392227.845087975263596, 8410143.369158089160919 ], [ 3392223.247593005187809, 8410123.726951381191611 ], [ 3392203.57743899198249, 8410104.040206560865045 ], [ 3392174.489656056743115, 8410057.866858717054129 ], [ 3392160.808490646071732, 8410081.811861477792263 ], [ 3392114.622033934574574, 8410062.994739163666964 ], [ 3392065.006936914753169, 8410092.937173245474696 ], [ 3392003.424994641914964, 8410138.26351703517139 ], [ 3391933.738993440754712, 8410187.670218525454402 ], [ 3391863.340547495521605, 8410187.870878191664815 ], [ 3391793.866053320467472, 8410156.233605658635497 ], [ 3391775.899087516125292, 8410145.95542305894196 ], [ 3391766.069576478563249, 8410114.31833066418767 ], [ 3391733.98729924717918, 8410105.756942145526409 ], [ 3391716.031465388368815, 8410081.811861500144005 ], [ 3391689.081016677897424, 8410066.851799435913563 ], [ 3391676.25701134512201, 8410062.147523906081915 ], [ 3391674.242128558922559, 8410027.367191476747394 ], [ 3391696.016220946330577, 8410011.649210540577769 ], [ 3391688.758190149907023, 8409997.737153286114335 ], [ 3391662.141699912957847, 8409983.825122326612473 ], [ 3391671.670648316387087, 8409953.793952815234661 ], [ 3391691.173823091201484, 8409920.93147711083293 ], [ 3391709.920025332830846, 8409924.543220989406109 ], [ 3391723.834961675107479, 8409914.265361873432994 ], [ 3391723.834961670450866, 8409886.441641731187701 ], [ 3391726.896247666329145, 8409873.421603683382273 ], [ 3391735.033702438697219, 8409862.586452590301633 ], [ 3391745.965276428498328, 8409849.031388904899359 ], [ 3391745.742637445218861, 8409834.673749975860119 ], [ 3391732.284111012239009, 8409811.777386834844947 ], [ 3391721.007446600589901, 8409806.872625032439828 ], [ 3391677.103039450477809, 8409805.646435087546706 ], [ 3391672.427620840258896, 8409798.757480850443244 ], [ 3391673.64100328553468, 8409774.568161843344569 ], [ 3391667.585222989786416, 8409764.892456490546465 ], [ 3391668.19748018682003, 8409746.143026798963547 ], [ 3391683.314667027909309, 8409741.305191211402416 ], [ 3391692.387205522507429, 8409724.361644657328725 ], [ 3391702.661994515918195, 8409701.978387674316764 ], [ 3391688.758190120570362, 8409683.229118222370744 ], [ 3391663.355082333553582, 8409681.423305252566934 ], [ 3391653.069161388557404, 8409670.521554885432124 ], [ 3391629.747728075832129, 8409653.533583454787731 ], [ 3391612.404151419643313, 8409663.521257454529405 ], [ 3391588.014050999190658, 8409674.06629404053092 ], [ 3391578.62981792865321, 8409677.209743386134505 ], [ 3391572.896864157635719, 8409674.556761231273413 ], [ 3391572.451586194802076, 8409670.410085141658783 ], [ 3391571.995176280383021, 8409661.670861475169659 ], [ 3391575.735511168371886, 8409653.80111026391387 ], [ 3391570.815189677290618, 8409643.657392360270023 ], [ 3391563.045089221559465, 8409639.466145960614085 ], [ 3391552.04672353900969, 8409637.058409750461578 ], [ 3391538.710648546926677, 8409638.28457161039114 ], [ 3391530.35055479221046, 8409639.332382820546627 ], [ 3391522.814225268084556, 8409633.803508346900344 ], [ 3391522.146308323834091, 8409625.889199290424585 ], [ 3391523.704781193751842, 8409618.264718059450388 ], [ 3391534.569563487544656, 8409596.751239012926817 ], [ 3391534.525035690050572, 8409580.409954454749823 ], [ 3391526.743803286459297, 8409573.097631499171257 ], [ 3391527.066629806533456, 8409560.657781701534986 ], [ 3391534.647487128153443, 8409553.835937513038516 ], [ 3391536.428598976694047, 8409542.08722067438066 ], [ 3391526.45437260530889, 8409533.481910554692149 ], [ 3391515.021860906854272, 8409519.90515935793519 ], [ 3391507.986469090916216, 8409508.201083594933152 ], [ 3391500.628250752575696, 8409503.095883037894964 ], [ 3391497.066027048509568, 8409494.66896584816277 ], [ 3391498.268277545459569, 8409479.241936102509499 ], [ 3391486.19011279894039, 8409453.693775851279497 ], [ 3391466.130340567789972, 8409447.71917525306344 ], [ 3391448.719972212798893, 8409431.289048600941896 ], [ 3391425.36514305556193, 8409427.945065313950181 ], [ 3391428.326241505332291, 8409399.76649310067296 ], [ 3391407.565156482160091, 8409388.642228854820132 ], [ 3391388.284620682708919, 8409354.890556054189801 ], [ 3391390.511010494548827, 8409322.632662011310458 ], [ 3391409.791546291206032, 8409325.976597463712096 ], [ 3391438.712349983863533, 8409301.49902506172657 ], [ 3391466.887313089799136, 8409285.938643388450146 ], [ 3391500.62825073627755, 8409298.913056770339608 ], [ 3391528.814345789141953, 8409282.215748924762011 ], [ 3391555.876113987993449, 8409289.639246931299567 ], [ 3391595.917734808754176, 8409313.358822282403708 ], [ 3391633.376743445638567, 8409337.100767001509666 ], [ 3391653.024633559398353, 8409313.737801076844335 ], [ 3391680.832242344506085, 8409301.142339713871479 ], [ 3391688.624606696888804, 8409279.250810358673334 ], [ 3391706.046106994152069, 8409249.601490480825305 ], [ 3391696.405839092563838, 8409231.432981291785836 ], [ 3391720.139154518488795, 8409216.229428920894861 ], [ 3391714.57317998027429, 8409191.016568906605244 ], [ 3391728.476984372362494, 8409177.106062415987253 ], [ 3391723.378551693633199, 8409136.779117625206709 ], [ 3391696.494894676376134, 8409119.636331841349602 ], [ 3391713.181686335243285, 8409087.201131146401167 ], [ 3391724.302503458224237, 8409055.68004897236824 ], [ 3391770.021418305579573, 8409039.384549515321851 ], [ 3391734.098618638701737, 8409004.05175050534308 ], [ 3391752.232563678175211, 8408959.222809210419655 ], [ 3391771.513099471107125, 8408947.363582482561469 ], [ 3391772.103092771954834, 8408928.37102609500289 ], [ 3391740.66646858304739, 8408906.123939020559192 ], [ 3391724.057600563392043, 8408879.128816433250904 ], [ 3391704.777064764406532, 8408844.420947136357427 ], [ 3391664.724311994854361, 8408837.599766630679369 ], [ 3391624.615899478551, 8408822.53077588789165 ], [ 3391595.884338916279376, 8408790.096884177997708 ], [ 3391570.392175536137074, 8408786.84235723502934 ], [ 3391560.651720093563199, 8408777.101076265797019 ], [ 3391534.703146801330149, 8408757.64084418118 ], [ 3391542.117024882696569, 8408740.030827410519123 ], [ 3391529.604714123066515, 8408722.888965474441648 ], [ 3391491.600239984225482, 8408736.776322599500418 ], [ 3391469.815015642438084, 8408721.484627448022366 ], [ 3391480.01188099430874, 8408686.732919419184327 ], [ 3391489.251398721709847, 8408664.441980740055442 ], [ 3391467.53296607779339, 8408649.952906798571348 ], [ 3391450.122597723733634, 8408618.634313628077507 ], [ 3391440.849684142973274, 8408593.044558472931385 ], [ 3391412.674721035175025, 8408588.965363560244441 ], [ 3391399.327514094300568, 8408568.948363374918699 ], [ 3391414.901110847014934, 8408547.059011209756136 ], [ 3391429.728867013007402, 8408542.979841774329543 ], [ 3391453.217279558535665, 8408540.995984241366386 ], [ 3391470.44953672401607, 8408537.206594914197922 ], [ 3391486.991613049060106, 8408538.521735694259405 ], [ 3391498.591103985905647, 8408541.642409665510058 ], [ 3391509.890032297931612, 8408546.992139551788568 ], [ 3391517.782584191299975, 8408566.875336386263371 ], [ 3391530.083387915976346, 8408551.962933730334044 ], [ 3391543.530782395973802, 8408521.714700039476156 ], [ 3391560.673983967863023, 8408500.940008724108338 ], [ 3391552.803695971611887, 8408485.782545618712902 ], [ 3391542.929657142143697, 8408483.531219199299812 ], [ 3391514.287152176257223, 8408491.956979030743241 ], [ 3391507.073649174999446, 8408485.537351619452238 ], [ 3391513.741686668246984, 8408472.898726515471935 ], [ 3391540.124405972193927, 8408458.276287853717804 ], [ 3391553.427085116039962, 8408450.006598357111216 ], [ 3391571.839328883215785, 8408437.12284186296165 ], [ 3391592.288719331845641, 8408421.31909522600472 ], [ 3391605.190648306626827, 8408400.165755424648523 ], [ 3391596.429804383777082, 8408385.142240149900317 ], [ 3391594.058699228335172, 8408364.367934223264456 ], [ 3391601.773139935452491, 8408345.978710200637579 ], [ 3391613.483950357418507, 8408310.782977979630232 ], [ 3391601.59502874314785, 8408279.421248169615865 ], [ 3391588.837815103586763, 8408255.392948552966118 ], [ 3391597.442811734508723, 8408233.437659867107868 ], [ 3391614.652805003337562, 8408226.617045445367694 ], [ 3391623.847794939298183, 8408229.002030812203884 ], [ 3391642.23777480982244, 8408229.581560088321567 ], [ 3391646.97998511325568, 8408211.482436653226614 ], [ 3391641.937212181277573, 8408192.20201544649899 ], [ 3391649.050527638755739, 8408183.018757434561849 ], [ 3391661.807741276919842, 8408172.631882321089506 ], [ 3391673.084405687637627, 8408157.519673878327012 ], [ 3391681.678270374424756, 8408163.738410761579871 ], [ 3391693.544928086455911, 8408161.66549788415432 ], [ 3391708.372684251517057, 8408146.531022625043988 ], [ 3391715.797694281674922, 8408130.817056937143207 ], [ 3391715.797694281674922, 8408119.538685204461217 ], [ 3391698.587701011449099, 8408104.114536831155419 ], [ 3391708.673246871680021, 8408084.544637862592936 ], [ 3391734.187674147076905, 8408073.86814315803349 ], [ 3391744.863213309086859, 8408050.130271999165416 ], [ 3391782.055055159609765, 8408001.807781094685197 ], [ 3391768.585396777372807, 8407963.515552768483758 ], [ 3391735.211813451722264, 8407948.381484847515821 ], [ 3391719.949911268427968, 8407921.412162566557527 ], [ 3391747.824311749078333, 8407905.988429283723235 ], [ 3391746.488477857783437, 8407883.454680493101478 ], [ 3391700.146173856221139, 8407831.63400655426085 ], [ 3391676.346066734753549, 8407806.314446471631527 ], [ 3391670.112175251357257, 8407779.32335638999939 ], [ 3391643.106066797394305, 8407782.555149737745523 ], [ 3391617.580507565755397, 8407757.815250582993031 ], [ 3391617.881070192437619, 8407742.280419453978539 ], [ 3391631.30620077252388, 8407716.270237576216459 ], [ 3391604.3668840136379, 8407702.295653395354748 ], [ 3391568.711251127067953, 8407686.716363525018096 ], [ 3391558.224955096375197, 8407665.788013156503439 ], [ 3391543.72002545138821, 8407652.571311356499791 ], [ 3391522.914412631653249, 8407631.464755823835731 ], [ 3391504.82499538268894, 8407598.545782079920173 ], [ 3391492.947205718141049, 8407585.752666121348739 ], [ 3391489.718940486200154, 8407566.607609026134014 ], [ 3391483.741083830595016, 8407545.65731256082654 ], [ 3391468.534841391723603, 8407513.050746347755194 ], [ 3391452.605022265575826, 8407496.112327393144369 ], [ 3391460.909456272143871, 8407473.579833090305328 ], [ 3391455.265558090060949, 8407447.526026044040918 ], [ 3391441.25043420214206, 8407417.482913911342621 ], [ 3391450.423160238191485, 8407392.855676779523492 ], [ 3391456.156114012002945, 8407377.477624783292413 ], [ 3391446.070568146649748, 8407338.92120086401701 ], [ 3391441.6511843604967, 8407309.012252708896995 ], [ 3391413.442825403064489, 8407290.870818765833974 ], [ 3391402.054841501172632, 8407273.821477496996522 ], [ 3391409.101365260779858, 8407240.993249215185642 ], [ 3391404.79330096906051, 8407234.218127321451902 ], [ 3391391.267982841469347, 8407212.956765534356236 ], [ 3391435.228049736004323, 8407222.740550167858601 ], [ 3391592.144003891851753, 8407284.608245676383376 ], [ 3391628.966959296260029, 8407281.339966058731079 ], [ 3391666.438632010947913, 8407272.662569442763925 ], [ 3391719.237466465681791, 8407217.726080326363444 ], [ 3391742.547767823096365, 8407173.554320264607668 ], [ 3391726.473233347292989, 8407056.885986212641001 ], [ 3391723.534398785792291, 8406981.247561307623982 ], [ 3391702.96255689393729, 8406923.104114742949605 ], [ 3391664.260595848783851, 8406868.255290353670716 ], [ 3391602.908598600421101, 8406779.184902291744947 ], [ 3391559.126642890274525, 8406754.024957241490483 ], [ 3391364.29527019103989, 8406704.685863787308335 ], [ 3391294.052671529818326, 8406668.339164076372981 ], [ 3391260.612296502571553, 8406591.902484033256769 ], [ 3391228.841713833622634, 8406444.045444065704942 ], [ 3391140.943843933753669, 8406342.541689421981573 ], [ 3391107.258566027507186, 8406256.058474769815803 ], [ 3391065.680736226029694, 8406142.346069606021047 ], [ 3391045.66549178538844, 8406081.936372322961688 ], [ 3391062.44133903644979, 8406035.721394469961524 ], [ 3391105.44405830418691, 8405992.448037875816226 ], [ 3391156.550836502574384, 8405981.640879852697253 ], [ 3391362.102276154793799, 8405957.664643643423915 ], [ 3391575.913622016552836, 8405899.195041814818978 ], [ 3391719.649348460603505, 8405871.765293342992663 ], [ 3391749.761270702816546, 8405849.081793008372188 ], [ 3391748.837318926118314, 8405805.809533335268497 ], [ 3391720.551036325283349, 8405747.608522314578295 ], [ 3391666.23825678601861, 8405704.158603463321924 ], [ 3391575.468344035092741, 8405698.053353359922767 ], [ 3391473.299315434414893, 8405717.171270221471786 ], [ 3391405.372162183281034, 8405701.974973289296031 ], [ 3391365.709027628879994, 8405665.09845937974751 ], [ 3391322.728572246152908, 8405592.081278553232551 ], [ 3391290.178753147833049, 8405512.224440174177289 ], [ 3391277.577386789023876, 8405440.567925158888102 ], [ 3391288.898578993044794, 8405387.093368344008923 ], [ 3391212.700387583579868, 8405436.178540658205748 ], [ 3391166.235632152762264, 8405471.115440040826797 ], [ 3391119.459182146005332, 8405494.087432967498899 ], [ 3391073.228197639342397, 8405497.251379420980811 ], [ 3391016.522049055434763, 8405491.369113873690367 ], [ 3390967.530341181438416, 8405480.896910332143307 ], [ 3390926.308733754791319, 8405440.456519447267056 ], [ 3390880.133408992551267, 8405416.571169771254063 ], [ 3390758.116115191951394, 8405424.280425289645791 ], [ 3390702.834856090135872, 8405438.406654322519898 ], [ 3390672.823121384717524, 8405432.45759242027998 ], [ 3390646.251158945728093, 8405417.217320945113897 ], [ 3390596.05720056919381, 8405403.870968775823712 ], [ 3390561.269859709311277, 8405384.308245854452252 ], [ 3390557.574052616022527, 8405369.157197754830122 ], [ 3390560.980429029557854, 8405333.663761576637626 ], [ 3390553.989565009251237, 8405319.894225995987654 ], [ 3390537.62559987232089, 8405318.980714028701186 ], [ 3390507.84763609804213, 8405334.46587124094367 ], [ 3390483.156973053701222, 8405333.864288989454508 ], [ 3390470.633530342951417, 8405330.722693558782339 ], [ 3390446.521728649735451, 8405343.222240744158626 ], [ 3390426.539880062453449, 8405368.733860105276108 ], [ 3390411.266845935955644, 8405371.541257681325078 ], [ 3390393.255352333188057, 8405363.832057386636734 ], [ 3390375.444233812857419, 8405332.839371187612414 ], [ 3390368.330918348859996, 8405315.794563420116901 ], [ 3390333.922063758596778, 8405282.462608931586146 ], [ 3390329.157589555718005, 8405271.812457423657179 ], [ 3390322.445024262648076, 8405256.126906679943204 ], [ 3390309.253664608579129, 8405244.808376621454954 ], [ 3390292.132726930547506, 8405238.970873817801476 ], [ 3390276.904220597818494, 8405240.419108817353845 ], [ 3390262.42155485227704, 8405248.373266106471419 ], [ 3390247.415687502827495, 8405249.799222378060222 ], [ 3390234.057348613627255, 8405246.880468428134918 ], [ 3390205.693142370786518, 8405231.350934388116002 ], [ 3390194.694776685908437, 8405235.829318894073367 ], [ 3390189.162197994999588, 8405241.934185732156038 ], [ 3390188.895031219348311, 8405252.071840772405267 ], [ 3390194.193838979583234, 8405267.623699136078358 ], [ 3390201.240362747572362, 8405301.000147894024849 ], [ 3390202.854495364241302, 8405314.056663682684302 ], [ 3390201.240362749900669, 8405323.214063135907054 ], [ 3390188.972954869735986, 8405329.274440823122859 ], [ 3390171.117308555636555, 8405329.497248919680715 ], [ 3390152.849780124146491, 8405331.970419257879257 ], [ 3390128.159117077942938, 8405336.38202247209847 ], [ 3390103.12336361175403, 8405350.329835874959826 ], [ 3390090.410677768755704, 8405353.805652908980846 ], [ 3390080.592298686504364, 8405351.087385607883334 ], [ 3390063.348909570369869, 8405336.827639106661081 ], [ 3390051.482251856476068, 8405331.680768642574549 ], [ 3390038.85862160474062, 8405336.783077448606491 ], [ 3390035.886391204316169, 8405347.321918610483408 ], [ 3390033.615473593585193, 8405373.546542331576347 ], [ 3390024.899157473817468, 8405406.99031438678503 ], [ 3390007.421997427474707, 8405426.664503086358309 ], [ 3389994.820631076116115, 8405423.990771073848009 ], [ 3389981.005882271099836, 8405399.303357996046543 ], [ 3389972.645788518246263, 8405390.346392851322889 ], [ 3389963.36174298916012, 8405387.873202906921506 ], [ 3389953.843926530797035, 8405392.151153612881899 ], [ 3389940.997657299973071, 8405394.824874060228467 ], [ 3389932.281341174151748, 8405390.636045783758163 ], [ 3389917.7764115286991, 8405368.511050846427679 ], [ 3389901.534897827543318, 8405331.257433146238327 ], [ 3389886.64034996367991, 8405311.939991477876902 ], [ 3389868.717911953106523, 8405303.584712343290448 ], [ 3389796.326847123447806, 8405308.553317196667194 ], [ 3389662.042145442217588, 8405317.799832914024591 ], [ 3389633.054550056345761, 8405325.241615438833833 ], [ 3389582.827195837628096, 8405388.229698723182082 ], [ 3389526.477269627153873, 8405425.327636985108256 ], [ 3389482.840029259212315, 8405427.266092948615551 ], [ 3389460.208776790648699, 8405423.032684030011296 ], [ 3389445.759506891015917, 8405409.775445524603128 ], [ 3389439.102601345162839, 8405393.889071822166443 ], [ 3389447.440431197639555, 8405370.605458419770002 ], [ 3389468.613398336339742, 8405356.858134642243385 ], [ 3389481.971737224142998, 8405342.642938667908311 ], [ 3389482.36135543929413, 8405321.899496616795659 ], [ 3389472.476184659171849, 8405308.798405423760414 ], [ 3389428.004048108123243, 8405295.563653307035565 ], [ 3389405.127892760094255, 8405284.245062625035644 ], [ 3389396.979306033346802, 8405249.041683111339808 ], [ 3389385.268495605327189, 8405217.893516782671213 ], [ 3389368.548308096360415, 8405214.105837440118194 ], [ 3389344.881784362252802, 8405213.058655858039856 ], [ 3389337.746205005794764, 8405201.272303119301796 ], [ 3389332.124570721760392, 8405183.938155105337501 ], [ 3389302.19075966021046, 8405164.977584931999445 ], [ 3389272.657698766794056, 8405156.11002597399056 ], [ 3389257.88560234149918, 8405132.648922752588987 ], [ 3389247.722132836468518, 8405134.67642255499959 ], [ 3389218.645481857471168, 8405158.159812521189451 ], [ 3389202.070009685121477, 8405143.945000162348151 ], [ 3389203.973572975024581, 8405127.702716805040836 ], [ 3389214.493264846969396, 8405090.450317459180951 ], [ 3389206.845615832600743, 8405062.733941674232483 ], [ 3389164.187986974604428, 8405019.198944674804807 ], [ 3389137.860927413217723, 8405004.449684731662273 ], [ 3389116.420793496537954, 8405000.506156491115689 ], [ 3389056.920525696128607, 8405019.689101861789823 ], [ 3389042.337672412395477, 8405048.697553222998977 ], [ 3389027.27614531526342, 8405058.032862566411495 ], [ 3388993.735582754015923, 8405052.485147470608354 ], [ 3388968.299079118762165, 8405031.94304203428328 ], [ 3388970.8482954534702, 8404995.8496767077595 ], [ 3388960.862937130965292, 8404982.548647802323103 ], [ 3388960.128228492103517, 8404963.878232356160879 ], [ 3388942.606540649197996, 8404957.818155413493514 ], [ 3388907.52976911701262, 8404977.246066763997078 ], [ 3388891.989568209741265, 8404982.437249004840851 ], [ 3388886.735288247000426, 8404975.285449532791972 ], [ 3388889.874497886281461, 8404964.479784389957786 ], [ 3388897.355167661327869, 8404956.035780800506473 ], [ 3388898.746661295183003, 8404946.611482165753841 ], [ 3388882.950425556395203, 8404927.361888393759727 ], [ 3388845.458021074067801, 8404913.19208069331944 ], [ 3388837.587733077816665, 8404895.167946463450789 ], [ 3388856.38959506386891, 8404886.233874032273889 ], [ 3388881.981945985928178, 8404884.473796201869845 ], [ 3388899.993439584970474, 8404877.500327417626977 ], [ 3388902.46473227860406, 8404863.998997686430812 ], [ 3388890.297511939890683, 8404848.069242797791958 ], [ 3388866.764571597333997, 8404840.850735845044255 ], [ 3388857.82561648869887, 8404825.388895995914936 ], [ 3388827.902937377803028, 8404826.235508864745498 ], [ 3388782.473453204613179, 8404833.298046335577965 ], [ 3388728.316520961001515, 8404830.424016075208783 ], [ 3388708.11203338811174, 8404811.865382581949234 ], [ 3388699.328925566747785, 8404783.771309707313776 ], [ 3388684.490037450566888, 8404770.069639777764678 ], [ 3388659.777110503055155, 8404770.00280243344605 ], [ 3388627.973131999839097, 8404782.434560306370258 ], [ 3388619.345871469005942, 8404775.528025565668941 ], [ 3388617.553627666085958, 8404747.745998028665781 ], [ 3388621.149247212801129, 8404722.592993751168251 ], [ 3388589.59017158485949, 8404675.072096165269613 ], [ 3388583.85721780359745, 8404597.3862260337919 ], [ 3388593.965027560014278, 8404549.843858052045107 ], [ 3388598.651578119024634, 8404534.271237257868052 ], [ 3388596.503111944999546, 8404509.876425381749868 ], [ 3388593.542013489641249, 8404491.363156346604228 ], [ 3388589.200553348753601, 8404478.15215165913105 ], [ 3388582.031578143592924, 8404470.28793921135366 ], [ 3388571.912636433728039, 8404465.386734573170543 ], [ 3388536.179079906083643, 8404459.572127848863602 ], [ 3388260.952770995907485, 8404428.872862715274096 ], [ 3388252.447961901314557, 8404424.305856699123979 ], [ 3388223.337915071286261, 8404416.285755440592766 ], [ 3388189.574713531881571, 8404435.199841583147645 ], [ 3388175.826756427064538, 8404442.596175879240036 ], [ 3388172.386984162963927, 8404447.541921628639102 ], [ 3388163.893307021819055, 8404459.794909650459886 ], [ 3388147.551605780608952, 8404459.059729795902967 ], [ 3388133.402898505795747, 8404454.381314245983958 ], [ 3388112.897848311346024, 8404453.757525734603405 ], [ 3388039.49377611791715, 8404460.953375034034252 ], [ 3388013.689918167889118, 8404502.36863199621439 ], [ 3387979.915584679692984, 8404539.306158289313316 ], [ 3387962.972758189309388, 8404545.053992670029402 ], [ 3387941.454700629692525, 8404541.400329988449812 ], [ 3387900.24422515463084, 8404513.218175685033202 ], [ 3387862.818612365517765, 8404500.207636499777436 ], [ 3387818.758357928600162, 8404491.0512605458498 ], [ 3387782.980273603927344, 8404489.981903521344066 ], [ 3387725.550548331812024, 8404488.244198670610785 ], [ 3387648.295953819062561, 8404485.187946816906333 ], [ 3388243.867341208737344, 8402896.997580444440246 ], [ 3388220.1692353351973, 8402869.889046050608158 ], [ 3388406.604820882901549, 8401544.124882163479924 ], [ 3388768.350910304579884, 8399702.07571629434824 ], [ 3389031.245888202916831, 8395450.612057032063603 ], [ 3389908.779927742667496, 8395396.251541309058666 ], [ 3390591.360808307304978, 8395313.524473575875163 ], [ 3392457.209059006068856, 8395199.288866382092237 ], [ 3392471.488509904593229, 8394199.727303506806493 ], [ 3392552.405398327857256, 8394025.993984244763851 ], [ 3393037.906728866975754, 8394371.080714283511043 ], [ 3393394.893001322168857, 8394585.272477757185698 ], [ 3393869.570455782115459, 8394155.802399912849069 ], [ 3393881.890902427490801, 8394120.209998492151499 ], [ 3394001.59612055728212, 8394118.072405310347676 ], [ 3394279.483234072569758, 8394224.952064353972673 ], [ 3394491.104958979878575, 8394257.015962067991495 ], [ 3394730.515395239461213, 8394308.318198408931494 ], [ 3394850.220613368786871, 8394457.949721068143845 ], [ 3395172.603474760893732, 8394552.152505241334438 ], [ 3395172.684638150036335, 8394551.953758994117379 ], [ 3395262.045240686275065, 8394572.080020826309919 ], [ 3395285.567294075619429, 8393973.801706362515688 ], [ 3394732.652988420799375, 8392921.020224010571837 ], [ 3394843.990405827760696, 8392673.161925734952092 ], [ 3394568.05831349035725, 8392495.639181016013026 ], [ 3394815.526948481798172, 8392074.50834603048861 ], [ 3394855.185442944057286, 8392104.238781731575727 ], [ 3394868.755288867745548, 8392126.235002938657999 ], [ 3394871.794310969300568, 8392155.748741636052728 ], [ 3394858.948041738476604, 8392211.44039879925549 ], [ 3394859.949917159043252, 8392223.739771209657192 ], [ 3394865.649475086014718, 8392236.951054871082306 ], [ 3394878.150653896853328, 8392246.559276048094034 ], [ 3394929.368751589674503, 8392274.672291457653046 ], [ 3394965.013252526521683, 8392303.87524463608861 ], [ 3395106.823151784017682, 8392319.889099016785622 ], [ 3395143.469528138171881, 8392345.889445070177317 ], [ 3395153.165455783251673, 8392362.392706342041492 ], [ 3395151.23962859576568, 8392377.294604737311602 ], [ 3395146.085536174476147, 8392384.967982100322843 ], [ 3395115.272301141172647, 8392413.259459838271141 ], [ 3395099.197766679339111, 8392432.209472663700581 ], [ 3395088.065817604772747, 8392458.655053254216909 ], [ 3395084.436802210751921, 8392485.478842573240399 ], [ 3395085.661316614132375, 8392536.324203772470355 ], [ 3395087.609407705720514, 8392589.14948046207428 ], [ 3395084.436802223324776, 8392624.025491768494248 ], [ 3395049.08173196669668, 8392669.889477347955108 ], [ 3394982.200981935020536, 8392729.121613506227732 ], [ 3394817.860017762519419, 8392824.67697593010962 ], [ 3394791.109944143332541, 8392889.649102231487632 ], [ 3394800.805871791671962, 8392934.891927774995565 ], [ 3394830.027238114271313, 8392969.769575867801905 ], [ 3394836.962442393414676, 8393035.743945956230164 ], [ 3394877.41594533296302, 8393081.009912498295307 ], [ 3394902.896976766176522, 8393124.363180024549365 ], [ 3394924.682201109826565, 8393186.913341404870152 ], [ 3394942.070305568631738, 8393245.081909026950598 ], [ 3394974.55333297373727, 8393295.710068689659238 ], [ 3395012.769314144738019, 8393310.057743107900023 ], [ 3395049.493614140897989, 8393307.922273514792323 ], [ 3395083.290211529005319, 8393305.94251579977572 ], [ 3395150.126433768309653, 8393283.141973726451397 ], [ 3395204.116386777255684, 8393269.639637207612395 ], [ 3395269.260552758350968, 8393274.377686576917768 ], [ 3395432.243419159203768, 8393335.060578931123018 ], [ 3395539.789179167244583, 8393345.159613201394677 ], [ 3395627.631389308720827, 8393336.373007705435157 ], [ 3395704.842588086612523, 8393343.891672005876899 ], [ 3395885.636573004070669, 8393383.553865423426032 ], [ 3396001.876385240349919, 8393426.019120212644339 ], [ 3396046.749271959066391, 8393433.026244448497891 ], [ 3396090.531227669678628, 8393462.923382760956883 ], [ 3396122.068039403297007, 8393539.357392115518451 ], [ 3396147.860765411052853, 8393569.944565068930387 ], [ 3396205.190303144976497, 8393574.705052863806486 ], [ 3396276.846659334842116, 8393579.487789019942284 ], [ 3396297.874911132734269, 8393550.835909033194184 ], [ 3396297.318313671275973, 8393446.439900854602456 ], [ 3396320.828990110196173, 8393407.822873136028647 ], [ 3396404.47445545066148, 8393361.976537941023707 ], [ 3396421.517469482962042, 8393364.556916043162346 ], [ 3396434.497322106268257, 8393397.946200389415026 ], [ 3396441.187623507808894, 8393491.597165828570724 ], [ 3396431.636411206796765, 8393541.270477019250393 ], [ 3396398.05132085736841, 8393609.25204942189157 ], [ 3396415.840175483375788, 8393695.186459628865123 ], [ 3396468.293919527437538, 8393757.963926179334521 ], [ 3396472.579719922039658, 8393767.351672690361738 ], [ 3396468.104676395189017, 8393782.434380520135164 ], [ 3396457.573852573987097, 8393799.897436274215579 ], [ 3396412.689833912067115, 8393861.00733432546258 ], [ 3396404.630302785430104, 8393885.433638520538807 ], [ 3396396.281340980436653, 8393913.908849468454719 ], [ 3396429.721716006286442, 8393988.434336617588997 ], [ 3396487.719170687254518, 8394044.785004025325179 ], [ 3396498.539425191003829, 8394085.541065253317356 ], [ 3396487.040121804922819, 8394155.77461033500731 ], [ 3396455.258407203480601, 8394239.334936264902353 ], [ 3396452.831642309669405, 8394263.940473802387714 ], [ 3396465.266029427293688, 8394281.44916583225131 ], [ 3396484.635620815679431, 8394288.946547320112586 ], [ 3396506.676879981532693, 8394281.716134775429964 ], [ 3396536.733142479322851, 8394246.409576071426272 ], [ 3396564.685466596391052, 8394161.291876319795847 ], [ 3396582.930731127038598, 8394152.081603953614831 ], [ 3396596.110958832781762, 8394156.953703122213483 ], [ 3396626.445520063862205, 8394207.410152463242412 ], [ 3396635.351079328451306, 8394266.543415216729045 ], [ 3396653.752191149163991, 8394290.437125550583005 ], [ 3396676.09401294356212, 8394298.268228115513921 ], [ 3396812.215486218687147, 8394279.291167221963406 ], [ 3397001.770315053407103, 8394264.719131369143724 ], [ 3397046.698861512821168, 8394239.290441673249006 ], [ 3397072.947997427545488, 8394203.04970490001142 ], [ 3397104.484809152316302, 8394192.682528771460056 ], [ 3397119.90255862288177, 8394221.826344296336174 ], [ 3397208.423817666713148, 8394288.434856319800019 ], [ 3397215.848827700596303, 8394303.451888618990779 ], [ 3397188.698003912810236, 8394348.525416813790798 ], [ 3397185.736905461642891, 8394372.196916211396456 ], [ 3397194.976423195563257, 8394383.943703545257449 ], [ 3397217.641071510035545, 8394385.478796457871795 ], [ 3397267.144849041011184, 8394360.605881154537201 ], [ 3397389.451573505997658, 8394239.913365634158254 ], [ 3397418.628412031102926, 8394238.75650685466826 ], [ 3397437.831024183426052, 8394251.837920607998967 ], [ 3397455.753462200984359, 8394327.901907436549664 ], [ 3397540.623441955074668, 8394472.200941532850266 ], [ 3397565.559007882606238, 8394490.444313930347562 ], [ 3397593.322088872548193, 8394483.992384381592274 ], [ 3397608.149845035746694, 8394449.819500030949712 ], [ 3397614.495056003797799, 8394393.554725276306272 ], [ 3397626.061151091009378, 8394377.469619547948241 ], [ 3397688.233086667954922, 8394367.191188637167215 ], [ 3397735.632925827521831, 8394380.562050702050328 ], [ 3397772.490809214767069, 8394405.79099796526134 ], [ 3397769.262543986551464, 8394458.117978850379586 ], [ 3397738.85005912091583, 8394509.711144065484405 ], [ 3397748.267688040155917, 8394534.962781822308898 ], [ 3397798.250139385927469, 8394564.285937627777457 ], [ 3397840.87437239754945, 8394623.488810498267412 ], [ 3397845.716770247090608, 8394659.153153341263533 ], [ 3397822.784955157432705, 8394714.574505344033241 ], [ 3397834.250862709246576, 8394767.126168455928564 ], [ 3397882.029188147746027, 8394888.472550174221396 ], [ 3397908.478699149098247, 8394912.368277858942747 ], [ 3397940.694559768773615, 8394910.454836845397949 ], [ 3397970.082905328366905, 8394961.60618088953197 ], [ 3398130.449763706419617, 8395134.976057743653655 ], [ 3398154.338926429860294, 8395244.869574854150414 ], [ 3398187.400815184693784, 8395293.642440574243665 ], [ 3398235.969508998561651, 8395330.689563961699605 ], [ 3398278.037144551053643, 8395351.671891262754798 ], [ 3398300.545945584308356, 8395401.91401650570333 ], [ 3398291.117184720933437, 8395419.959433885291219 ], [ 3398269.131585299037397, 8395431.930400997400284 ], [ 3398240.032670420128852, 8395431.730143023654819 ], [ 3398211.868839262519032, 8395449.241610897704959 ], [ 3398203.074599497020245, 8395472.160113321617246 ], [ 3398203.152523143216968, 8395494.58916337043047 ], [ 3398211.156394529156387, 8395530.324477447196841 ], [ 3398226.796782980673015, 8395537.55611564218998 ], [ 3398249.172000619117171, 8395534.552203534170985 ], [ 3398285.92969646025449, 8395513.814117765054107 ], [ 3398312.056380935944617, 8395514.058880235999823 ], [ 3398340.476246924605221, 8395541.605836130678654 ], [ 3398342.26849072938785, 8395569.286402847617865 ], [ 3398311.989589252043515, 8395612.721070908010006 ], [ 3398313.882020595949143, 8395639.000059485435486 ], [ 3398331.637479371856898, 8395664.96761954203248 ], [ 3398334.6987653686665, 8395685.617124246433377 ], [ 3398316.754063463304192, 8395707.868810493499041 ], [ 3398319.659502172842622, 8395732.100973263382912 ], [ 3398334.476126390509307, 8395741.491235926747322 ], [ 3398373.181913324166089, 8395750.792503144592047 ], [ 3398440.496809381991625, 8395823.534158378839493 ], [ 3398547.986909648403525, 8395902.217895505949855 ], [ 3398579.512589429970831, 8395944.25262326747179 ], [ 3398598.893312769941986, 8395964.769395928829908 ], [ 3398686.434960290323943, 8395982.860697317868471 ], [ 3398722.836433767341077, 8396019.354970647022128 ], [ 3398717.392910672351718, 8396072.383252244442701 ], [ 3398676.972803593613207, 8396155.408995350822806 ], [ 3398656.356433915439993, 8396229.645617073401809 ], [ 3398674.768677691463381, 8396311.69397678039968 ], [ 3398692.746775446925312, 8396322.108642721548676 ], [ 3398711.136755318380892, 8396325.201890356838703 ], [ 3398740.257934093009681, 8396293.490600289776921 ], [ 3398750.265556305646896, 8396246.491381490603089 ], [ 3398818.994209885131568, 8396204.276903195306659 ], [ 3398849.273111368063837, 8396201.762289818376303 ], [ 3398909.942233826965094, 8396265.050696261227131 ], [ 3398932.08368053752929, 8396291.087223868817091 ], [ 3398933.241403244435787, 8396319.015396375209093 ], [ 3398893.311101919971406, 8396365.948316808789968 ], [ 3398865.080479074735194, 8396440.075790792703629 ], [ 3398871.737384622450918, 8396471.409393472597003 ], [ 3398848.081992848776281, 8396548.297456361353397 ], [ 3398844.619956687092781, 8396568.348570831120014 ], [ 3398846.556915829423815, 8396596.856409136205912 ], [ 3398859.39205311331898, 8396620.624152574688196 ], [ 3398883.793285485357046, 8396642.98993624560535 ], [ 3398914.895951200276613, 8396675.17007846198976 ], [ 3398939.063412644900382, 8396718.010389132425189 ], [ 3398944.061657782644033, 8396763.610557211562991 ], [ 3398924.981497075408697, 8396830.019506031647325 ], [ 3398936.480800472199917, 8396846.977919360622764 ], [ 3398991.16093432623893, 8396869.611453101038933 ], [ 3399014.181805011350662, 8396870.368130942806602 ], [ 3399037.525502218864858, 8396866.228658974170685 ], [ 3399097.092561709228903, 8396803.135382229462266 ], [ 3399110.72919932147488, 8396765.769283728674054 ], [ 3399132.625743150245398, 8396756.711538538336754 ], [ 3399179.346533414442092, 8396767.327127993106842 ], [ 3399247.307082512881607, 8396765.457714898511767 ], [ 3399284.131570049095899, 8396763.25447865203023 ], [ 3399298.113298087380826, 8396773.803312724456191 ], [ 3399298.870270628482103, 8396796.837211774662137 ], [ 3399282.194610917009413, 8396829.774699810892344 ], [ 3399282.272534565068781, 8396865.51649197191 ], [ 3399307.920545237604529, 8396937.045107459649444 ], [ 3399366.463465425185859, 8397027.135652624070644 ], [ 3399422.279058085754514, 8397050.39290164783597 ], [ 3399440.96960058202967, 8397070.245080448687077 ], [ 3399449.997611284721643, 8397090.27535992115736 ], [ 3399453.07002923451364, 8397146.60524895042181 ], [ 3399468.454382857307792, 8397197.059924611821771 ], [ 3399459.526559702120721, 8397217.914031337946653 ], [ 3399426.46467095380649, 8397234.227904114872217 ], [ 3399357.402058898936957, 8397256.551038255915046 ], [ 3399322.291891522705555, 8397287.532010475173593 ], [ 3399280.947832664009184, 8397309.232122506946325 ], [ 3399213.811047800816596, 8397333.046678010374308 ], [ 3399174.92714968463406, 8397332.468005657196045 ], [ 3399136.844751898664981, 8397320.694258769974113 ], [ 3399120.269279723055661, 8397279.942550498992205 ], [ 3399128.629373476374894, 8397236.854151697829366 ], [ 3399127.549574414733797, 8397225.392145907506347 ], [ 3399105.998121005948633, 8397213.574057644233108 ], [ 3399024.556781579274684, 8397221.007655201479793 ], [ 3398996.159179494250566, 8397245.155770918354392 ], [ 3398996.404082376509905, 8397267.478938158601522 ], [ 3399049.859701835550368, 8397338.744377473369241 ], [ 3399064.375763431657106, 8397364.272795956581831 ], [ 3399060.245810327585787, 8397390.268695762380958 ], [ 3399004.886627587489784, 8397461.646608233451843 ], [ 3399010.452602129429579, 8397516.28779130987823 ], [ 3399006.445100465323776, 8397540.370103344321251 ], [ 3399032.315750123467296, 8397650.099194644019008 ], [ 3399050.549882706720382, 8397657.933869766071439 ], [ 3399066.401778187602758, 8397653.103969629853964 ], [ 3399067.904591312166303, 8397633.406022587791085 ], [ 3399087.496821681037545, 8397620.251829659566283 ], [ 3399109.872039314825088, 8397583.371248189359903 ], [ 3399100.075924127362669, 8397539.835929203778505 ], [ 3399103.560224181506783, 8397480.765411920845509 ], [ 3399119.657022541854531, 8397470.0375089738518 ], [ 3399137.412481316365302, 8397475.913370899856091 ], [ 3399197.12425615824759, 8397570.239401958882809 ], [ 3399206.597544823773205, 8397594.433177491649985 ], [ 3399237.299460374750197, 8397641.262937508523464 ], [ 3399251.848917812574655, 8397650.811437482014298 ], [ 3399272.031141485553235, 8397655.975200194865465 ], [ 3399290.020371191669255, 8397666.169190663844347 ], [ 3399305.326801169663668, 8397689.740065461024642 ], [ 3399310.9484354541637, 8397721.791234359145164 ], [ 3399308.722045643255115, 8397756.023817393928766 ], [ 3399267.834396700840443, 8397848.283424099907279 ], [ 3399253.373994862195104, 8397916.616374729201198 ], [ 3399265.496687406208366, 8397945.507825972512364 ], [ 3399258.728462372440845, 8397984.460270136594772 ], [ 3399243.455428243149072, 8398002.756860733032227 ], [ 3399222.783398813102394, 8398021.231566458940506 ], [ 3399106.654906080104411, 8398088.764800719916821 ], [ 3399050.46082715690136, 8398130.433604847639799 ], [ 3399021.328516429755837, 8398134.840895991772413 ], [ 3398988.845489031169564, 8398143.43289539963007 ], [ 3398955.405114017426968, 8398177.823252461850643 ], [ 3398942.024511232040823, 8398195.98676797375083 ], [ 3398942.981858854182065, 8398213.660623865202069 ], [ 3398957.319809263106436, 8398230.377370413392782 ], [ 3399000.80120234657079, 8398249.14201926253736 ], [ 3399043.803921624552459, 8398280.683654157444835 ], [ 3399052.865328170824796, 8398301.095638077706099 ], [ 3399052.86532817222178, 8398319.237197987735271 ], [ 3399034.241577375680208, 8398357.123151857405901 ], [ 3399003.183439462445676, 8398378.470258712768555 ], [ 3398972.603975355625153, 8398393.762749724090099 ], [ 3398910.498831472359598, 8398402.377311052754521 ], [ 3398857.48848998406902, 8398433.541182933375239 ], [ 3398786.778349471278489, 8398509.982267070561647 ], [ 3398742.33960877219215, 8398569.57302768714726 ], [ 3398731.363506988622248, 8398600.759867481887341 ], [ 3398741.382261158432811, 8398661.776043737307191 ], [ 3398754.762863948941231, 8398679.451017377898097 ], [ 3398767.675924873910844, 8398681.966476773843169 ], [ 3398782.47028519352898, 8398673.240285029634833 ], [ 3398800.158952270634472, 8398643.744943046942353 ], [ 3398830.237478666007519, 8398631.679712664335966 ], [ 3398900.947619185317308, 8398646.972729422152042 ], [ 3398924.369240039493889, 8398643.744943037629128 ], [ 3398941.078295598737895, 8398620.215536059811711 ], [ 3398949.215750368777663, 8398591.210135905072093 ], [ 3398965.913673976436257, 8398562.894920689985156 ], [ 3398994.578442841768265, 8398557.151753531768918 ], [ 3399086.795508977025747, 8398595.973869912326336 ], [ 3399115.927819702774286, 8398587.715248890221119 ], [ 3399145.538804239593446, 8398592.501241074874997 ], [ 3399166.567056042607874, 8398606.836975814774632 ], [ 3399180.437464590650052, 8398631.323543787002563 ], [ 3399188.541523520369083, 8398661.286309538409114 ], [ 3399180.437464596703649, 8398694.387961411848664 ], [ 3399169.427966963034123, 8398712.886662861332297 ], [ 3399143.635240959469229, 8398722.436552196741104 ], [ 3399114.013124473858625, 8398726.265415733680129 ], [ 3399075.329601440113038, 8398717.316563367843628 ], [ 3399050.02668119687587, 8398726.287676572799683 ], [ 3399043.314115905202925, 8398739.644192904233932 ], [ 3399046.175026818178594, 8398752.065774830058217 ], [ 3399084.880813751835376, 8398763.173981430009007 ], [ 3399140.30678819399327, 8398789.931694151833653 ], [ 3399145.538804258685559, 8398806.516182212159038 ], [ 3399138.859634816646576, 8398828.51016490906477 ], [ 3399142.210351490415633, 8398873.054859425872564 ], [ 3399125.011490175500512, 8398906.51364522241056 ], [ 3399138.859634825959802, 8398924.055637573823333 ], [ 3399161.791449919342995, 8398936.477530520409346 ], [ 3399185.669480682816356, 8398938.392017675563693 ], [ 3399245.403519412968308, 8398920.827729752287269 ], [ 3399297.000103368423879, 8398889.30561463907361 ], [ 3399315.612722220830619, 8398891.554009621962905 ], [ 3399342.373927796725184, 8398915.440466048195958 ], [ 3399379.165019487962127, 8398917.978267462924123 ], [ 3399402.564376442227513, 8398906.847566001117229 ], [ 3399428.357102446723729, 8398901.126391990110278 ], [ 3399437.919446697924286, 8398882.961137441918254 ], [ 3399432.186492923181504, 8398853.353649450466037 ], [ 3399429.314450058620423, 8398821.809561993926764 ], [ 3399414.987631597556174, 8398800.795086128637195 ], [ 3399414.520089734811336, 8398774.638380533084273 ], [ 3399443.184858598746359, 8398745.988546622917056 ], [ 3399486.176445920020342, 8398715.402133660390973 ], [ 3399495.738790171220899, 8398675.288267843425274 ], [ 3399516.755910020321608, 8398650.445383910089731 ], [ 3399576.946358662564307, 8398629.409136433154345 ], [ 3399703.071341685485095, 8398775.595603007823229 ], [ 3399728.864067696966231, 8398844.404642648994923 ], [ 3399805.307161998935044, 8398951.414995804429054 ], [ 3399858.80730925546959, 8399006.824129544198513 ], [ 3399898.937985667493194, 8399021.160670749843121 ], [ 3399907.999392214231193, 8399032.981659732758999 ], [ 3399902.266438443679363, 8399044.4464788492769 ], [ 3399874.559017196763307, 8399043.489221423864365 ], [ 3399841.118642178829759, 8399053.996798105537891 ], [ 3399833.971930876839906, 8399075.613067608326674 ], [ 3399877.920865825377405, 8399138.681289618834853 ], [ 3399881.249318602960557, 8399171.517940923571587 ], [ 3399872.187912057153881, 8399196.00638635084033 ], [ 3399840.161294572986662, 8399220.250027529895306 ], [ 3399769.462286008987576, 8399289.998248362913728 ], [ 3399739.840169523842633, 8399298.235394332557917 ], [ 3399703.071341731585562, 8399298.235394338145852 ], [ 3399606.078669448383152, 8399287.126380724832416 ], [ 3399562.129734505899251, 8399306.22766100242734 ], [ 3399541.101482706144452, 8399326.308547532185912 ], [ 3399556.886586493812501, 8399346.011022670194507 ], [ 3399642.880893093999475, 8399365.134718438610435 ], [ 3399698.295735587831587, 8399379.449694326147437 ], [ 3399731.736110608093441, 8399412.888517811894417 ], [ 3399750.838535223156214, 8399451.114043276757002 ], [ 3399728.864067753311247, 8399467.366074029356241 ], [ 3399690.648086580913514, 8399460.664889883249998 ], [ 3399648.613846877589822, 8399473.087687911465764 ], [ 3399611.833887135144323, 8399465.807658571749926 ], [ 3399597.017262916080654, 8399448.242112809792161 ], [ 3399585.083813509438187, 8399449.555631263181567 ], [ 3399580.77574921771884, 8399457.81521874666214 ], [ 3399573.617905966937542, 8399490.653292931616306 ], [ 3399577.903706363402307, 8399527.543426163494587 ], [ 3399597.01726292911917, 8399594.444833213463426 ], [ 3399638.094155020080507, 8399666.08901053480804 ], [ 3399647.656499278731644, 8399718.653749210759997 ], [ 3399676.966921196784824, 8399787.627448532730341 ], [ 3399694.744643868878484, 8399799.739100884646177 ], [ 3399762.259915004484355, 8399793.727800348773599 ], [ 3399821.615467465948313, 8399789.698005324229598 ], [ 3399854.521508926525712, 8399758.172171238809824 ], [ 3399895.119727200828493, 8399749.222064966335893 ], [ 3399920.912453208118677, 8399783.619920879602432 ], [ 3399954.352828224655241, 8399787.44933613575995 ], [ 3399968.768702282104641, 8399824.853031711652875 ], [ 3399984.932292341254652, 8399866.754302008077502 ], [ 3399991.155051876790822, 8399902.444041697308421 ], [ 3399984.932292348239571, 8399946.037857325747609 ], [ 3399994.02709474414587, 8399962.647213499993086 ], [ 3400049.441937236580998, 8399976.028236795216799 ], [ 3400052.581146875862032, 8399981.616658052429557 ], [ 3400058.035801921505481, 8399991.301780629903078 ], [ 3400073.787509862333536, 8399990.945546008646488 ], [ 3400105.324321585707366, 8399959.418850446119905 ], [ 3400137.807348978705704, 8399902.0878113694489 ], [ 3400156.453363677952439, 8399903.401410764083266 ], [ 3400238.128474036697298, 8399928.849662218242884 ], [ 3400264.878547667060047, 8399971.842489780858159 ], [ 3400285.906799471471459, 8400016.750335808843374 ], [ 3400335.58868819149211, 8400041.59782887622714 ], [ 3400353.277355269994587, 8400034.317237541079521 ], [ 3400360.42406657198444, 8400010.07091648504138 ], [ 3400360.424066568724811, 8399957.504097850993276 ], [ 3400368.561521339695901, 8399940.67210816219449 ], [ 3400453.108674556948245, 8399911.639242803677917 ], [ 3400477.4876430304721, 8399918.697068408131599 ], [ 3400496.100261882413179, 8399933.636525979265571 ], [ 3400496.601199592929333, 8399949.266214480623603 ], [ 3400467.446624970529228, 8399981.394011681899428 ], [ 3400469.839994022622705, 8400017.106571668758988 ], [ 3400484.177944433409721, 8400052.463067233562469 ], [ 3400504.237716669682413, 8400081.11798382550478 ], [ 3400503.2803690508008, 8400102.136113176122308 ], [ 3400462.659886884037405, 8400160.069869248196483 ], [ 3400445.961963274516165, 8400195.783295676112175 ], [ 3400446.418373190797865, 8400220.275147063657641 ], [ 3400460.288781740237027, 8400255.009185070171952 ], [ 3400488.463744848035276, 8400272.821575798094273 ], [ 3400522.393925625830889, 8400256.924015006050467 ], [ 3400543.878587337210774, 8400253.695522960275412 ], [ 3400561.077448658645153, 8400270.906741729006171 ], [ 3400610.759337375871837, 8400272.821575788781047 ], [ 3400637.509411006234586, 8400315.816411402076483 ], [ 3400658.537662810645998, 8400363.576375478878617 ], [ 3400725.418412849772722, 8400382.702713677659631 ], [ 3400753.615639856550843, 8400397.375921817496419 ], [ 3400769.857153557706624, 8400410.757735015824437 ], [ 3400775.100301571656018, 8400423.783316960558295 ], [ 3400758.858787875622511, 8400446.717303562909365 ], [ 3400737.37412616237998, 8400457.583139633759856 ], [ 3400689.595800736453384, 8400462.348080992698669 ], [ 3400676.22632990218699, 8400495.791821612045169 ], [ 3400685.777542212046683, 8400539.74541075155139 ], [ 3400714.909852939192206, 8400559.451132392510772 ], [ 3400717.770763855893165, 8400600.532721623778343 ], [ 3400694.382538853213191, 8400614.271168718114495 ], [ 3400673.35428705252707, 8400627.653376022353768 ], [ 3400673.354287058115005, 8400693.585038606077433 ], [ 3400668.578680911567062, 8400757.602330837398767 ], [ 3400663.313269005622715, 8400831.751750949770212 ], [ 3400683.86284699710086, 8400834.980496423318982 ], [ 3400706.794662087690085, 8400808.237619776278734 ], [ 3400705.347508704289794, 8400782.07378364354372 ], [ 3400731.641172416508198, 8400763.32494718208909 ], [ 3400759.348593661561608, 8400758.537544090300798 ], [ 3400784.195103993173689, 8400741.347452614456415 ], [ 3400812.859872861765325, 8400749.942493330687284 ], [ 3400831.004949854221195, 8400786.259991170838475 ], [ 3400846.300247885286808, 8400814.917763041332364 ], [ 3400863.955519118346274, 8400829.859038745984435 ], [ 3400872.092973894439638, 8400854.085791666060686 ], [ 3400856.808807817753404, 8400881.808598425239325 ], [ 3400830.058734194375575, 8400923.849487647414207 ], [ 3400856.808807821944356, 8400935.317250682041049 ], [ 3400889.291835219133645, 8400933.402244355529547 ], [ 3400910.308955072890967, 8400942.955013439059258 ], [ 3400927.975358257070184, 8400973.172129200771451 ], [ 3400933.240770171862096, 8401006.974473414942622 ], [ 3400957.59747474687174, 8401027.638960523530841 ], [ 3400988.655612666159868, 8401038.505653733387589 ], [ 3401024.478224785067141, 8401032.404270734637976 ], [ 3401064.608901205472648, 8401118.403062542900443 ], [ 3401088.030522060580552, 8401151.248541951179504 ], [ 3401112.376094686798751, 8401166.168231822550297 ], [ 3401167.790937176905572, 8401168.083298681303859 ], [ 3401220.344868756830692, 8401166.168231816962361 ], [ 3401296.787963048089296, 8401145.147065531462431 ], [ 3401370.359014475718141, 8401116.488008596003056 ], [ 3401434.300929956603795, 8401120.362653117626905 ], [ 3401471.570695459842682, 8401129.937932841479778 ], [ 3401521.252584175672382, 8401116.554812787100673 ], [ 3401573.806515757460147, 8401146.171400621533394 ], [ 3401591.005377079825848, 8401168.150103326886892 ], [ 3401610.107801691163331, 8401181.533317144960165 ], [ 3401644.50552433077246, 8401196.80936130695045 ], [ 3401659.789690409786999, 8401206.362472089007497 ], [ 3401676.9885517321527, 8401219.745755342766643 ], [ 3401701.835062067955732, 8401238.852048806846142 ], [ 3401726.681572403293103, 8401255.085756676271558 ], [ 3401754.388993649743497, 8401280.894976327195764 ], [ 3401785.914673429913819, 8401294.278395036235452 ], [ 3401808.846488521900028, 8401293.320845136418939 ], [ 3401835.596562148071826, 8401295.213676452636719 ], [ 3401853.75277108931914, 8401317.19282397441566 ], [ 3401850.891860180068761, 8401342.044705061241984 ], [ 3401786.682777923066169, 8401375.60378509759903 ], [ 3401745.594753888901323, 8401372.731104042381048 ], [ 3401736.043541587889194, 8401423.370622618123889 ], [ 3401767.825256200507283, 8401484.34338098578155 ], [ 3401788.586341229267418, 8401524.650704415515065 ], [ 3401823.941411485895514, 8401522.735544832423329 ], [ 3401844.268350494559854, 8401497.727169437333941 ], [ 3401860.509864191059023, 8401467.151595233008265 ], [ 3401889.174633055459708, 8401452.810291705653071 ], [ 3401907.063675215467811, 8401432.924027301371098 ], [ 3401924.518571367952973, 8401476.705056712031364 ], [ 3401910.893065703567117, 8401502.670937711372972 ], [ 3401887.96125061204657, 8401512.224445268511772 ], [ 3401881.270949219353497, 8401528.481025077402592 ], [ 3401894.640420057345182, 8401537.076984528452158 ], [ 3401937.899174159858376, 8401538.813993092626333 ], [ 3401966.563943027984351, 8401553.133194714784622 ], [ 3401966.497151336167008, 8401591.41436967626214 ], [ 3401984.653360277414322, 8401599.052812919020653 ], [ 3402023.826689067762345, 8401579.945584915578365 ], [ 3402042.995905371382833, 8401562.686767736449838 ], [ 3402110.778343288227916, 8401612.436809841543436 ], [ 3402130.838115523569286, 8401648.736291678622365 ], [ 3402153.769930619280785, 8401673.5892916303128 ], [ 3402165.235838169232011, 8401706.080929730087519 ], [ 3402162.363795307464898, 8401730.911853292956948 ], [ 3402172.883487186394632, 8401768.16953064315021 ], [ 3402188.167653266806155, 8401778.680995520204306 ], [ 3402217.845429498236626, 8401772.89077995531261 ], [ 3402232.11658821022138, 8401782.511448312550783 ], [ 3402239.764237225987017, 8401797.788739172741771 ], [ 3402239.819896975532174, 8401830.214114587754011 ], [ 3402224.53573090210557, 8401885.644911862909794 ], [ 3402222.365000835154206, 8401924.996799817308784 ], [ 3402244.339468311518431, 8401961.297822365537286 ], [ 3402257.909314234275371, 8401959.271196136251092 ], [ 3402265.623754940461367, 8401944.884393069893122 ], [ 3402288.299535201396793, 8401921.166272899135947 ], [ 3402297.850747513119131, 8401971.809562908485532 ], [ 3402316.262991281226277, 8401978.31259635463357 ], [ 3402324.166675122454762, 8401974.192523125559092 ], [ 3402336.066728682722896, 8401967.979011645540595 ], [ 3402327.728898824192584, 8401935.330324210226536 ], [ 3402315.0496088238433, 8401897.270065698772669 ], [ 3402326.515516366809607, 8401858.096488382667303 ], [ 3402354.478972441516817, 8401854.110104186460376 ], [ 3402370.720486141275615, 8401863.664067674428225 ], [ 3402371.611042069736868, 8401880.923590246587992 ], [ 3402358.241571232210845, 8401890.477588519454002 ], [ 3402356.137632858939469, 8401907.781714851036668 ], [ 3402384.802401727996767, 8401949.828461533412337 ], [ 3402418.242776750121266, 8401997.599023846909404 ], [ 3402428.050023888703436, 8402032.786862347275019 ], [ 3402439.44913974031806, 8402038.577282255515456 ], [ 3402452.640499392524362, 8402031.049737261608243 ], [ 3402461.423607212956995, 8402017.553625544533134 ], [ 3402464.362441764678806, 8401994.570205099880695 ], [ 3402453.787090141326189, 8401972.655847754329443 ], [ 3402440.473279043566436, 8401899.007159223780036 ], [ 3402456.458757913671434, 8401888.673685790970922 ], [ 3402475.828349303919822, 8401901.88004557415843 ], [ 3402536.018797948490828, 8401925.776267729699612 ], [ 3402584.487304226495326, 8402010.026102028787136 ], [ 3402631.497525167185813, 8402027.107801076024771 ], [ 3402651.568429351318628, 8402061.494027271866798 ], [ 3402665.004691886715591, 8402107.305460210889578 ], [ 3402717.558623470831662, 8402143.607381453737617 ], [ 3402758.635515558067709, 8402185.655474655330181 ], [ 3402770.101423107087612, 8402223.8731235768646 ], [ 3402775.578342053107917, 8402249.841639222577214 ], [ 3402793.990585822612047, 8402262.090970845893025 ], [ 3402809.018717073369771, 8402257.480765461921692 ], [ 3402829.089621250517666, 8402223.093624092638493 ], [ 3402854.882347253151238, 8402198.238769557327032 ], [ 3402894.055676045827568, 8402202.069440592080355 ], [ 3402943.748696715105325, 8402239.32950178347528 ], [ 3402978.135287407319993, 8402267.035252284258604 ], [ 3402988.654979285784066, 8402287.101942129433155 ], [ 3402978.135287418030202, 8402367.36924833804369 ], [ 3402945.652260020840913, 8402393.160094603896141 ], [ 3402963.808468965813518, 8402442.848931305110455 ], [ 3402987.697631679940969, 8402461.958398373797536 ], [ 3403027.828308092430234, 8402443.806630684062839 ], [ 3403059.353987873997539, 8402494.453515104949474 ], [ 3403062.226030737627298, 8402525.968792695552111 ], [ 3403069.862547802738845, 8402536.481339320540428 ], [ 3403097.826003880705684, 8402553.497442355379462 ], [ 3403144.390946857165545, 8402554.633335446938872 ], [ 3403176.183793414384127, 8402578.353495990857482 ], [ 3403200.039560284465551, 8402614.947283195331693 ], [ 3403215.668816784396768, 8402620.693615658208728 ], [ 3403232.789754458703101, 8402618.176810571923852 ], [ 3403265.929566851817071, 8402594.189251333475113 ], [ 3403283.139560120645911, 8402590.536556500941515 ], [ 3403301.162185671273619, 8402595.681511322036386 ], [ 3403326.888119985349476, 8402625.148140028119087 ], [ 3403350.921998036559671, 8402636.529462041333318 ], [ 3403381.256559264846146, 8402636.507189383730292 ], [ 3403464.345427155029029, 8402641.696721684187651 ], [ 3403509.919626663438976, 8402631.852204283699393 ], [ 3403532.094469217583537, 8402629.825393514707685 ], [ 3403573.071173759177327, 8402627.264040041714907 ], [ 3403645.885252652224153, 8402623.143603704869747 ], [ 3403724.13172269705683, 8402637.30900527536869 ], [ 3403784.811977099161595, 8402625.927682051435113 ], [ 3403837.454964269883931, 8402631.184024831280112 ], [ 3403882.361246836837381, 8402624.992231603711843 ], [ 3403949.731802633497864, 8402633.188563318923116 ], [ 3403980.099759708158672, 8402634.703103877604008 ], [ 3404001.896115994546562, 8402649.625799532979727 ], [ 3404043.540737483184785, 8402650.962161809206009 ], [ 3404057.867555938661098, 8402628.422217125073075 ], [ 3404085.196490915957838, 8402628.021309645846486 ], [ 3404099.723684460390359, 8402662.900342276319861 ], [ 3404130.971065514720976, 8402691.721327859908342 ], [ 3404128.778071547858417, 8402711.165534101426601 ], [ 3404114.44012114405632, 8402737.915322115644813 ], [ 3404116.154441305436194, 8402773.46306755580008 ], [ 3404152.656102318782359, 8402780.90227909386158 ], [ 3404190.883215442299843, 8402797.139386691153049 ], [ 3404198.519732503220439, 8402764.665207304060459 ], [ 3404206.556999732740223, 8402738.182597760111094 ], [ 3404181.0648363516666, 8402727.536125553771853 ], [ 3404190.872083480469882, 8402671.787172010168433 ], [ 3404264.387475166469812, 8402684.928117845207453 ], [ 3404298.851989503949881, 8402702.568204041570425 ], [ 3404288.655124156270176, 8402761.925622586160898 ], [ 3404351.27233769884333, 8402766.892512692138553 ], [ 3404405.919075706508011, 8402800.792183997109532 ], [ 3404468.847983821295202, 8402789.388334961608052 ], [ 3404537.198151136282831, 8402790.078801879659295 ], [ 3404541.528479324653745, 8402758.361936658620834 ], [ 3404585.488546216860414, 8402754.152334908023477 ], [ 3404626.565438301768154, 8402776.135837279260159 ], [ 3404656.065103355795145, 8402833.734261119738221 ], [ 3404683.727996802423149, 8402825.938624415546656 ], [ 3404734.601004072465003, 8402829.903261475265026 ], [ 3404766.015364360529929, 8402835.315662706270814 ], [ 3404785.184580667410046, 8402845.071358934044838 ], [ 3404788.513033441267908, 8402862.711828762665391 ], [ 3404785.529671091586351, 8402876.409950004890561 ], [ 3404778.906161392573267, 8402889.306253293529153 ], [ 3404766.794600802008063, 8402902.848509728908539 ], [ 3404765.67027394566685, 8402911.958364015445113 ], [ 3404782.045371035113931, 8402917.883116360753775 ], [ 3404792.15318079572171, 8402925.545209180563688 ], [ 3404801.559677762445062, 8402935.635128451511264 ], [ 3404816.532149268314242, 8402944.700476098805666 ], [ 3404835.81268506590277, 8402950.981632612645626 ], [ 3404845.452952964697033, 8402956.193660173565149 ], [ 3404845.452952964697033, 8402967.686862178146839 ], [ 3404837.783040055539459, 8402990.339214008301497 ], [ 3404832.884982466232032, 8403019.785148175433278 ], [ 3404844.406549758743495, 8403029.362897980958223 ], [ 3404867.048934176098555, 8403038.762469202280045 ], [ 3404896.014265666250139, 8403046.513783410191536 ], [ 3404939.517922651488334, 8403058.274413645267487 ], [ 3404959.644486576784402, 8403060.189972627907991 ], [ 3404973.69300630595535, 8403044.731871373951435 ], [ 3404990.179422882851213, 8403029.518814934417605 ], [ 3405063.53896727738902, 8402965.014022890478373 ], [ 3405091.34657606203109, 8402940.112116914242506 ], [ 3405113.510286666918546, 8402926.814800895750523 ], [ 3405121.903776268009096, 8402919.486809534952044 ], [ 3405130.987446711398661, 8402911.579714570194483 ], [ 3405135.551545832771808, 8402900.554342811927199 ], [ 3405138.145289964973927, 8402886.900723490864038 ], [ 3405136.419837858062238, 8402875.830841908231378 ], [ 3405130.620092387776822, 8402865.072803923860192 ], [ 3405132.590447374619544, 8402857.945333993062377 ], [ 3405136.531157345511019, 8402850.305584823712707 ], [ 3405160.965785562992096, 8402841.529906053096056 ], [ 3405176.249951642006636, 8402841.418539641425014 ], [ 3405182.517238972708583, 8402851.864716663956642 ], [ 3405189.485839093104005, 8402858.479893997311592 ], [ 3405208.165249639190733, 8402861.442248065024614 ], [ 3405227.813139754347503, 8402859.883114192634821 ], [ 3405246.236515471711755, 8402845.383185030892491 ], [ 3405269.624740477185696, 8402841.062167121097445 ], [ 3405295.384070631116629, 8402841.195806806907058 ], [ 3405347.949134162161499, 8402854.470694893971086 ], [ 3405378.517466318793595, 8402838.233460882678628 ], [ 3405426.295791746582836, 8402854.47069488465786 ], [ 3405429.858015452045947, 8402872.801661908626556 ], [ 3405420.30680314777419, 8402889.038972144946456 ], [ 3405398.3323356769979, 8402904.340832252055407 ], [ 3405431.772710698656738, 8402942.562211250886321 ], [ 3405462.341042854357511, 8402930.133559245616198 ], [ 3405488.400935637764633, 8402928.997608225792646 ], [ 3405536.168129118159413, 8402967.219115201383829 ], [ 3405559.801257005892694, 8402997.02133696526289 ], [ 3405567.44890602119267, 8403021.856613904237747 ], [ 3405586.55133063159883, 8403018.025516387075186 ], [ 3405633.372308434918523, 8402980.783788623288274 ], [ 3405682.352884363383055, 8402995.885375626385212 ], [ 3405691.915228613186628, 8402950.023867225274444 ], [ 3405702.167753709945828, 8402920.578212015330791 ], [ 3405725.099568799138069, 8402911.022877186536789 ], [ 3405791.980318835470825, 8402904.34083223156631 ], [ 3405838.801296642050147, 8402897.658793337643147 ], [ 3405931.730807509738952, 8402862.110448356717825 ], [ 3406027.020291581749916, 8402820.258951378986239 ], [ 3406077.9155627428554, 8402774.220352126285434 ], [ 3406141.679367038421333, 8402760.054687177762389 ], [ 3406196.136861910577863, 8402739.051243564113975 ], [ 3406235.310190697666258, 8402702.724113984033465 ], [ 3406321.304497292265296, 8402674.058994764462113 ], [ 3406352.139996226876974, 8402659.559431504458189 ], [ 3406369.082822715397924, 8402635.861282043159008 ], [ 3406371.242420831229538, 8402604.145081050693989 ], [ 3406376.45217299927026, 8402588.153396671637893 ], [ 3406385.713954625185579, 8402568.442245749756694 ], [ 3406386.303947926964611, 8402559.199181850999594 ], [ 3406377.353860869072378, 8402541.269898215308785 ], [ 3406376.975374599453062, 8402524.832903865724802 ], [ 3406374.960491815581918, 8402505.745545901358128 ], [ 3406379.146104664541781, 8402496.502560690045357 ], [ 3406384.511704117059708, 8402482.760601725429296 ], [ 3406382.719460314139724, 8402471.401789529249072 ], [ 3406374.11446368182078, 8402465.611029274761677 ], [ 3406365.999272806104273, 8402456.479455035179853 ], [ 3406356.448060499504209, 8402444.541609207168221 ], [ 3406358.841429547872394, 8402431.401092333719134 ], [ 3406366.900960676837713, 8402421.245047898963094 ], [ 3406376.151610359083861, 8402418.861943010240793 ], [ 3406388.697316963691264, 8402420.064631363376975 ], [ 3406409.591985375620425, 8402420.354167470708489 ], [ 3406433.180585464928299, 8402418.260598905384541 ], [ 3406454.086385823786259, 8402404.830593410879374 ], [ 3406468.713766906876117, 8402394.073243502527475 ], [ 3406493.549145288299769, 8402358.594144904986024 ], [ 3406522.21391415130347, 8402333.738833026960492 ], [ 3406566.853029938880354, 8402318.638603869825602 ], [ 3406626.097262911498547, 8402322.469337536022067 ], [ 3406692.276700155809522, 8402317.502747170627117 ], [ 3406741.713685995899141, 8402323.404749540612102 ], [ 3406790.438227090518922, 8402304.295642010867596 ], [ 3406821.284857975319028, 8402298.015037070959806 ], [ 3406846.81041720090434, 8402274.696667740121484 ], [ 3406842.290845871903002, 8402228.639207731932402 ], [ 3406842.290845869109035, 8402183.740142958238721 ], [ 3406850.628675722517073, 8402161.936578808352351 ], [ 3406843.248193482868373, 8402137.883692221716046 ], [ 3406816.486987908370793, 8402114.944438388571143 ], [ 3406812.41269454266876, 8402093.141077920794487 ], [ 3406821.963906849268824, 8402070.224234413355589 ], [ 3406857.575011936947703, 8402078.642658438533545 ], [ 3406908.214248277246952, 8402080.557962602004409 ], [ 3406934.018106227740645, 8402049.97996842674911 ], [ 3406914.904549664352089, 8402023.232679227367043 ], [ 3406867.126224235631526, 8401983.100792251527309 ], [ 3406891.015386945568025, 8401968.758483909070492 ], [ 3406905.353337351232767, 8401965.885571464896202 ], [ 3406940.697275665588677, 8401978.312596142292023 ], [ 3406977.00969354622066, 8401987.866720762103796 ], [ 3407020.001280868425965, 8401990.739641772583127 ], [ 3407051.538092595990747, 8401971.631397467106581 ], [ 3407024.788018968421966, 8401944.884392842650414 ], [ 3406977.009693540167063, 8401933.415057592093945 ], [ 3406988.475601084530354, 8401899.007159005850554 ], [ 3407007.589157642796636, 8401879.899152720347047 ], [ 3407043.890443572308868, 8401860.791196003556252 ], [ 3407080.202861450612545, 8401849.32199172116816 ], [ 3407077.330818593036383, 8401895.198916032910347 ], [ 3407080.202861457131803, 8401920.988108672201633 ], [ 3407103.134676554240286, 8401949.650296628475189 ], [ 3407134.660356332082301, 8401973.546673789620399 ], [ 3407158.549519047606736, 8401994.570204872637987 ], [ 3407163.325125197414309, 8401963.99256774969399 ], [ 3407170.705607429612428, 8401909.696974352002144 ], [ 3407182.171514974441379, 8401885.823074765503407 ], [ 3407202.242419152986258, 8401867.650456808507442 ], [ 3407227.088929485995322, 8401855.245889177545905 ], [ 3407242.373095565475523, 8401870.523330923169851 ], [ 3407244.543825637083501, 8401895.198916025459766 ], [ 3407234.725446556694806, 8401926.889793258160353 ], [ 3407242.629130399320275, 8401940.096221577376127 ], [ 3407277.984200657811016, 8401920.988108662888408 ], [ 3407359.191769151948392, 8401897.091902045533061 ], [ 3407426.072519186418504, 8401870.345168149098754 ], [ 3407473.850844610482454, 8401844.55615284666419 ], [ 3407534.019029354676604, 8401830.370005909353495 ], [ 3407570.298051388468593, 8401862.528280908241868 ], [ 3407578.034755999688059, 8401895.176645584404469 ], [ 3407596.602847058326006, 8401920.453616691753268 ], [ 3407612.666249574162066, 8401929.317279981449246 ], [ 3407640.340274966787547, 8401879.921423060819507 ], [ 3407666.856577658560127, 8401837.852805275470018 ], [ 3407716.538466372527182, 8401809.19105245731771 ], [ 3407754.754447545856237, 8401820.660194234922528 ], [ 3407747.117930483072996, 8401856.982972767204046 ], [ 3407775.77156740333885, 8401885.644911596551538 ], [ 3407826.410803740844131, 8401868.429918639361858 ], [ 3407871.328218253795058, 8401858.875948965549469 ], [ 3407919.09541172767058, 8401818.744957650080323 ], [ 3407969.734648059587926, 8401761.42171229980886 ], [ 3407998.39941692026332, 8401704.09891315549612 ], [ 3408050.953348502516747, 8401729.887436574324965 ], [ 3408093.944935825653374, 8401713.652682024985552 ], [ 3408113.058492382988334, 8401675.437680900096893 ], [ 3408170.38803011411801, 8401672.564882878214121 ], [ 3408194.266060884576291, 8401739.441238893195987 ], [ 3408249.680903376545757, 8401758.548880729824305 ], [ 3408307.010441107675433, 8401753.783100612461567 ], [ 3408414.021867556497455, 8401717.483100978657603 ], [ 3408442.686636416707188, 8401672.56488286703825 ], [ 3408482.817312830127776, 8401677.35288018733263 ], [ 3408519.129730711691082, 8401706.014119883999228 ], [ 3408559.260407130699605, 8401784.359864903613925 ], [ 3408590.786086907610297, 8401777.678842198103666 ], [ 3408612.760554377455264, 8401744.229279669001698 ], [ 3408645.243581778369844, 8401753.783100599423051 ], [ 3408702.573119511827826, 8401782.444637769833207 ], [ 3408736.97084214957431, 8401768.124990256503224 ], [ 3408777.101518558803946, 8401742.314062973484397 ], [ 3408807.680982666090131, 8401736.59068582765758 ], [ 3408807.680982662364841, 8401698.375565672293305 ], [ 3408784.749167566653341, 8401672.564882846549153 ], [ 3408813.413936430588365, 8401637.22287805378437 ], [ 3408848.524103809148073, 8401617.202498164027929 ], [ 3408876.465295980218798, 8401583.709125574678183 ], [ 3408928.06187993939966, 8401572.240352818742394 ], [ 3408973.925510128494352, 8401599.008273538202047 ], [ 3408969.149903983343393, 8401677.352880163118243 ], [ 3408952.908390284515917, 8401710.779869055375457 ], [ 3408999.729368095751852, 8401758.548880694434047 ], [ 3409057.047773879487067, 8401777.67884217761457 ], [ 3409098.135797908529639, 8401753.783100580796599 ], [ 3409080.914672689512372, 8401738.171851813793182 ], [ 3409070.795730981044471, 8401710.779869051650167 ], [ 3409079.723554137162864, 8401691.004257027059793 ], [ 3409108.521906391717494, 8401690.002115931361914 ], [ 3409155.576655128970742, 8401710.178582759574056 ], [ 3409185.922348304651678, 8401721.536220859736204 ], [ 3409241.459642234258354, 8401688.821816606447101 ], [ 3409310.255087513010949, 8401696.460360886529088 ], [ 3409334.133118273224682, 8401656.330254647880793 ], [ 3409382.623888440430164, 8401648.580403601750731 ], [ 3409435.656493828631938, 8401649.760696485638618 ], [ 3409487.609300160780549, 8401679.847093917429447 ], [ 3409527.016399884130806, 8401689.400831328704953 ], [ 3409579.692782904952765, 8401698.375565636903048 ], [ 3409687.661556977313012, 8401727.036887152120471 ], [ 3409742.597725657280535, 8401748.393764138221741 ], [ 3409795.630331051070243, 8401784.359864845871925 ], [ 3409906.938689850736409, 8401843.954855524003506 ], [ 3409956.141904760152102, 8401863.664067318663001 ], [ 3409996.48408820759505, 8401906.133700711652637 ], [ 3410028.789004425052553, 8401939.806704210117459 ], [ 3410047.256907939445227, 8401950.541119968518615 ], [ 3410070.578341250307858, 8401951.32059059292078 ], [ 3410089.591710267588496, 8401952.255955467000604 ], [ 3410112.512393413111567, 8401960.095208562910557 ], [ 3410126.071107384283096, 8401957.979500226676464 ], [ 3410144.705990134272724, 8401957.890417782589793 ], [ 3410162.439185010269284, 8401959.026219010353088 ], [ 3410180.895956575404853, 8401963.435801897197962 ], [ 3410196.925963243469596, 8401969.448873732239008 ], [ 3410210.395621623843908, 8401981.608656229451299 ], [ 3410226.948829899076372, 8401998.979808902367949 ], [ 3410242.32205156981945, 8402006.819111743941903 ], [ 3410257.405842565465719, 8402002.899459278210998 ], [ 3410270.44135493086651, 8401994.10251959040761 ], [ 3410281.517644258681685, 8401995.060160612687469 ], [ 3410300.519881330430508, 8401997.17587960511446 ], [ 3410315.592540374957025, 8401995.661470161750913 ], [ 3410319.054576538037509, 8401993.278502991423011 ], [ 3410331.188401027116925, 8401983.857995469123125 ], [ 3410344.379760681651533, 8401985.550568038597703 ], [ 3410355.901327971369028, 8401991.430033663287759 ], [ 3410360.810517516452819, 8402001.674568308517337 ], [ 3410361.255795478820801, 8402011.250994015485048 ], [ 3410356.146230855491012, 8402029.089903943240643 ], [ 3410352.160993088502437, 8402048.777340352535248 ], [ 3410357.971870507113636, 8402061.04860844835639 ], [ 3410360.398635406047106, 8402075.769702961668372 ], [ 3410362.202011156827211, 8402084.18813332170248 ], [ 3410363.404261659365147, 8402106.993664979934692 ], [ 3410343.867691033519804, 8402128.485270677134395 ], [ 3410327.359010560438037, 8402148.328871116042137 ], [ 3410324.531495497561991, 8402165.054551174864173 ], [ 3410329.652192072477192, 8402172.938573325052857 ], [ 3410343.311093586497009, 8402177.882794909179211 ], [ 3410351.058930142316967, 8402171.446398992091417 ], [ 3410359.764114317018539, 8402168.528864972293377 ], [ 3410376.551093521993607, 8402177.058757748454809 ], [ 3410411.895031839143485, 8402238.193656973540783 ], [ 3410425.498273607809097, 8402244.006509881466627 ], [ 3410481.647824734915048, 8402238.193656971678138 ], [ 3410509.099211151245981, 8402216.523559940978885 ], [ 3410524.761863495688885, 8402185.521846491843462 ], [ 3410540.758474315050989, 8402187.570806287229061 ], [ 3410549.708561371080577, 8402193.829045698046684 ], [ 3410583.883645033463836, 8402234.385238582268357 ], [ 3410641.213182772975415, 8402310.821240574121475 ], [ 3410724.335446511860937, 8402327.057311691343784 ], [ 3410793.21994738234207, 8402347.213252238929272 ], [ 3410842.178259416017681, 8402396.790419219061732 ], [ 3410856.649793213233352, 8402404.02880260720849 ], [ 3410882.186484387610108, 8402405.142400681972504 ], [ 3410940.707140668760985, 8402367.525150904431939 ], [ 3410989.086591342464089, 8402341.845753284171224 ], [ 3411039.247153867501765, 8402325.119671672582626 ], [ 3411110.313516757450998, 8402309.596298363059759 ], [ 3411164.203282226808369, 8402321.08849123492837 ], [ 3411221.054146151989698, 8402350.4649339877069 ], [ 3411304.065090398304164, 8402375.921642912551761 ], [ 3411364.500441921874881, 8402379.618775064125657 ], [ 3411427.551801478024572, 8402365.275694439187646 ], [ 3411458.13126558624208, 8402372.914940416812897 ], [ 3411478.892350607551634, 8402381.333710478618741 ], [ 3411510.685197165701538, 8402379.618775054812431 ], [ 3411584.256248594261706, 8402357.636456366628408 ], [ 3411622.216194936074317, 8402363.427131718024611 ], [ 3411648.487594751175493, 8402361.044045539572835 ], [ 3411698.904192105401307, 8402327.05731164291501 ], [ 3411745.958940839394927, 8402305.431496428325772 ], [ 3411767.332283063326031, 8402307.302316250279546 ], [ 3411779.866857721004635, 8402321.623012240976095 ], [ 3411818.082838894799352, 8402361.0440455339849 ], [ 3411841.972001609858125, 8402365.810218660160899 ], [ 3411886.176971383392811, 8402355.721080124378204 ], [ 3411926.908773042727262, 8402345.565140059217811 ], [ 3411960.204432728234679, 8402365.208878885954618 ], [ 3411990.205035482998937, 8402372.33587190695107 ], [ 3412033.319074247032404, 8402377.703393084928393 ], [ 3412079.639114344958216, 8402388.505262915045023 ], [ 3412174.728223336860538, 8402400.621193487197161 ], [ 3412208.625008268281817, 8402409.997690198943019 ], [ 3412239.694278137758374, 8402432.158341547474265 ], [ 3412287.472603570204228, 8402503.83013086207211 ], [ 3412356.268048852216452, 8402556.370583616197109 ], [ 3412411.682891346514225, 8402594.590156538411975 ], [ 3412472.830687614157796, 8402613.700017385184765 ], [ 3412507.217278308235109, 8402662.009432218968868 ], [ 3412552.591102735605091, 8402682.322199212387204 ], [ 3412583.649240652564913, 8402690.674504531547427 ], [ 3412603.953915765043348, 8402685.908121131360531 ], [ 3412619.482984723057598, 8402687.088580280542374 ], [ 3412631.427566080354154, 8402702.612749371677637 ], [ 3412633.809803184121847, 8402715.753750218078494 ], [ 3412649.338872145861387, 8402748.004983900114894 ], [ 3412675.075938406400383, 8402766.669781729578972 ], [ 3412687.554853321053088, 8402780.256358828395605 ], [ 3412697.362100455444306, 8402782.817765520885587 ], [ 3412715.028503635432571, 8402780.256358833983541 ], [ 3412725.770834492053837, 8402771.881678830832243 ], [ 3412719.804109785705805, 8402750.388195304200053 ], [ 3412706.668409877456725, 8402739.652613559737802 ], [ 3412712.167592717334628, 8402718.916503069922328 ], [ 3412761.860613382887095, 8402717.023305770009756 ], [ 3412835.910338623914868, 8402696.821807276457548 ], [ 3412860.734585059806705, 8402706.198681166395545 ], [ 3412869.350713643245399, 8402714.016464008018374 ], [ 3412870.285797367338091, 8402730.097513495013118 ], [ 3412859.799501341767609, 8402763.707465782761574 ], [ 3412861.925703618209809, 8402793.397498229518533 ], [ 3412876.04101504618302, 8402817.207520719617605 ], [ 3412910.817223954480141, 8402838.90165875479579 ], [ 3412926.424216559622437, 8402845.940017059445381 ], [ 3412939.559916467871517, 8402843.556774735450745 ], [ 3412974.447444862686098, 8402817.207520719617605 ], [ 3413050.890539152082056, 8402798.097131730988622 ], [ 3413086.234477463178337, 8402790.457444656640291 ], [ 3413124.46159058297053, 8402798.097131732851267 ], [ 3413184.396004400681704, 8402804.133158322423697 ], [ 3413199.925073357764632, 8402798.163951188325882 ], [ 3413211.268529462162405, 8402768.2957150246948 ], [ 3413233.78846243629232, 8402745.243132367730141 ], [ 3413306.981027596164495, 8402707.869146862998605 ], [ 3413333.552990032359958, 8402673.836266679689288 ], [ 3413337.527095848694444, 8402637.576276818290353 ], [ 3413305.990284118801355, 8402602.229640381410718 ], [ 3413304.086720821913332, 8402565.925458207726479 ], [ 3413359.50156331108883, 8402529.621455013751984 ], [ 3413397.717544483020902, 8402529.621455019339919 ], [ 3413439.039339447859675, 8402538.574941009283066 ], [ 3413469.496352117042989, 8402571.426755277439952 ], [ 3413512.487939443904907, 8402579.355757487937808 ], [ 3413563.37207866134122, 8402585.035244664177299 ], [ 3413654.019539973232895, 8402621.450884122401476 ], [ 3413719.709171464666724, 8402651.919887807220221 ], [ 3413755.399552660994232, 8402653.527291396632791 ], [ 3413766.986559183802456, 8402653.879886504262686 ], [ 3413828.679820952471346, 8402654.303068105131388 ], [ 3413877.448889845982194, 8402651.830796957015991 ], [ 3413887.623491298407316, 8402652.966705219820142 ], [ 3414331.27618971792981, 8402859.326280321925879 ], [ 3414518.660288489889354, 8402933.741874981671572 ], [ 3414561.896778703667223, 8403031.545735275372863 ], [ 3414604.020074004307389, 8403075.625831883400679 ], [ 3414688.188740957062691, 8403119.48345111310482 ], [ 3414788.932880082167685, 8403147.014319641515613 ], [ 3415120.486851330380887, 8403418.631010606884956 ], [ 3415141.54849898070097, 8403436.874281737953424 ], [ 3415189.582859237678349, 8403464.027659112587571 ], [ 3415229.145806249696761, 8403482.51607016287744 ], [ 3415438.103622331283987, 8403608.995866881683469 ], [ 3415520.591364973690361, 8403646.641734890639782 ], [ 3415600.852717806119472, 8403711.28615371324122 ], [ 3415679.321826831903309, 8403746.771770296618342 ], [ 3415703.288913189433515, 8403752.452157950028777 ], [ 3415727.990708185359836, 8403752.808574579656124 ], [ 3415753.928149526007473, 8403743.675403974950314 ], [ 3415793.569020176772028, 8403715.095335993915796 ], [ 3415839.120955788064748, 8403696.695444453507662 ], [ 3415874.242255113553256, 8403667.024045513942838 ], [ 3415901.226099664811045, 8403633.521348379552364 ], [ 3415914.072368895169348, 8403612.98320116661489 ], [ 3415917.823835730087012, 8403584.425915963947773 ], [ 3415934.076481375843287, 8403562.506826788187027 ], [ 3415967.817419022787362, 8403561.905389286577702 ], [ 3415988.712087432853878, 8403570.525998186320066 ], [ 3416007.825643998105079, 8403595.363209450617433 ], [ 3416017.087425629142672, 8403627.551468869671226 ], [ 3416022.163594411220402, 8403671.791063994169235 ], [ 3416029.800111479125917, 8403711.932155227288604 ], [ 3416052.731926573440433, 8403742.494775416329503 ], [ 3416100.510252005420625, 8403778.804758733138442 ], [ 3416132.84856406506151, 8403779.918564733117819 ], [ 3416159.209019472356886, 8403772.23330676369369 ], [ 3416176.942214345559478, 8403756.907366994768381 ], [ 3416192.649394487496465, 8403727.458485044538975 ], [ 3416217.139682447072119, 8403695.202961307018995 ], [ 3416244.902763436548412, 8403675.377467785030603 ], [ 3416274.458088227082044, 8403667.269079079851508 ], [ 3416297.222924085333943, 8403669.429830139502883 ], [ 3416314.889327266253531, 8403682.839866379275918 ], [ 3416355.609996982850134, 8403711.932155216112733 ], [ 3416390.096775218844414, 8403759.380009178072214 ], [ 3416419.941530687268823, 8403782.903565624728799 ], [ 3416463.278208434581757, 8403798.78646395355463 ], [ 3416501.805884182918817, 8403821.797792561352253 ], [ 3416544.79747150791809, 8403821.797792559489608 ], [ 3416584.928147918079048, 8403797.91769302636385 ], [ 3416600.212313993833959, 8403781.678378531709313 ], [ 3416636.758502805605531, 8403778.047370724380016 ], [ 3416667.337966913357377, 8403800.145310970023274 ], [ 3416698.262521444819868, 8403825.985728437080979 ], [ 3416729.621221985202283, 8403839.707918021827936 ], [ 3416743.536158329807222, 8403855.2567936219275 ], [ 3416762.638582944869995, 8403877.221307085826993 ], [ 3416783.666834747418761, 8403903.017442043870687 ], [ 3416805.474322987254709, 8403933.781344637274742 ], [ 3416806.743365181609988, 8403948.082927472889423 ], [ 3416806.876948572229594, 8403958.174247967079282 ], [ 3416816.650799861643463, 8403964.901802651584148 ], [ 3416831.411764330230653, 8403957.795544741675258 ], [ 3416849.590237168595195, 8403956.347561994567513 ], [ 3416866.688910946249962, 8403951.201656391844153 ], [ 3416879.334805094636977, 8403951.313039595261216 ], [ 3416889.754309428390115, 8403961.872174616903067 ], [ 3416913.565548500977457, 8403977.577245218679309 ], [ 3416933.035327432211488, 8403982.032590486109257 ], [ 3416944.401047434657812, 8403975.193636598065495 ], [ 3416950.134001207537949, 8403964.411715667694807 ], [ 3416956.045066165737808, 8403948.751226413995028 ], [ 3416965.740993807092309, 8403938.013897405937314 ], [ 3416978.420283803716302, 8403935.608024997636676 ], [ 3416995.774992409162223, 8403950.800676878541708 ], [ 3417009.27804664010182, 8403963.565201874822378 ], [ 3417017.749459886457771, 8403979.448489900678396 ], [ 3417024.439761281013489, 8403993.794714972376823 ], [ 3417054.952433696482331, 8404020.660547045990825 ], [ 3417260.348026061430573, 8404005.378643801435828 ], [ 3417759.31537937419489, 8403582.153812140226364 ], [ 3418954.129737288691103, 8402305.72102771140635 ], [ 3419247.233956426847726, 8402483.473311502486467 ], [ 3419244.707003996707499, 8402598.064672693610191 ], [ 3419315.617519607767463, 8402675.929907627403736 ], [ 3419311.699073544237763, 8402805.135450750589371 ], [ 3419383.132790767587721, 8402943.430880609899759 ], [ 3419725.551544294692576, 8403019.91879041492939 ], [ 3421296.322268824093044, 8402441.16232050023973 ], [ 3422299.884296517353505, 8401102.735785974189639 ], [ 3423062.184145864564925, 8400728.49782951362431 ], [ 3424394.062806114554405, 8401505.46095223352313 ], [ 3425115.451317552942783, 8402095.024499448016286 ], [ 3425626.049254406709224, 8402895.512790476903319 ], [ 3425860.920842345338315, 8403815.473167000338435 ], [ 3426004.952582511585206, 8405392.933921672403812 ], [ 3426015.738045439124107, 8405566.471230989322066 ], [ 3426057.238789992406964, 8406820.263343561440706 ], [ 3425932.478090730495751, 8407781.158550377935171 ], [ 3425507.942187439650297, 8408652.166068933904171 ], [ 3424347.386600043158978, 8410292.578769309446216 ], [ 3423598.698444813955575, 8411480.950479874387383 ], [ 3423860.621082831174135, 8412067.351722154766321 ], [ 3423946.363074173685163, 8413060.999123226851225 ], [ 3423822.673978031612933, 8414586.168186653405428 ], [ 3423595.406702069565654, 8415512.555634861811996 ], [ 3423088.825809360481799, 8416320.775851178914309 ], [ 3422354.14348279312253, 8416929.122789982706308 ], [ 3421527.134936182294041, 8417415.853329004719853 ], [ 3420467.632979064714164, 8418558.23892379924655 ], [ 3419386.223248770460486, 8419302.028273018077016 ], [ 3418595.966174445580691, 8419619.459112549200654 ], [ 3418107.366496675182134, 8419943.435403106734157 ], [ 3417127.756121348589659, 8420365.464299339801073 ], [ 3416062.402625814080238, 8420418.064739037305117 ], [ 3414895.142785734497011, 8420266.182621011510491 ], [ 3413648.76166933728382, 8419807.560577694326639 ], [ 3413631.718413712456822, 8419796.496829368174076 ], [ 3413408.795704213902354, 8419756.693449279293418 ], [ 3413254.307477548718452, 8419981.224443688988686 ], [ 3412700.418077779468149, 8420587.836386723443866 ], [ 3411339.846523170825094, 8421718.699844708666205 ], [ 3411122.865359080024064, 8421882.994380690157413 ], [ 3410366.796434628311545, 8422403.258415168151259 ], [ 3410268.547362959012389, 8422503.12006613984704 ], [ 3410200.604518892243505, 8422892.182508286088705 ], [ 3409981.94043006375432, 8423605.305827055126429 ] ] ] ] } }
]
}
