{
"type": "FeatureCollection",
"name": "06_Koltushsky",
"crs": { "type": "name", "properties": { "name": "urn:ogc:def:crs:EPSG::3857" } },
"features": [
{ "type": "Feature", "properties": { "fid": 2, "name": "Колтушский", "id": 6, "type": "06_Колтушский" }, "geometry": { "type": "MultiPolygon", "coordinates": [ [ [ [ 3423495.019277036190033, 8348254.820865771733224 ], [ 3423036.43944749655202, 8349091.592028835788369 ], [ 3422853.771123748272657, 8349645.25201334990561 ], [ 3422461.000934308860451, 8349961.35901116579771 ], [ 3421539.9488664874807, 8350696.187436858192086 ], [ 3419758.241587751545012, 8351169.296149291098118 ], [ 3418952.950162334367633, 8351139.097720838151872 ], [ 3417573.888596306554973, 8351139.097720839083195 ], [ 3416949.787741607986391, 8351360.552862828597426 ], [ 3416376.017600998282433, 8351662.537147359922528 ], [ 3415691.519889393355697, 8351883.992289350368083 ], [ 3414986.889892153441906, 8352024.918288798071444 ], [ 3414543.979608173947781, 8352155.778145428746939 ], [ 3414181.598466735798866, 8352326.902573329396546 ], [ 3413758.820468391757458, 8352588.622286589816213 ], [ 3413235.381041870452464, 8352910.738856757059693 ], [ 3412852.867614797316492, 8353162.392427200451493 ], [ 3412309.295902640558779, 8353343.58299791906029 ], [ 3411030.895764790475368, 8353353.649140737019479 ], [ 3410356.464196003507823, 8353544.905854273587465 ], [ 3409651.83419876312837, 8353937.485424164682627 ], [ 3409007.601058429572731, 8354350.197279690764844 ], [ 3408343.235632460098714, 8355236.017847649753094 ], [ 3407900.325348480604589, 8355880.250987983308733 ], [ 3406966.334812234155834, 8356824.815755556337535 ], [ 3406858.120473467279226, 8357182.857811941765249 ], [ 3406672.885058645159006, 8357374.75862945150584 ], [ 3406416.198416793253273, 8357566.015342988073826 ], [ 3406204.809417621232569, 8357782.437413569539785 ], [ 3405681.369991099927574, 8358607.861124620772898 ], [ 3405298.856564026791602, 8359010.506837329827249 ], [ 3404996.872279495000839, 8359211.829693683423102 ], [ 3404604.292709604371339, 8359503.747835397720337 ], [ 3403738.604427281301469, 8360062.418761780485511 ], [ 3403149.735072444658726, 8360344.270760676823556 ], [ 3402344.443647027481347, 8360867.710187198594213 ], [ 3402153.186933490913361, 8361164.66140032093972 ], [ 3402052.525505313649774, 8361446.513399217277765 ], [ 3402077.690862358082086, 8362010.217397009022534 ], [ 3402133.054647854994982, 8362523.590680713765323 ], [ 3402128.021576446015388, 8362865.83953651599586 ], [ 3402037.426291086710989, 8363097.360821323469281 ], [ 3401896.500291638541967, 8363208.088392318226397 ], [ 3401690.144363875500858, 8363298.683677677996457 ], [ 3401478.755364703480154, 8363354.047463174909353 ], [ 3401237.167937078047544, 8363354.047463174909353 ], [ 3401045.911223541479558, 8363298.683677677996457 ], [ 3400089.627655858639628, 8362916.170250603929162 ], [ 3399566.188229337334633, 8362800.409608200192451 ], [ 3399329.633873120881617, 8362830.608036653138697 ], [ 3398926.988160412292928, 8362911.137179194949567 ], [ 3398640.103090107440948, 8363031.930893007665873 ], [ 3398368.317234029062092, 8363177.889963864348829 ], [ 3397839.844736098777503, 8363575.502605164423585 ], [ 3397397.644685340113938, 8363922.263742748647928 ], [ 3396780.616357336286455, 8363801.46940213534981 ], [ 3396040.161280212458223, 8364262.85849541798234 ], [ 3395830.729333705734462, 8364596.045683043077588 ], [ 3395507.061780012678355, 8364834.036531345918775 ], [ 3394840.68740476295352, 8364843.556165277957916 ], [ 3394279.029002766590565, 8365072.027379648759961 ], [ 3393960.121266040019691, 8365581.327795017510653 ], [ 3393898.243645481299609, 8366504.732286435551941 ], [ 3394143.374219234101474, 8367350.789752154611051 ], [ 3394229.050924623385072, 8367864.849984489381313 ], [ 3394210.011656759306788, 8368264.674609638750553 ], [ 3395180.293867728672922, 8368446.540509574115276 ], [ 3395359.877714316360652, 8368489.252343355678022 ], [ 3395573.436883230693638, 8368566.91022296063602 ], [ 3395826.795715442858636, 8368483.428002387285233 ], [ 3396081.125271150376648, 8368580.50035189371556 ], [ 3396188.875579102430493, 8368928.990086622536182 ], [ 3396145.678383570630103, 8369050.573204378597438 ], [ 3396214.114389973692596, 8369094.98380427621305 ], [ 3396412.141982967033982, 8369190.114706791006029 ], [ 3396611.140299454797059, 8369053.728055734187365 ], [ 3397224.637548335827887, 8369261.948245425708592 ], [ 3397197.457290474325418, 8369654.120537431910634 ], [ 3396708.212648960761726, 8370853.934777333401144 ], [ 3396549.013995769899338, 8371405.305722529999912 ], [ 3395590.358576920349151, 8373809.861375114880502 ], [ 3394840.687404764350504, 8373543.311625014990568 ], [ 3394566.997929216362536, 8373740.844029108062387 ], [ 3394838.307496282272041, 8376663.371646275743842 ], [ 3394837.727799572050571, 8376663.560934997163713 ], [ 3394972.488518552854657, 8377775.927922371774912 ], [ 3394972.772325574420393, 8377775.978862093761563 ], [ 3394996.571410404518247, 8377993.740488288924098 ], [ 3395056.069122480694205, 8378507.800720626488328 ], [ 3394882.335803219117224, 8378610.136785397306085 ], [ 3394537.158658068161458, 8378473.410773356445134 ], [ 3394350.962204652838409, 8378769.333491953089833 ], [ 3394051.747742639388889, 8379321.72942182328552 ], [ 3395160.785095733590424, 8379916.706542581319809 ], [ 3395236.94216719083488, 8380411.72750705294311 ], [ 3394913.274613498244435, 8381185.197764042764902 ], [ 3395313.099238647613674, 8381377.970351167954504 ], [ 3395491.592374875675887, 8383205.740066139027476 ], [ 3395482.072740943171084, 8383453.250548374839127 ], [ 3395472.183569182176143, 8383456.7868842035532 ], [ 3395848.506056200712919, 8387615.150365760549903 ], [ 3395880.707411852665246, 8387616.900439437478781 ], [ 3393988.680167839862406, 8391262.920235449448228 ], [ 3394781.189692690502852, 8391793.639827165752649 ], [ 3394896.280260841362178, 8391937.086042542010546 ], [ 3394815.526948481798172, 8392074.50834603048861 ], [ 3394855.185442944057286, 8392104.238781731575727 ], [ 3394868.755288867745548, 8392126.235002938657999 ], [ 3394871.794310969300568, 8392155.748741636052728 ], [ 3394858.948041738476604, 8392211.44039879925549 ], [ 3394859.949917159043252, 8392223.739771209657192 ], [ 3394865.649475086014718, 8392236.951054871082306 ], [ 3394878.150653896853328, 8392246.559276048094034 ], [ 3394929.368751589674503, 8392274.672291457653046 ], [ 3394965.013252526521683, 8392303.87524463608861 ], [ 3395106.823151784017682, 8392319.889099016785622 ], [ 3395143.469528138171881, 8392345.889445070177317 ], [ 3395153.165455783251673, 8392362.392706342041492 ], [ 3395151.23962859576568, 8392377.294604737311602 ], [ 3395146.085536174476147, 8392384.967982100322843 ], [ 3395115.272301141172647, 8392413.259459838271141 ], [ 3395099.197766679339111, 8392432.209472663700581 ], [ 3395088.065817604772747, 8392458.655053254216909 ], [ 3395084.436802210751921, 8392485.478842573240399 ], [ 3395085.661316614132375, 8392536.324203772470355 ], [ 3395087.609407705720514, 8392589.14948046207428 ], [ 3395084.436802223324776, 8392624.025491768494248 ], [ 3395049.08173196669668, 8392669.889477347955108 ], [ 3394982.200981935020536, 8392729.121613506227732 ], [ 3394817.860017762519419, 8392824.67697593010962 ], [ 3394791.109944143332541, 8392889.649102231487632 ], [ 3394800.805871791671962, 8392934.891927774995565 ], [ 3394830.027238114271313, 8392969.769575867801905 ], [ 3394836.962442393414676, 8393035.743945956230164 ], [ 3394877.41594533296302, 8393081.009912498295307 ], [ 3394902.896976766176522, 8393124.363180024549365 ], [ 3394924.682201109826565, 8393186.913341404870152 ], [ 3394942.070305568631738, 8393245.081909026950598 ], [ 3394974.55333297373727, 8393295.710068689659238 ], [ 3395012.769314144738019, 8393310.057743107900023 ], [ 3395049.493614140897989, 8393307.922273514792323 ], [ 3395083.290211529005319, 8393305.94251579977572 ], [ 3395150.126433768309653, 8393283.141973726451397 ], [ 3395204.116386777255684, 8393269.639637207612395 ], [ 3395269.260552758350968, 8393274.377686576917768 ], [ 3395432.243419159203768, 8393335.060578931123018 ], [ 3395539.789179167244583, 8393345.159613201394677 ], [ 3395627.631389308720827, 8393336.373007705435157 ], [ 3395704.842588086612523, 8393343.891672005876899 ], [ 3395885.636573004070669, 8393383.553865423426032 ], [ 3396001.876385240349919, 8393426.019120212644339 ], [ 3396046.749271959066391, 8393433.026244448497891 ], [ 3396090.531227669678628, 8393462.923382760956883 ], [ 3396122.068039403297007, 8393539.357392115518451 ], [ 3396147.860765411052853, 8393569.944565068930387 ], [ 3396205.190303144976497, 8393574.705052863806486 ], [ 3396276.846659334842116, 8393579.487789019942284 ], [ 3396297.874911132734269, 8393550.835909033194184 ], [ 3396297.318313671275973, 8393446.439900854602456 ], [ 3396320.828990110196173, 8393407.822873136028647 ], [ 3396404.47445545066148, 8393361.976537941023707 ], [ 3396421.517469482962042, 8393364.556916043162346 ], [ 3396434.497322106268257, 8393397.946200389415026 ], [ 3396441.187623507808894, 8393491.597165828570724 ], [ 3396431.636411206796765, 8393541.270477019250393 ], [ 3396398.05132085736841, 8393609.25204942189157 ], [ 3396415.840175483375788, 8393695.186459628865123 ], [ 3396468.293919527437538, 8393757.963926179334521 ], [ 3396472.579719922039658, 8393767.351672690361738 ], [ 3396468.104676395189017, 8393782.434380520135164 ], [ 3396457.573852573987097, 8393799.897436274215579 ], [ 3396412.689833912067115, 8393861.00733432546258 ], [ 3396404.630302785430104, 8393885.433638520538807 ], [ 3396396.281340980436653, 8393913.908849468454719 ], [ 3396429.721716006286442, 8393988.434336617588997 ], [ 3396487.719170687254518, 8394044.785004025325179 ], [ 3396498.539425191003829, 8394085.541065253317356 ], [ 3396487.040121804922819, 8394155.77461033500731 ], [ 3396455.258407203480601, 8394239.334936264902353 ], [ 3396452.831642309669405, 8394263.940473802387714 ], [ 3396465.266029427293688, 8394281.44916583225131 ], [ 3396484.635620815679431, 8394288.946547320112586 ], [ 3396506.676879981532693, 8394281.716134775429964 ], [ 3396536.733142479322851, 8394246.409576071426272 ], [ 3396564.685466596391052, 8394161.291876319795847 ], [ 3396582.930731127038598, 8394152.081603953614831 ], [ 3396596.110958832781762, 8394156.953703122213483 ], [ 3396626.445520063862205, 8394207.410152463242412 ], [ 3396635.351079328451306, 8394266.543415216729045 ], [ 3396653.752191149163991, 8394290.437125550583005 ], [ 3396676.09401294356212, 8394298.268228115513921 ], [ 3396812.215486218687147, 8394279.291167221963406 ], [ 3397001.770315053407103, 8394264.719131369143724 ], [ 3397046.698861512821168, 8394239.290441673249006 ], [ 3397072.947997427545488, 8394203.04970490001142 ], [ 3397104.484809152316302, 8394192.682528771460056 ], [ 3397119.90255862288177, 8394221.826344296336174 ], [ 3397208.423817666713148, 8394288.434856319800019 ], [ 3397215.848827700596303, 8394303.451888618990779 ], [ 3397188.698003912810236, 8394348.525416813790798 ], [ 3397185.736905461642891, 8394372.196916211396456 ], [ 3397194.976423195563257, 8394383.943703545257449 ], [ 3397217.641071510035545, 8394385.478796457871795 ], [ 3397267.144849041011184, 8394360.605881154537201 ], [ 3397389.451573505997658, 8394239.913365634158254 ], [ 3397418.628412031102926, 8394238.75650685466826 ], [ 3397437.831024183426052, 8394251.837920607998967 ], [ 3397455.753462200984359, 8394327.901907436549664 ], [ 3397540.623441955074668, 8394472.200941532850266 ], [ 3397565.559007882606238, 8394490.444313930347562 ], [ 3397593.322088872548193, 8394483.992384381592274 ], [ 3397608.149845035746694, 8394449.819500030949712 ], [ 3397614.495056003797799, 8394393.554725276306272 ], [ 3397626.061151091009378, 8394377.469619547948241 ], [ 3397688.233086667954922, 8394367.191188637167215 ], [ 3397735.632925827521831, 8394380.562050702050328 ], [ 3397772.490809214767069, 8394405.79099796526134 ], [ 3397769.262543986551464, 8394458.117978850379586 ], [ 3397738.85005912091583, 8394509.711144065484405 ], [ 3397748.267688040155917, 8394534.962781822308898 ], [ 3397798.250139385927469, 8394564.285937627777457 ], [ 3397840.87437239754945, 8394623.488810498267412 ], [ 3397845.716770247090608, 8394659.153153341263533 ], [ 3397822.784955157432705, 8394714.574505344033241 ], [ 3397834.250862709246576, 8394767.126168455928564 ], [ 3397882.029188147746027, 8394888.472550174221396 ], [ 3397908.478699149098247, 8394912.368277858942747 ], [ 3397940.694559768773615, 8394910.454836845397949 ], [ 3397970.082905328366905, 8394961.60618088953197 ], [ 3398130.449763706419617, 8395134.976057743653655 ], [ 3398154.338926429860294, 8395244.869574854150414 ], [ 3398187.400815184693784, 8395293.642440574243665 ], [ 3398235.969508998561651, 8395330.689563961699605 ], [ 3398278.037144551053643, 8395351.671891262754798 ], [ 3398300.545945584308356, 8395401.91401650570333 ], [ 3398291.117184720933437, 8395419.959433885291219 ], [ 3398269.131585299037397, 8395431.930400997400284 ], [ 3398240.032670420128852, 8395431.730143023654819 ], [ 3398211.868839262519032, 8395449.241610897704959 ], [ 3398203.074599497020245, 8395472.160113321617246 ], [ 3398203.152523143216968, 8395494.58916337043047 ], [ 3398211.156394529156387, 8395530.324477447196841 ], [ 3398226.796782980673015, 8395537.55611564218998 ], [ 3398249.172000619117171, 8395534.552203534170985 ], [ 3398285.92969646025449, 8395513.814117765054107 ], [ 3398312.056380935944617, 8395514.058880235999823 ], [ 3398340.476246924605221, 8395541.605836130678654 ], [ 3398342.26849072938785, 8395569.286402847617865 ], [ 3398311.989589252043515, 8395612.721070908010006 ], [ 3398313.882020595949143, 8395639.000059485435486 ], [ 3398331.637479371856898, 8395664.96761954203248 ], [ 3398334.6987653686665, 8395685.617124246433377 ], [ 3398316.754063463304192, 8395707.868810493499041 ], [ 3398319.659502172842622, 8395732.100973263382912 ], [ 3398334.476126390509307, 8395741.491235926747322 ], [ 3398373.181913324166089, 8395750.792503144592047 ], [ 3398440.496809381991625, 8395823.534158378839493 ], [ 3398547.986909648403525, 8395902.217895505949855 ], [ 3398579.512589429970831, 8395944.25262326747179 ], [ 3398598.893312769941986, 8395964.769395928829908 ], [ 3398686.434960290323943, 8395982.860697317868471 ], [ 3398722.836433767341077, 8396019.354970647022128 ], [ 3398717.392910672351718, 8396072.383252244442701 ], [ 3398676.972803593613207, 8396155.408995350822806 ], [ 3398656.356433915439993, 8396229.645617073401809 ], [ 3398674.768677691463381, 8396311.69397678039968 ], [ 3398692.746775446925312, 8396322.108642721548676 ], [ 3398711.136755318380892, 8396325.201890356838703 ], [ 3398740.257934093009681, 8396293.490600289776921 ], [ 3398750.265556305646896, 8396246.491381490603089 ], [ 3398818.994209885131568, 8396204.276903195306659 ], [ 3398849.273111368063837, 8396201.762289818376303 ], [ 3398909.942233826965094, 8396265.050696261227131 ], [ 3398932.08368053752929, 8396291.087223868817091 ], [ 3398933.241403244435787, 8396319.015396375209093 ], [ 3398893.311101919971406, 8396365.948316808789968 ], [ 3398865.080479074735194, 8396440.075790792703629 ], [ 3398871.737384622450918, 8396471.409393472597003 ], [ 3398848.081992848776281, 8396548.297456361353397 ], [ 3398844.619956687092781, 8396568.348570831120014 ], [ 3398846.556915829423815, 8396596.856409136205912 ], [ 3398859.39205311331898, 8396620.624152574688196 ], [ 3398883.793285485357046, 8396642.98993624560535 ], [ 3398914.895951200276613, 8396675.17007846198976 ], [ 3398939.063412644900382, 8396718.010389132425189 ], [ 3398944.061657782644033, 8396763.610557211562991 ], [ 3398924.981497075408697, 8396830.019506031647325 ], [ 3398936.480800472199917, 8396846.977919360622764 ], [ 3398991.16093432623893, 8396869.611453101038933 ], [ 3399014.181805011350662, 8396870.368130942806602 ], [ 3399037.525502218864858, 8396866.228658974170685 ], [ 3399097.092561709228903, 8396803.135382229462266 ], [ 3399110.72919932147488, 8396765.769283728674054 ], [ 3399132.625743150245398, 8396756.711538538336754 ], [ 3399179.346533414442092, 8396767.327127993106842 ], [ 3399247.307082512881607, 8396765.457714898511767 ], [ 3399284.131570049095899, 8396763.25447865203023 ], [ 3399298.113298087380826, 8396773.803312724456191 ], [ 3399298.870270628482103, 8396796.837211774662137 ], [ 3399282.194610917009413, 8396829.774699810892344 ], [ 3399282.272534565068781, 8396865.51649197191 ], [ 3399307.920545237604529, 8396937.045107459649444 ], [ 3399366.463465425185859, 8397027.135652624070644 ], [ 3399422.279058085754514, 8397050.39290164783597 ], [ 3399440.96960058202967, 8397070.245080448687077 ], [ 3399449.997611284721643, 8397090.27535992115736 ], [ 3399453.07002923451364, 8397146.60524895042181 ], [ 3399468.454382857307792, 8397197.059924611821771 ], [ 3399459.526559702120721, 8397217.914031337946653 ], [ 3399426.46467095380649, 8397234.227904114872217 ], [ 3399357.402058898936957, 8397256.551038255915046 ], [ 3399322.291891522705555, 8397287.532010475173593 ], [ 3399280.947832664009184, 8397309.232122506946325 ], [ 3399213.811047800816596, 8397333.046678010374308 ], [ 3399174.92714968463406, 8397332.468005657196045 ], [ 3399136.844751898664981, 8397320.694258769974113 ], [ 3399120.269279723055661, 8397279.942550498992205 ], [ 3399128.629373476374894, 8397236.854151697829366 ], [ 3399127.549574414733797, 8397225.392145907506347 ], [ 3399105.998121005948633, 8397213.574057644233108 ], [ 3399024.556781579274684, 8397221.007655201479793 ], [ 3398996.159179494250566, 8397245.155770918354392 ], [ 3398996.404082376509905, 8397267.478938158601522 ], [ 3399049.859701835550368, 8397338.744377473369241 ], [ 3399064.375763431657106, 8397364.272795956581831 ], [ 3399060.245810327585787, 8397390.268695762380958 ], [ 3399004.886627587489784, 8397461.646608233451843 ], [ 3399010.452602129429579, 8397516.28779130987823 ], [ 3399006.445100465323776, 8397540.370103344321251 ], [ 3399032.315750123467296, 8397650.099194644019008 ], [ 3399050.549882706720382, 8397657.933869766071439 ], [ 3399066.401778187602758, 8397653.103969629853964 ], [ 3399067.904591312166303, 8397633.406022587791085 ], [ 3399087.496821681037545, 8397620.251829659566283 ], [ 3399109.872039314825088, 8397583.371248189359903 ], [ 3399100.075924127362669, 8397539.835929203778505 ], [ 3399103.560224181506783, 8397480.765411920845509 ], [ 3399119.657022541854531, 8397470.0375089738518 ], [ 3399137.412481316365302, 8397475.913370899856091 ], [ 3399197.12425615824759, 8397570.239401958882809 ], [ 3399206.597544823773205, 8397594.433177491649985 ], [ 3399237.299460374750197, 8397641.262937508523464 ], [ 3399251.848917812574655, 8397650.811437482014298 ], [ 3399272.031141485553235, 8397655.975200194865465 ], [ 3399290.020371191669255, 8397666.169190663844347 ], [ 3399305.326801169663668, 8397689.740065461024642 ], [ 3399310.9484354541637, 8397721.791234359145164 ], [ 3399308.722045643255115, 8397756.023817393928766 ], [ 3399267.834396700840443, 8397848.283424099907279 ], [ 3399253.373994862195104, 8397916.616374729201198 ], [ 3399265.496687406208366, 8397945.507825972512364 ], [ 3399258.728462372440845, 8397984.460270136594772 ], [ 3399243.455428243149072, 8398002.756860733032227 ], [ 3399222.783398813102394, 8398021.231566458940506 ], [ 3399106.654906080104411, 8398088.764800719916821 ], [ 3399050.46082715690136, 8398130.433604847639799 ], [ 3399021.328516429755837, 8398134.840895991772413 ], [ 3398988.845489031169564, 8398143.43289539963007 ], [ 3398955.405114017426968, 8398177.823252461850643 ], [ 3398942.024511232040823, 8398195.98676797375083 ], [ 3398942.981858854182065, 8398213.660623865202069 ], [ 3398957.319809263106436, 8398230.377370413392782 ], [ 3399000.80120234657079, 8398249.14201926253736 ], [ 3399043.803921624552459, 8398280.683654157444835 ], [ 3399052.865328170824796, 8398301.095638077706099 ], [ 3399052.86532817222178, 8398319.237197987735271 ], [ 3399034.241577375680208, 8398357.123151857405901 ], [ 3399003.183439462445676, 8398378.470258712768555 ], [ 3398972.603975355625153, 8398393.762749724090099 ], [ 3398910.498831472359598, 8398402.377311052754521 ], [ 3398857.48848998406902, 8398433.541182933375239 ], [ 3398786.778349471278489, 8398509.982267070561647 ], [ 3398742.33960877219215, 8398569.57302768714726 ], [ 3398731.363506988622248, 8398600.759867481887341 ], [ 3398741.382261158432811, 8398661.776043737307191 ], [ 3398754.762863948941231, 8398679.451017377898097 ], [ 3398767.675924873910844, 8398681.966476773843169 ], [ 3398782.47028519352898, 8398673.240285029634833 ], [ 3398800.158952270634472, 8398643.744943046942353 ], [ 3398830.237478666007519, 8398631.679712664335966 ], [ 3398900.947619185317308, 8398646.972729422152042 ], [ 3398924.369240039493889, 8398643.744943037629128 ], [ 3398941.078295598737895, 8398620.215536059811711 ], [ 3398949.215750368777663, 8398591.210135905072093 ], [ 3398965.913673976436257, 8398562.894920689985156 ], [ 3398994.578442841768265, 8398557.151753531768918 ], [ 3399086.795508977025747, 8398595.973869912326336 ], [ 3399115.927819702774286, 8398587.715248890221119 ], [ 3399145.538804239593446, 8398592.501241074874997 ], [ 3399166.567056042607874, 8398606.836975814774632 ], [ 3399180.437464590650052, 8398631.323543787002563 ], [ 3399188.541523520369083, 8398661.286309538409114 ], [ 3399180.437464596703649, 8398694.387961411848664 ], [ 3399169.427966963034123, 8398712.886662861332297 ], [ 3399143.635240959469229, 8398722.436552196741104 ], [ 3399114.013124473858625, 8398726.265415733680129 ], [ 3399075.329601440113038, 8398717.316563367843628 ], [ 3399050.02668119687587, 8398726.287676572799683 ], [ 3399043.314115905202925, 8398739.644192904233932 ], [ 3399046.175026818178594, 8398752.065774830058217 ], [ 3399084.880813751835376, 8398763.173981430009007 ], [ 3399140.30678819399327, 8398789.931694151833653 ], [ 3399145.538804258685559, 8398806.516182212159038 ], [ 3399138.859634816646576, 8398828.51016490906477 ], [ 3399142.210351490415633, 8398873.054859425872564 ], [ 3399125.011490175500512, 8398906.51364522241056 ], [ 3399138.859634825959802, 8398924.055637573823333 ], [ 3399161.791449919342995, 8398936.477530520409346 ], [ 3399185.669480682816356, 8398938.392017675563693 ], [ 3399245.403519412968308, 8398920.827729752287269 ], [ 3399297.000103368423879, 8398889.30561463907361 ], [ 3399315.612722220830619, 8398891.554009621962905 ], [ 3399342.373927796725184, 8398915.440466048195958 ], [ 3399379.165019487962127, 8398917.978267462924123 ], [ 3399402.564376442227513, 8398906.847566001117229 ], [ 3399428.357102446723729, 8398901.126391990110278 ], [ 3399437.919446697924286, 8398882.961137441918254 ], [ 3399432.186492923181504, 8398853.353649450466037 ], [ 3399429.314450058620423, 8398821.809561993926764 ], [ 3399414.987631597556174, 8398800.795086128637195 ], [ 3399414.520089734811336, 8398774.638380533084273 ], [ 3399443.184858598746359, 8398745.988546622917056 ], [ 3399486.176445920020342, 8398715.402133660390973 ], [ 3399495.738790171220899, 8398675.288267843425274 ], [ 3399516.755910020321608, 8398650.445383910089731 ], [ 3399576.946358662564307, 8398629.409136433154345 ], [ 3399703.071341685485095, 8398775.595603007823229 ], [ 3399728.864067696966231, 8398844.404642648994923 ], [ 3399805.307161998935044, 8398951.414995804429054 ], [ 3399858.80730925546959, 8399006.824129544198513 ], [ 3399898.937985667493194, 8399021.160670749843121 ], [ 3399907.999392214231193, 8399032.981659732758999 ], [ 3399902.266438443679363, 8399044.4464788492769 ], [ 3399874.559017196763307, 8399043.489221423864365 ], [ 3399841.118642178829759, 8399053.996798105537891 ], [ 3399833.971930876839906, 8399075.613067608326674 ], [ 3399877.920865825377405, 8399138.681289618834853 ], [ 3399881.249318602960557, 8399171.517940923571587 ], [ 3399872.187912057153881, 8399196.00638635084033 ], [ 3399840.161294572986662, 8399220.250027529895306 ], [ 3399769.462286008987576, 8399289.998248362913728 ], [ 3399739.840169523842633, 8399298.235394332557917 ], [ 3399703.071341731585562, 8399298.235394338145852 ], [ 3399606.078669448383152, 8399287.126380724832416 ], [ 3399562.129734505899251, 8399306.22766100242734 ], [ 3399541.101482706144452, 8399326.308547532185912 ], [ 3399556.886586493812501, 8399346.011022670194507 ], [ 3399642.880893093999475, 8399365.134718438610435 ], [ 3399698.295735587831587, 8399379.449694326147437 ], [ 3399731.736110608093441, 8399412.888517811894417 ], [ 3399750.838535223156214, 8399451.114043276757002 ], [ 3399728.864067753311247, 8399467.366074029356241 ], [ 3399690.648086580913514, 8399460.664889883249998 ], [ 3399648.613846877589822, 8399473.087687911465764 ], [ 3399611.833887135144323, 8399465.807658571749926 ], [ 3399597.017262916080654, 8399448.242112809792161 ], [ 3399585.083813509438187, 8399449.555631263181567 ], [ 3399580.77574921771884, 8399457.81521874666214 ], [ 3399573.617905966937542, 8399490.653292931616306 ], [ 3399577.903706363402307, 8399527.543426163494587 ], [ 3399597.01726292911917, 8399594.444833213463426 ], [ 3399638.094155020080507, 8399666.08901053480804 ], [ 3399647.656499278731644, 8399718.653749210759997 ], [ 3399676.966921196784824, 8399787.627448532730341 ], [ 3399694.744643868878484, 8399799.739100884646177 ], [ 3399762.259915004484355, 8399793.727800348773599 ], [ 3399821.615467465948313, 8399789.698005324229598 ], [ 3399854.521508926525712, 8399758.172171238809824 ], [ 3399895.119727200828493, 8399749.222064966335893 ], [ 3399920.912453208118677, 8399783.619920879602432 ], [ 3399954.352828224655241, 8399787.44933613575995 ], [ 3399968.768702282104641, 8399824.853031711652875 ], [ 3399984.932292341254652, 8399866.754302008077502 ], [ 3399991.155051876790822, 8399902.444041697308421 ], [ 3399984.932292348239571, 8399946.037857325747609 ], [ 3399994.02709474414587, 8399962.647213499993086 ], [ 3400049.441937236580998, 8399976.028236795216799 ], [ 3400052.581146875862032, 8399981.616658052429557 ], [ 3400058.035801921505481, 8399991.301780629903078 ], [ 3400073.787509862333536, 8399990.945546008646488 ], [ 3400105.324321585707366, 8399959.418850446119905 ], [ 3400137.807348978705704, 8399902.0878113694489 ], [ 3400156.453363677952439, 8399903.401410764083266 ], [ 3400238.128474036697298, 8399928.849662218242884 ], [ 3400264.878547667060047, 8399971.842489780858159 ], [ 3400285.906799471471459, 8400016.750335808843374 ], [ 3400335.58868819149211, 8400041.59782887622714 ], [ 3400353.277355269994587, 8400034.317237541079521 ], [ 3400360.42406657198444, 8400010.07091648504138 ], [ 3400360.424066568724811, 8399957.504097850993276 ], [ 3400368.561521339695901, 8399940.67210816219449 ], [ 3400453.108674556948245, 8399911.639242803677917 ], [ 3400477.4876430304721, 8399918.697068408131599 ], [ 3400496.100261882413179, 8399933.636525979265571 ], [ 3400496.601199592929333, 8399949.266214480623603 ], [ 3400467.446624970529228, 8399981.394011681899428 ], [ 3400469.839994022622705, 8400017.106571668758988 ], [ 3400484.177944433409721, 8400052.463067233562469 ], [ 3400504.237716669682413, 8400081.11798382550478 ], [ 3400503.2803690508008, 8400102.136113176122308 ], [ 3400462.659886884037405, 8400160.069869248196483 ], [ 3400445.961963274516165, 8400195.783295676112175 ], [ 3400446.418373190797865, 8400220.275147063657641 ], [ 3400460.288781740237027, 8400255.009185070171952 ], [ 3400488.463744848035276, 8400272.821575798094273 ], [ 3400522.393925625830889, 8400256.924015006050467 ], [ 3400543.878587337210774, 8400253.695522960275412 ], [ 3400561.077448658645153, 8400270.906741729006171 ], [ 3400610.759337375871837, 8400272.821575788781047 ], [ 3400637.509411006234586, 8400315.816411402076483 ], [ 3400658.537662810645998, 8400363.576375478878617 ], [ 3400725.418412849772722, 8400382.702713677659631 ], [ 3400753.615639856550843, 8400397.375921817496419 ], [ 3400769.857153557706624, 8400410.757735015824437 ], [ 3400775.100301571656018, 8400423.783316960558295 ], [ 3400758.858787875622511, 8400446.717303562909365 ], [ 3400737.37412616237998, 8400457.583139633759856 ], [ 3400689.595800736453384, 8400462.348080992698669 ], [ 3400676.22632990218699, 8400495.791821612045169 ], [ 3400685.777542212046683, 8400539.74541075155139 ], [ 3400714.909852939192206, 8400559.451132392510772 ], [ 3400717.770763855893165, 8400600.532721623778343 ], [ 3400694.382538853213191, 8400614.271168718114495 ], [ 3400673.35428705252707, 8400627.653376022353768 ], [ 3400673.354287058115005, 8400693.585038606077433 ], [ 3400668.578680911567062, 8400757.602330837398767 ], [ 3400663.313269005622715, 8400831.751750949770212 ], [ 3400683.86284699710086, 8400834.980496423318982 ], [ 3400706.794662087690085, 8400808.237619776278734 ], [ 3400705.347508704289794, 8400782.07378364354372 ], [ 3400731.641172416508198, 8400763.32494718208909 ], [ 3400759.348593661561608, 8400758.537544090300798 ], [ 3400784.195103993173689, 8400741.347452614456415 ], [ 3400812.859872861765325, 8400749.942493330687284 ], [ 3400831.004949854221195, 8400786.259991170838475 ], [ 3400846.300247885286808, 8400814.917763041332364 ], [ 3400863.955519118346274, 8400829.859038745984435 ], [ 3400872.092973894439638, 8400854.085791666060686 ], [ 3400856.808807817753404, 8400881.808598425239325 ], [ 3400830.058734194375575, 8400923.849487647414207 ], [ 3400856.808807821944356, 8400935.317250682041049 ], [ 3400889.291835219133645, 8400933.402244355529547 ], [ 3400910.308955072890967, 8400942.955013439059258 ], [ 3400927.975358257070184, 8400973.172129200771451 ], [ 3400933.240770171862096, 8401006.974473414942622 ], [ 3400957.59747474687174, 8401027.638960523530841 ], [ 3400988.655612666159868, 8401038.505653733387589 ], [ 3401024.478224785067141, 8401032.404270734637976 ], [ 3401064.608901205472648, 8401118.403062542900443 ], [ 3401088.030522060580552, 8401151.248541951179504 ], [ 3401112.376094686798751, 8401166.168231822550297 ], [ 3401167.790937176905572, 8401168.083298681303859 ], [ 3401220.344868756830692, 8401166.168231816962361 ], [ 3401296.787963048089296, 8401145.147065531462431 ], [ 3401370.359014475718141, 8401116.488008596003056 ], [ 3401434.300929956603795, 8401120.362653117626905 ], [ 3401471.570695459842682, 8401129.937932841479778 ], [ 3401521.252584175672382, 8401116.554812787100673 ], [ 3401573.806515757460147, 8401146.171400621533394 ], [ 3401591.005377079825848, 8401168.150103326886892 ], [ 3401610.107801691163331, 8401181.533317144960165 ], [ 3401644.50552433077246, 8401196.80936130695045 ], [ 3401659.789690409786999, 8401206.362472089007497 ], [ 3401676.9885517321527, 8401219.745755342766643 ], [ 3401701.835062067955732, 8401238.852048806846142 ], [ 3401726.681572403293103, 8401255.085756676271558 ], [ 3401754.388993649743497, 8401280.894976327195764 ], [ 3401785.914673429913819, 8401294.278395036235452 ], [ 3401808.846488521900028, 8401293.320845136418939 ], [ 3401835.596562148071826, 8401295.213676452636719 ], [ 3401853.75277108931914, 8401317.19282397441566 ], [ 3401850.891860180068761, 8401342.044705061241984 ], [ 3401786.682777923066169, 8401375.60378509759903 ], [ 3401745.594753888901323, 8401372.731104042381048 ], [ 3401736.043541587889194, 8401423.370622618123889 ], [ 3401767.825256200507283, 8401484.34338098578155 ], [ 3401788.586341229267418, 8401524.650704415515065 ], [ 3401823.941411485895514, 8401522.735544832423329 ], [ 3401844.268350494559854, 8401497.727169437333941 ], [ 3401860.509864191059023, 8401467.151595233008265 ], [ 3401889.174633055459708, 8401452.810291705653071 ], [ 3401907.063675215467811, 8401432.924027301371098 ], [ 3401924.518571367952973, 8401476.705056712031364 ], [ 3401910.893065703567117, 8401502.670937711372972 ], [ 3401887.96125061204657, 8401512.224445268511772 ], [ 3401881.270949219353497, 8401528.481025077402592 ], [ 3401894.640420057345182, 8401537.076984528452158 ], [ 3401937.899174159858376, 8401538.813993092626333 ], [ 3401966.563943027984351, 8401553.133194714784622 ], [ 3401966.497151336167008, 8401591.41436967626214 ], [ 3401984.653360277414322, 8401599.052812919020653 ], [ 3402023.826689067762345, 8401579.945584915578365 ], [ 3402042.995905371382833, 8401562.686767736449838 ], [ 3402110.778343288227916, 8401612.436809841543436 ], [ 3402130.838115523569286, 8401648.736291678622365 ], [ 3402153.769930619280785, 8401673.5892916303128 ], [ 3402165.235838169232011, 8401706.080929730087519 ], [ 3402162.363795307464898, 8401730.911853292956948 ], [ 3402172.883487186394632, 8401768.16953064315021 ], [ 3402188.167653266806155, 8401778.680995520204306 ], [ 3402217.845429498236626, 8401772.89077995531261 ], [ 3402232.11658821022138, 8401782.511448312550783 ], [ 3402239.764237225987017, 8401797.788739172741771 ], [ 3402239.819896975532174, 8401830.214114587754011 ], [ 3402224.53573090210557, 8401885.644911862909794 ], [ 3402222.365000835154206, 8401924.996799817308784 ], [ 3402244.339468311518431, 8401961.297822365537286 ], [ 3402257.909314234275371, 8401959.271196136251092 ], [ 3402265.623754940461367, 8401944.884393069893122 ], [ 3402288.299535201396793, 8401921.166272899135947 ], [ 3402297.850747513119131, 8401971.809562908485532 ], [ 3402316.262991281226277, 8401978.31259635463357 ], [ 3402324.166675122454762, 8401974.192523125559092 ], [ 3402336.066728682722896, 8401967.979011645540595 ], [ 3402327.728898824192584, 8401935.330324210226536 ], [ 3402315.0496088238433, 8401897.270065698772669 ], [ 3402326.515516366809607, 8401858.096488382667303 ], [ 3402354.478972441516817, 8401854.110104186460376 ], [ 3402370.720486141275615, 8401863.664067674428225 ], [ 3402371.611042069736868, 8401880.923590246587992 ], [ 3402358.241571232210845, 8401890.477588519454002 ], [ 3402356.137632858939469, 8401907.781714851036668 ], [ 3402384.802401727996767, 8401949.828461533412337 ], [ 3402418.242776750121266, 8401997.599023846909404 ], [ 3402428.050023888703436, 8402032.786862347275019 ], [ 3402439.44913974031806, 8402038.577282255515456 ], [ 3402452.640499392524362, 8402031.049737261608243 ], [ 3402461.423607212956995, 8402017.553625544533134 ], [ 3402464.362441764678806, 8401994.570205099880695 ], [ 3402453.787090141326189, 8401972.655847754329443 ], [ 3402440.473279043566436, 8401899.007159223780036 ], [ 3402456.458757913671434, 8401888.673685790970922 ], [ 3402475.828349303919822, 8401901.88004557415843 ], [ 3402536.018797948490828, 8401925.776267729699612 ], [ 3402584.487304226495326, 8402010.026102028787136 ], [ 3402631.497525167185813, 8402027.107801076024771 ], [ 3402651.568429351318628, 8402061.494027271866798 ], [ 3402665.004691886715591, 8402107.305460210889578 ], [ 3402717.558623470831662, 8402143.607381453737617 ], [ 3402758.635515558067709, 8402185.655474655330181 ], [ 3402770.101423107087612, 8402223.8731235768646 ], [ 3402775.578342053107917, 8402249.841639222577214 ], [ 3402793.990585822612047, 8402262.090970845893025 ], [ 3402809.018717073369771, 8402257.480765461921692 ], [ 3402829.089621250517666, 8402223.093624092638493 ], [ 3402854.882347253151238, 8402198.238769557327032 ], [ 3402894.055676045827568, 8402202.069440592080355 ], [ 3402943.748696715105325, 8402239.32950178347528 ], [ 3402978.135287407319993, 8402267.035252284258604 ], [ 3402988.654979285784066, 8402287.101942129433155 ], [ 3402978.135287418030202, 8402367.36924833804369 ], [ 3402945.652260020840913, 8402393.160094603896141 ], [ 3402963.808468965813518, 8402442.848931305110455 ], [ 3402987.697631679940969, 8402461.958398373797536 ], [ 3403027.828308092430234, 8402443.806630684062839 ], [ 3403059.353987873997539, 8402494.453515104949474 ], [ 3403062.226030737627298, 8402525.968792695552111 ], [ 3403069.862547802738845, 8402536.481339320540428 ], [ 3403097.826003880705684, 8402553.497442355379462 ], [ 3403144.390946857165545, 8402554.633335446938872 ], [ 3403176.183793414384127, 8402578.353495990857482 ], [ 3403200.039560284465551, 8402614.947283195331693 ], [ 3403215.668816784396768, 8402620.693615658208728 ], [ 3403232.789754458703101, 8402618.176810571923852 ], [ 3403265.929566851817071, 8402594.189251333475113 ], [ 3403283.139560120645911, 8402590.536556500941515 ], [ 3403301.162185671273619, 8402595.681511322036386 ], [ 3403326.888119985349476, 8402625.148140028119087 ], [ 3403350.921998036559671, 8402636.529462041333318 ], [ 3403381.256559264846146, 8402636.507189383730292 ], [ 3403464.345427155029029, 8402641.696721684187651 ], [ 3403509.919626663438976, 8402631.852204283699393 ], [ 3403532.094469217583537, 8402629.825393514707685 ], [ 3403573.071173759177327, 8402627.264040041714907 ], [ 3403645.885252652224153, 8402623.143603704869747 ], [ 3403724.13172269705683, 8402637.30900527536869 ], [ 3403784.811977099161595, 8402625.927682051435113 ], [ 3403837.454964269883931, 8402631.184024831280112 ], [ 3403882.361246836837381, 8402624.992231603711843 ], [ 3403949.731802633497864, 8402633.188563318923116 ], [ 3403980.099759708158672, 8402634.703103877604008 ], [ 3404001.896115994546562, 8402649.625799532979727 ], [ 3404043.540737483184785, 8402650.962161809206009 ], [ 3404057.867555938661098, 8402628.422217125073075 ], [ 3404085.196490915957838, 8402628.021309645846486 ], [ 3404099.723684460390359, 8402662.900342276319861 ], [ 3404130.971065514720976, 8402691.721327859908342 ], [ 3404128.778071547858417, 8402711.165534101426601 ], [ 3404114.44012114405632, 8402737.915322115644813 ], [ 3404116.154441305436194, 8402773.46306755580008 ], [ 3404152.656102318782359, 8402780.90227909386158 ], [ 3404190.883215442299843, 8402797.139386691153049 ], [ 3404198.519732503220439, 8402764.665207304060459 ], [ 3404206.556999732740223, 8402738.182597760111094 ], [ 3404181.0648363516666, 8402727.536125553771853 ], [ 3404190.872083480469882, 8402671.787172010168433 ], [ 3404264.387475166469812, 8402684.928117845207453 ], [ 3404298.851989503949881, 8402702.568204041570425 ], [ 3404288.655124156270176, 8402761.925622586160898 ], [ 3404351.27233769884333, 8402766.892512692138553 ], [ 3404405.919075706508011, 8402800.792183997109532 ], [ 3404468.847983821295202, 8402789.388334961608052 ], [ 3404537.198151136282831, 8402790.078801879659295 ], [ 3404541.528479324653745, 8402758.361936658620834 ], [ 3404585.488546216860414, 8402754.152334908023477 ], [ 3404626.565438301768154, 8402776.135837279260159 ], [ 3404656.065103355795145, 8402833.734261119738221 ], [ 3404683.727996802423149, 8402825.938624415546656 ], [ 3404734.601004072465003, 8402829.903261475265026 ], [ 3404766.015364360529929, 8402835.315662706270814 ], [ 3404785.184580667410046, 8402845.071358934044838 ], [ 3404788.513033441267908, 8402862.711828762665391 ], [ 3404785.529671091586351, 8402876.409950004890561 ], [ 3404778.906161392573267, 8402889.306253293529153 ], [ 3404766.794600802008063, 8402902.848509728908539 ], [ 3404765.67027394566685, 8402911.958364015445113 ], [ 3404782.045371035113931, 8402917.883116360753775 ], [ 3404792.15318079572171, 8402925.545209180563688 ], [ 3404801.559677762445062, 8402935.635128451511264 ], [ 3404816.532149268314242, 8402944.700476098805666 ], [ 3404835.81268506590277, 8402950.981632612645626 ], [ 3404845.452952964697033, 8402956.193660173565149 ], [ 3404845.452952964697033, 8402967.686862178146839 ], [ 3404837.783040055539459, 8402990.339214008301497 ], [ 3404832.884982466232032, 8403019.785148175433278 ], [ 3404844.406549758743495, 8403029.362897980958223 ], [ 3404867.048934176098555, 8403038.762469202280045 ], [ 3404896.014265666250139, 8403046.513783410191536 ], [ 3404939.517922651488334, 8403058.274413645267487 ], [ 3404959.644486576784402, 8403060.189972627907991 ], [ 3404973.69300630595535, 8403044.731871373951435 ], [ 3404990.179422882851213, 8403029.518814934417605 ], [ 3405063.53896727738902, 8402965.014022890478373 ], [ 3405091.34657606203109, 8402940.112116914242506 ], [ 3405113.510286666918546, 8402926.814800895750523 ], [ 3405121.903776268009096, 8402919.486809534952044 ], [ 3405130.987446711398661, 8402911.579714570194483 ], [ 3405135.551545832771808, 8402900.554342811927199 ], [ 3405138.145289964973927, 8402886.900723490864038 ], [ 3405136.419837858062238, 8402875.830841908231378 ], [ 3405130.620092387776822, 8402865.072803923860192 ], [ 3405132.590447374619544, 8402857.945333993062377 ], [ 3405136.531157345511019, 8402850.305584823712707 ], [ 3405160.965785562992096, 8402841.529906053096056 ], [ 3405176.249951642006636, 8402841.418539641425014 ], [ 3405182.517238972708583, 8402851.864716663956642 ], [ 3405189.485839093104005, 8402858.479893997311592 ], [ 3405208.165249639190733, 8402861.442248065024614 ], [ 3405227.813139754347503, 8402859.883114192634821 ], [ 3405246.236515471711755, 8402845.383185030892491 ], [ 3405269.624740477185696, 8402841.062167121097445 ], [ 3405295.384070631116629, 8402841.195806806907058 ], [ 3405347.949134162161499, 8402854.470694893971086 ], [ 3405378.517466318793595, 8402838.233460882678628 ], [ 3405426.295791746582836, 8402854.47069488465786 ], [ 3405429.858015452045947, 8402872.801661908626556 ], [ 3405420.30680314777419, 8402889.038972144946456 ], [ 3405398.3323356769979, 8402904.340832252055407 ], [ 3405431.772710698656738, 8402942.562211250886321 ], [ 3405462.341042854357511, 8402930.133559245616198 ], [ 3405488.400935637764633, 8402928.997608225792646 ], [ 3405536.168129118159413, 8402967.219115201383829 ], [ 3405559.801257005892694, 8402997.02133696526289 ], [ 3405567.44890602119267, 8403021.856613904237747 ], [ 3405586.55133063159883, 8403018.025516387075186 ], [ 3405633.372308434918523, 8402980.783788623288274 ], [ 3405682.352884363383055, 8402995.885375626385212 ], [ 3405691.915228613186628, 8402950.023867225274444 ], [ 3405702.167753709945828, 8402920.578212015330791 ], [ 3405725.099568799138069, 8402911.022877186536789 ], [ 3405791.980318835470825, 8402904.34083223156631 ], [ 3405838.801296642050147, 8402897.658793337643147 ], [ 3405931.730807509738952, 8402862.110448356717825 ], [ 3406027.020291581749916, 8402820.258951378986239 ], [ 3406077.9155627428554, 8402774.220352126285434 ], [ 3406141.679367038421333, 8402760.054687177762389 ], [ 3406196.136861910577863, 8402739.051243564113975 ], [ 3406235.310190697666258, 8402702.724113984033465 ], [ 3406321.304497292265296, 8402674.058994764462113 ], [ 3406352.139996226876974, 8402659.559431504458189 ], [ 3406369.082822715397924, 8402635.861282043159008 ], [ 3406371.242420831229538, 8402604.145081050693989 ], [ 3406376.45217299927026, 8402588.153396671637893 ], [ 3406385.713954625185579, 8402568.442245749756694 ], [ 3406386.303947926964611, 8402559.199181850999594 ], [ 3406377.353860869072378, 8402541.269898215308785 ], [ 3406376.975374599453062, 8402524.832903865724802 ], [ 3406374.960491815581918, 8402505.745545901358128 ], [ 3406379.146104664541781, 8402496.502560690045357 ], [ 3406384.511704117059708, 8402482.760601725429296 ], [ 3406382.719460314139724, 8402471.401789529249072 ], [ 3406374.11446368182078, 8402465.611029274761677 ], [ 3406365.999272806104273, 8402456.479455035179853 ], [ 3406356.448060499504209, 8402444.541609207168221 ], [ 3406358.841429547872394, 8402431.401092333719134 ], [ 3406366.900960676837713, 8402421.245047898963094 ], [ 3406376.151610359083861, 8402418.861943010240793 ], [ 3406388.697316963691264, 8402420.064631363376975 ], [ 3406409.591985375620425, 8402420.354167470708489 ], [ 3406433.180585464928299, 8402418.260598905384541 ], [ 3406454.086385823786259, 8402404.830593410879374 ], [ 3406468.713766906876117, 8402394.073243502527475 ], [ 3406493.549145288299769, 8402358.594144904986024 ], [ 3406522.21391415130347, 8402333.738833026960492 ], [ 3406566.853029938880354, 8402318.638603869825602 ], [ 3406626.097262911498547, 8402322.469337536022067 ], [ 3406692.276700155809522, 8402317.502747170627117 ], [ 3406741.713685995899141, 8402323.404749540612102 ], [ 3406790.438227090518922, 8402304.295642010867596 ], [ 3406821.284857975319028, 8402298.015037070959806 ], [ 3406846.81041720090434, 8402274.696667740121484 ], [ 3406842.290845871903002, 8402228.639207731932402 ], [ 3406842.290845869109035, 8402183.740142958238721 ], [ 3406850.628675722517073, 8402161.936578808352351 ], [ 3406843.248193482868373, 8402137.883692221716046 ], [ 3406816.486987908370793, 8402114.944438388571143 ], [ 3406812.41269454266876, 8402093.141077920794487 ], [ 3406821.963906849268824, 8402070.224234413355589 ], [ 3406857.575011936947703, 8402078.642658438533545 ], [ 3406908.214248277246952, 8402080.557962602004409 ], [ 3406934.018106227740645, 8402049.97996842674911 ], [ 3406914.904549664352089, 8402023.232679227367043 ], [ 3406867.126224235631526, 8401983.100792251527309 ], [ 3406891.015386945568025, 8401968.758483909070492 ], [ 3406905.353337351232767, 8401965.885571464896202 ], [ 3406940.697275665588677, 8401978.312596142292023 ], [ 3406977.00969354622066, 8401987.866720762103796 ], [ 3407020.001280868425965, 8401990.739641772583127 ], [ 3407051.538092595990747, 8401971.631397467106581 ], [ 3407024.788018968421966, 8401944.884392842650414 ], [ 3406977.009693540167063, 8401933.415057592093945 ], [ 3406988.475601084530354, 8401899.007159005850554 ], [ 3407007.589157642796636, 8401879.899152720347047 ], [ 3407043.890443572308868, 8401860.791196003556252 ], [ 3407080.202861450612545, 8401849.32199172116816 ], [ 3407077.330818593036383, 8401895.198916032910347 ], [ 3407080.202861457131803, 8401920.988108672201633 ], [ 3407103.134676554240286, 8401949.650296628475189 ], [ 3407134.660356332082301, 8401973.546673789620399 ], [ 3407158.549519047606736, 8401994.570204872637987 ], [ 3407163.325125197414309, 8401963.99256774969399 ], [ 3407170.705607429612428, 8401909.696974352002144 ], [ 3407182.171514974441379, 8401885.823074765503407 ], [ 3407202.242419152986258, 8401867.650456808507442 ], [ 3407227.088929485995322, 8401855.245889177545905 ], [ 3407242.373095565475523, 8401870.523330923169851 ], [ 3407244.543825637083501, 8401895.198916025459766 ], [ 3407234.725446556694806, 8401926.889793258160353 ], [ 3407242.629130399320275, 8401940.096221577376127 ], [ 3407277.984200657811016, 8401920.988108662888408 ], [ 3407359.191769151948392, 8401897.091902045533061 ], [ 3407426.072519186418504, 8401870.345168149098754 ], [ 3407473.850844610482454, 8401844.55615284666419 ], [ 3407534.019029354676604, 8401830.370005909353495 ], [ 3407570.298051388468593, 8401862.528280908241868 ], [ 3407578.034755999688059, 8401895.176645584404469 ], [ 3407596.602847058326006, 8401920.453616691753268 ], [ 3407612.666249574162066, 8401929.317279981449246 ], [ 3407640.340274966787547, 8401879.921423060819507 ], [ 3407666.856577658560127, 8401837.852805275470018 ], [ 3407716.538466372527182, 8401809.19105245731771 ], [ 3407754.754447545856237, 8401820.660194234922528 ], [ 3407747.117930483072996, 8401856.982972767204046 ], [ 3407775.77156740333885, 8401885.644911596551538 ], [ 3407826.410803740844131, 8401868.429918639361858 ], [ 3407871.328218253795058, 8401858.875948965549469 ], [ 3407919.09541172767058, 8401818.744957650080323 ], [ 3407969.734648059587926, 8401761.42171229980886 ], [ 3407998.39941692026332, 8401704.09891315549612 ], [ 3408050.953348502516747, 8401729.887436574324965 ], [ 3408093.944935825653374, 8401713.652682024985552 ], [ 3408113.058492382988334, 8401675.437680900096893 ], [ 3408170.38803011411801, 8401672.564882878214121 ], [ 3408194.266060884576291, 8401739.441238893195987 ], [ 3408249.680903376545757, 8401758.548880729824305 ], [ 3408307.010441107675433, 8401753.783100612461567 ], [ 3408414.021867556497455, 8401717.483100978657603 ], [ 3408442.686636416707188, 8401672.56488286703825 ], [ 3408482.817312830127776, 8401677.35288018733263 ], [ 3408519.129730711691082, 8401706.014119883999228 ], [ 3408559.260407130699605, 8401784.359864903613925 ], [ 3408590.786086907610297, 8401777.678842198103666 ], [ 3408612.760554377455264, 8401744.229279669001698 ], [ 3408645.243581778369844, 8401753.783100599423051 ], [ 3408702.573119511827826, 8401782.444637769833207 ], [ 3408736.97084214957431, 8401768.124990256503224 ], [ 3408777.101518558803946, 8401742.314062973484397 ], [ 3408807.680982666090131, 8401736.59068582765758 ], [ 3408807.680982662364841, 8401698.375565672293305 ], [ 3408784.749167566653341, 8401672.564882846549153 ], [ 3408813.413936430588365, 8401637.22287805378437 ], [ 3408848.524103809148073, 8401617.202498164027929 ], [ 3408876.465295980218798, 8401583.709125574678183 ], [ 3408928.06187993939966, 8401572.240352818742394 ], [ 3408973.925510128494352, 8401599.008273538202047 ], [ 3408969.149903983343393, 8401677.352880163118243 ], [ 3408952.908390284515917, 8401710.779869055375457 ], [ 3408999.729368095751852, 8401758.548880694434047 ], [ 3409057.047773879487067, 8401777.67884217761457 ], [ 3409098.135797908529639, 8401753.783100580796599 ], [ 3409080.914672689512372, 8401738.171851813793182 ], [ 3409070.795730981044471, 8401710.779869051650167 ], [ 3409079.723554137162864, 8401691.004257027059793 ], [ 3409108.521906391717494, 8401690.002115931361914 ], [ 3409155.576655128970742, 8401710.178582759574056 ], [ 3409185.922348304651678, 8401721.536220859736204 ], [ 3409241.459642234258354, 8401688.821816606447101 ], [ 3409310.255087513010949, 8401696.460360886529088 ], [ 3409334.133118273224682, 8401656.330254647880793 ], [ 3409382.623888440430164, 8401648.580403601750731 ], [ 3409435.656493828631938, 8401649.760696485638618 ], [ 3409487.609300160780549, 8401679.847093917429447 ], [ 3409527.016399884130806, 8401689.400831328704953 ], [ 3409579.692782904952765, 8401698.375565636903048 ], [ 3409687.661556977313012, 8401727.036887152120471 ], [ 3409742.597725657280535, 8401748.393764138221741 ], [ 3409795.630331051070243, 8401784.359864845871925 ], [ 3409906.938689850736409, 8401843.954855524003506 ], [ 3409956.141904760152102, 8401863.664067318663001 ], [ 3409996.48408820759505, 8401906.133700711652637 ], [ 3410028.789004425052553, 8401939.806704210117459 ], [ 3410047.256907939445227, 8401950.541119968518615 ], [ 3410070.578341250307858, 8401951.32059059292078 ], [ 3410089.591710267588496, 8401952.255955467000604 ], [ 3410112.512393413111567, 8401960.095208562910557 ], [ 3410126.071107384283096, 8401957.979500226676464 ], [ 3410144.705990134272724, 8401957.890417782589793 ], [ 3410162.439185010269284, 8401959.026219010353088 ], [ 3410180.895956575404853, 8401963.435801897197962 ], [ 3410196.925963243469596, 8401969.448873732239008 ], [ 3410210.395621623843908, 8401981.608656229451299 ], [ 3410226.948829899076372, 8401998.979808902367949 ], [ 3410242.32205156981945, 8402006.819111743941903 ], [ 3410257.405842565465719, 8402002.899459278210998 ], [ 3410270.44135493086651, 8401994.10251959040761 ], [ 3410281.517644258681685, 8401995.060160612687469 ], [ 3410300.519881330430508, 8401997.17587960511446 ], [ 3410315.592540374957025, 8401995.661470161750913 ], [ 3410319.054576538037509, 8401993.278502991423011 ], [ 3410331.188401027116925, 8401983.857995469123125 ], [ 3410344.379760681651533, 8401985.550568038597703 ], [ 3410355.901327971369028, 8401991.430033663287759 ], [ 3410360.810517516452819, 8402001.674568308517337 ], [ 3410361.255795478820801, 8402011.250994015485048 ], [ 3410356.146230855491012, 8402029.089903943240643 ], [ 3410352.160993088502437, 8402048.777340352535248 ], [ 3410357.971870507113636, 8402061.04860844835639 ], [ 3410360.398635406047106, 8402075.769702961668372 ], [ 3410362.202011156827211, 8402084.18813332170248 ], [ 3410363.404261659365147, 8402106.993664979934692 ], [ 3410343.867691033519804, 8402128.485270677134395 ], [ 3410327.359010560438037, 8402148.328871116042137 ], [ 3410324.531495497561991, 8402165.054551174864173 ], [ 3410329.652192072477192, 8402172.938573325052857 ], [ 3410343.311093586497009, 8402177.882794909179211 ], [ 3410351.058930142316967, 8402171.446398992091417 ], [ 3410359.764114317018539, 8402168.528864972293377 ], [ 3410376.551093521993607, 8402177.058757748454809 ], [ 3410411.895031839143485, 8402238.193656973540783 ], [ 3410425.498273607809097, 8402244.006509881466627 ], [ 3410481.647824734915048, 8402238.193656971678138 ], [ 3410509.099211151245981, 8402216.523559940978885 ], [ 3410524.761863495688885, 8402185.521846491843462 ], [ 3410540.758474315050989, 8402187.570806287229061 ], [ 3410549.708561371080577, 8402193.829045698046684 ], [ 3410583.883645033463836, 8402234.385238582268357 ], [ 3410641.213182772975415, 8402310.821240574121475 ], [ 3410724.335446511860937, 8402327.057311691343784 ], [ 3410793.21994738234207, 8402347.213252238929272 ], [ 3410842.178259416017681, 8402396.790419219061732 ], [ 3410856.649793213233352, 8402404.02880260720849 ], [ 3410882.186484387610108, 8402405.142400681972504 ], [ 3410940.707140668760985, 8402367.525150904431939 ], [ 3410989.086591342464089, 8402341.845753284171224 ], [ 3411039.247153867501765, 8402325.119671672582626 ], [ 3411110.313516757450998, 8402309.596298363059759 ], [ 3411164.203282226808369, 8402321.08849123492837 ], [ 3411221.054146151989698, 8402350.4649339877069 ], [ 3411304.065090398304164, 8402375.921642912551761 ], [ 3411364.500441921874881, 8402379.618775064125657 ], [ 3411427.551801478024572, 8402365.275694439187646 ], [ 3411458.13126558624208, 8402372.914940416812897 ], [ 3411478.892350607551634, 8402381.333710478618741 ], [ 3411510.685197165701538, 8402379.618775054812431 ], [ 3411584.256248594261706, 8402357.636456366628408 ], [ 3411622.216194936074317, 8402363.427131718024611 ], [ 3411648.487594751175493, 8402361.044045539572835 ], [ 3411698.904192105401307, 8402327.05731164291501 ], [ 3411745.958940839394927, 8402305.431496428325772 ], [ 3411767.332283063326031, 8402307.302316250279546 ], [ 3411779.866857721004635, 8402321.623012240976095 ], [ 3411818.082838894799352, 8402361.0440455339849 ], [ 3411841.972001609858125, 8402365.810218660160899 ], [ 3411886.176971383392811, 8402355.721080124378204 ], [ 3411926.908773042727262, 8402345.565140059217811 ], [ 3411960.204432728234679, 8402365.208878885954618 ], [ 3411990.205035482998937, 8402372.33587190695107 ], [ 3412033.319074247032404, 8402377.703393084928393 ], [ 3412079.639114344958216, 8402388.505262915045023 ], [ 3412174.728223336860538, 8402400.621193487197161 ], [ 3412208.625008268281817, 8402409.997690198943019 ], [ 3412239.694278137758374, 8402432.158341547474265 ], [ 3412287.472603570204228, 8402503.83013086207211 ], [ 3412356.268048852216452, 8402556.370583616197109 ], [ 3412411.682891346514225, 8402594.590156538411975 ], [ 3412472.830687614157796, 8402613.700017385184765 ], [ 3412507.217278308235109, 8402662.009432218968868 ], [ 3412552.591102735605091, 8402682.322199212387204 ], [ 3412583.649240652564913, 8402690.674504531547427 ], [ 3412603.953915765043348, 8402685.908121131360531 ], [ 3412619.482984723057598, 8402687.088580280542374 ], [ 3412631.427566080354154, 8402702.612749371677637 ], [ 3412633.809803184121847, 8402715.753750218078494 ], [ 3412649.338872145861387, 8402748.004983900114894 ], [ 3412675.075938406400383, 8402766.669781729578972 ], [ 3412687.554853321053088, 8402780.256358828395605 ], [ 3412697.362100455444306, 8402782.817765520885587 ], [ 3412715.028503635432571, 8402780.256358833983541 ], [ 3412725.770834492053837, 8402771.881678830832243 ], [ 3412719.804109785705805, 8402750.388195304200053 ], [ 3412706.668409877456725, 8402739.652613559737802 ], [ 3412712.167592717334628, 8402718.916503069922328 ], [ 3412761.860613382887095, 8402717.023305770009756 ], [ 3412835.910338623914868, 8402696.821807276457548 ], [ 3412860.734585059806705, 8402706.198681166395545 ], [ 3412869.350713643245399, 8402714.016464008018374 ], [ 3412870.285797367338091, 8402730.097513495013118 ], [ 3412859.799501341767609, 8402763.707465782761574 ], [ 3412861.925703618209809, 8402793.397498229518533 ], [ 3412876.04101504618302, 8402817.207520719617605 ], [ 3412910.817223954480141, 8402838.90165875479579 ], [ 3412926.424216559622437, 8402845.940017059445381 ], [ 3412939.559916467871517, 8402843.556774735450745 ], [ 3412974.447444862686098, 8402817.207520719617605 ], [ 3413050.890539152082056, 8402798.097131730988622 ], [ 3413086.234477463178337, 8402790.457444656640291 ], [ 3413124.46159058297053, 8402798.097131732851267 ], [ 3413184.396004400681704, 8402804.133158322423697 ], [ 3413199.925073357764632, 8402798.163951188325882 ], [ 3413211.268529462162405, 8402768.2957150246948 ], [ 3413233.78846243629232, 8402745.243132367730141 ], [ 3413306.981027596164495, 8402707.869146862998605 ], [ 3413333.552990032359958, 8402673.836266679689288 ], [ 3413337.527095848694444, 8402637.576276818290353 ], [ 3413305.990284118801355, 8402602.229640381410718 ], [ 3413304.086720821913332, 8402565.925458207726479 ], [ 3413359.50156331108883, 8402529.621455013751984 ], [ 3413397.717544483020902, 8402529.621455019339919 ], [ 3413439.039339447859675, 8402538.574941009283066 ], [ 3413469.496352117042989, 8402571.426755277439952 ], [ 3413512.487939443904907, 8402579.355757487937808 ], [ 3413563.37207866134122, 8402585.035244664177299 ], [ 3413654.019539973232895, 8402621.450884122401476 ], [ 3413719.709171464666724, 8402651.919887807220221 ], [ 3413755.399552660994232, 8402653.527291396632791 ], [ 3413766.986559183802456, 8402653.879886504262686 ], [ 3413828.679820952471346, 8402654.303068105131388 ], [ 3413877.448889845982194, 8402651.830796957015991 ], [ 3413887.623491298407316, 8402652.966705219820142 ], [ 3414331.27618971792981, 8402859.326280321925879 ], [ 3414518.660288489889354, 8402933.741874981671572 ], [ 3414561.896778703667223, 8403031.545735275372863 ], [ 3414604.020074004307389, 8403075.625831883400679 ], [ 3414688.188740957062691, 8403119.48345111310482 ], [ 3414788.932880082167685, 8403147.014319641515613 ], [ 3415120.486851330380887, 8403418.631010606884956 ], [ 3415141.54849898070097, 8403436.874281737953424 ], [ 3415189.582859237678349, 8403464.027659112587571 ], [ 3415229.145806249696761, 8403482.51607016287744 ], [ 3415438.103622331283987, 8403608.995866881683469 ], [ 3415520.591364973690361, 8403646.641734890639782 ], [ 3415600.852717806119472, 8403711.28615371324122 ], [ 3415679.321826831903309, 8403746.771770296618342 ], [ 3415703.288913189433515, 8403752.452157950028777 ], [ 3415727.990708185359836, 8403752.808574579656124 ], [ 3415753.928149526007473, 8403743.675403974950314 ], [ 3415793.569020176772028, 8403715.095335993915796 ], [ 3415839.120955788064748, 8403696.695444453507662 ], [ 3415874.242255113553256, 8403667.024045513942838 ], [ 3415901.226099664811045, 8403633.521348379552364 ], [ 3415914.072368895169348, 8403612.98320116661489 ], [ 3415917.823835730087012, 8403584.425915963947773 ], [ 3415934.076481375843287, 8403562.506826788187027 ], [ 3415967.817419022787362, 8403561.905389286577702 ], [ 3415988.712087432853878, 8403570.525998186320066 ], [ 3416007.825643998105079, 8403595.363209450617433 ], [ 3416017.087425629142672, 8403627.551468869671226 ], [ 3416022.163594411220402, 8403671.791063994169235 ], [ 3416029.800111479125917, 8403711.932155227288604 ], [ 3416052.731926573440433, 8403742.494775416329503 ], [ 3416100.510252005420625, 8403778.804758733138442 ], [ 3416132.84856406506151, 8403779.918564733117819 ], [ 3416159.209019472356886, 8403772.23330676369369 ], [ 3416176.942214345559478, 8403756.907366994768381 ], [ 3416192.649394487496465, 8403727.458485044538975 ], [ 3416217.139682447072119, 8403695.202961307018995 ], [ 3416244.902763436548412, 8403675.377467785030603 ], [ 3416274.458088227082044, 8403667.269079079851508 ], [ 3416297.222924085333943, 8403669.429830139502883 ], [ 3416314.889327266253531, 8403682.839866379275918 ], [ 3416355.609996982850134, 8403711.932155216112733 ], [ 3416390.096775218844414, 8403759.380009178072214 ], [ 3416419.941530687268823, 8403782.903565624728799 ], [ 3416463.278208434581757, 8403798.78646395355463 ], [ 3416501.805884182918817, 8403821.797792561352253 ], [ 3416544.79747150791809, 8403821.797792559489608 ], [ 3416584.928147918079048, 8403797.91769302636385 ], [ 3416600.212313993833959, 8403781.678378531709313 ], [ 3416636.758502805605531, 8403778.047370724380016 ], [ 3416667.337966913357377, 8403800.145310970023274 ], [ 3416698.262521444819868, 8403825.985728437080979 ], [ 3416729.621221985202283, 8403839.707918021827936 ], [ 3416743.536158329807222, 8403855.2567936219275 ], [ 3416762.638582944869995, 8403877.221307085826993 ], [ 3416783.666834747418761, 8403903.017442043870687 ], [ 3416805.474322987254709, 8403933.781344637274742 ], [ 3416806.743365181609988, 8403948.082927472889423 ], [ 3416806.876948572229594, 8403958.174247967079282 ], [ 3416816.650799861643463, 8403964.901802651584148 ], [ 3416831.411764330230653, 8403957.795544741675258 ], [ 3416849.590237168595195, 8403956.347561994567513 ], [ 3416866.688910946249962, 8403951.201656391844153 ], [ 3416879.334805094636977, 8403951.313039595261216 ], [ 3416889.754309428390115, 8403961.872174616903067 ], [ 3416913.565548500977457, 8403977.577245218679309 ], [ 3416933.035327432211488, 8403982.032590486109257 ], [ 3416944.401047434657812, 8403975.193636598065495 ], [ 3416950.134001207537949, 8403964.411715667694807 ], [ 3416956.045066165737808, 8403948.751226413995028 ], [ 3416965.740993807092309, 8403938.013897405937314 ], [ 3416978.420283803716302, 8403935.608024997636676 ], [ 3416995.774992409162223, 8403950.800676878541708 ], [ 3417009.27804664010182, 8403963.565201874822378 ], [ 3417017.749459886457771, 8403979.448489900678396 ], [ 3417024.439761281013489, 8403993.794714972376823 ], [ 3417054.952433696482331, 8404020.660547045990825 ], [ 3417260.348026061430573, 8404005.378643801435828 ], [ 3417759.31537937419489, 8403582.153812140226364 ], [ 3418954.129737288691103, 8402305.72102771140635 ], [ 3419247.233956426847726, 8402483.473311502486467 ], [ 3419244.707003996707499, 8402598.064672693610191 ], [ 3419315.617519607767463, 8402675.929907627403736 ], [ 3419311.699073544237763, 8402805.135450750589371 ], [ 3419383.132790767587721, 8402943.430880609899759 ], [ 3419725.551544294692576, 8403019.91879041492939 ], [ 3421296.322268824093044, 8402441.16232050023973 ], [ 3422299.884296517353505, 8401102.735785974189639 ], [ 3423062.184145864564925, 8400728.49782951362431 ], [ 3422044.828727608080953, 8400362.780318029224873 ], [ 3421540.874647165648639, 8400279.423024324700236 ], [ 3421193.816552414558828, 8399699.696973603218794 ], [ 3420928.531073998194188, 8399367.978750007227063 ], [ 3420050.339353398885578, 8398623.552858190611005 ], [ 3420009.288193953223526, 8398600.586624745279551 ], [ 3419998.32717144722119, 8398568.515745639801025 ], [ 3419256.549955744296312, 8397706.677622176706791 ], [ 3418705.225175665691495, 8397270.37477065436542 ], [ 3418668.575118819717318, 8397241.829628201201558 ], [ 3418211.130154201295227, 8396891.201858310028911 ], [ 3418104.03042392898351, 8396751.267604121938348 ], [ 3418093.344409875106066, 8396759.446225071325898 ], [ 3417801.189521536696702, 8396367.646822724491358 ], [ 3417265.891723005566746, 8395959.46664965339005 ], [ 3417361.282507730647922, 8395882.200405759736896 ], [ 3417678.39367372635752, 8395435.526303725317121 ], [ 3418591.681123332586139, 8394801.21843221783638 ], [ 3419218.924052252899855, 8393843.218183422461152 ], [ 3419651.833183264825493, 8392783.057059263810515 ], [ 3419871.728151900693774, 8391777.047653501853347 ], [ 3419837.067798296920955, 8391511.447393892332911 ], [ 3419895.867394109256566, 8391447.166330253705382 ], [ 3420250.723414705134928, 8390953.871018728241324 ], [ 3420595.697907300665975, 8390328.853392958641052 ], [ 3420922.588494133669883, 8389522.31638659350574 ], [ 3421136.148349216673523, 8388587.002518249675632 ], [ 3421043.527646868489683, 8387632.098727537319064 ], [ 3420850.138749228790402, 8386897.08788538351655 ], [ 3420706.585237175691873, 8386479.308552962727845 ], [ 3420442.486069053877145, 8385862.68941355496645 ], [ 3419936.308877918869257, 8385157.025458024814725 ], [ 3419936.308877918869257, 8384901.776704997755587 ], [ 3419805.823554002679884, 8384026.627846951596439 ], [ 3419709.259922593832016, 8383823.641260465607047 ], [ 3419839.25186762213707, 8383249.689650014042854 ], [ 3419894.939613486174494, 8382209.598258863203228 ], [ 3419779.249649671372026, 8381569.592588891275227 ], [ 3419880.982357415370643, 8381331.265066491439939 ], [ 3420118.379150419496, 8380297.583350013010204 ], [ 3419981.256954783573747, 8379245.892981238663197 ], [ 3419486.753837726078928, 8378307.638327357359231 ], [ 3419255.378327789716423, 8378011.200003074482083 ], [ 3419720.607268188148737, 8377869.922581629827619 ], [ 3421250.831244277302176, 8377685.836065386421978 ], [ 3422257.516504455823451, 8377670.954641687683761 ], [ 3422424.603762038517743, 8377718.808591119013727 ], [ 3423315.98855648515746, 8377834.047706041485071 ], [ 3424201.503834759350866, 8377680.068495363928378 ], [ 3425001.665066059678793, 8377270.692251180298626 ], [ 3425552.077986102551222, 8376875.028466743417084 ], [ 3426113.733368391636759, 8376349.937938124872744 ], [ 3426308.912033855449408, 8376040.023900191299617 ], [ 3427154.417013698257506, 8375463.428485994227231 ], [ 3427532.723664273042232, 8375157.715580865740776 ], [ 3428716.376638502348214, 8374030.862047801725566 ], [ 3429851.726528201717883, 8373256.295499411411583 ], [ 3430171.709313347935677, 8373004.550102696754038 ], [ 3430913.839252225589007, 8372334.344296926632524 ], [ 3431519.673052082303911, 8371575.472380483523011 ], [ 3431851.376730354037136, 8370662.842198844999075 ], [ 3431874.198017789516598, 8369692.06912162527442 ], [ 3431767.688660119194537, 8368931.039638921618462 ], [ 3431457.429991776123643, 8367961.129259954206645 ], [ 3431361.090574979782104, 8367776.143584137782454 ], [ 3430710.197066624648869, 8366934.683330422267318 ], [ 3429806.566886451095343, 8366373.283103059977293 ], [ 3429768.40346878580749, 8366358.143246472813189 ], [ 3429336.738192823249847, 8365917.409372275695205 ], [ 3428883.112991489004344, 8365537.62409701757133 ], [ 3426521.12386024557054, 8363927.707294156774879 ], [ 3426520.582696797791868, 8363925.867458576336503 ], [ 3426418.736494701821357, 8363729.376152043230832 ], [ 3426054.649401423987001, 8363183.053128825500607 ], [ 3425986.388289693277329, 8363101.595089513808489 ], [ 3425882.623311380390078, 8362990.271904689259827 ], [ 3425868.299562023952603, 8362943.25114100985229 ], [ 3425318.153725600335747, 8361915.044957853853703 ], [ 3425289.177379345986992, 8361879.713634808547795 ], [ 3425295.249175609089434, 8361347.790463024750352 ], [ 3425268.464186049532145, 8361193.574489236809313 ], [ 3425267.481747826561332, 8361187.949803207069635 ], [ 3425226.407935746014118, 8360954.10588392522186 ], [ 3425307.283736679702997, 8360688.695366837084293 ], [ 3425353.297353927511722, 8360476.762059161439538 ], [ 3425418.308926822151989, 8359980.721130222082138 ], [ 3425419.120931832119823, 8359963.398356670513749 ], [ 3425366.883184792008251, 8359248.396519531495869 ], [ 3425364.717838097829372, 8359237.29911772441119 ], [ 3425335.67040230287239, 8359109.079423044808209 ], [ 3425769.465439656749368, 8358817.882719934917986 ], [ 3425786.788213208783418, 8358800.800540460273623 ], [ 3426258.384507170412689, 8358198.894087236374617 ], [ 3426316.577504700049758, 8358064.64453830011189 ], [ 3426420.768909328617156, 8357987.851562290452421 ], [ 3426430.633266490418464, 8357976.303046589717269 ], [ 3426905.139900006819516, 8357213.811834285035729 ], [ 3426913.320098628755659, 8357194.804902193136513 ], [ 3427000.753334687557071, 8356824.991727167740464 ], [ 3427387.158836034592241, 8356283.201484804041684 ], [ 3427397.263787273317575, 8356264.194552712142467 ], [ 3427699.869707933161408, 8355393.067838254384696 ], [ 3427701.291459989733994, 8355337.786983223631978 ], [ 3427770.704633875284344, 8355240.185016840696335 ], [ 3427976.066407162230462, 8354999.498546840623021 ], [ 3428316.598250205162913, 8354272.084514985792339 ], [ 3428322.853696209844202, 8354252.115206585265696 ], [ 3428459.575859828386456, 8353407.419255857355893 ], [ 3428401.905524007510394, 8352951.18294969201088 ], [ 3428396.192453557625413, 8352448.35719274636358 ], [ 3428299.192164641804993, 8352138.763364279642701 ], [ 3428216.77745572803542, 8351706.261660990305245 ], [ 3428199.09379106014967, 8351654.413637372665107 ], [ 3427863.261990045662969, 8350969.907221023924649 ], [ 3427842.691196452826262, 8350938.750288038514555 ], [ 3427583.675531025975943, 8350646.993604202754796 ], [ 3427565.890026467386633, 8350615.343261395581067 ], [ 3427549.52962922398001, 8350594.892764841206372 ], [ 3427486.058631359599531, 8350535.382937437854707 ], [ 3427440.071488584857434, 8350449.328198299743235 ], [ 3427425.635843958240002, 8350431.043048438616097 ], [ 3426998.824333221651614, 8349991.401284727267921 ], [ 3426976.449084050487727, 8349972.634946713224053 ], [ 3426846.717133067082614, 8349892.341764805838466 ], [ 3426755.972417983226478, 8349808.424027579836547 ], [ 3426660.546398573555052, 8349661.730803677812219 ], [ 3426649.719665103591979, 8349647.295159051194787 ], [ 3426369.101432968396693, 8349386.479968037456274 ], [ 3426362.405017370358109, 8349373.852512128651142 ], [ 3426307.19872279651463, 8349315.756911352276802 ], [ 3426526.319969857111573, 8348827.819494449533522 ], [ 3426036.998170300386846, 8349007.591979185119271 ], [ 3425624.286314773838967, 8348957.261265096254647 ], [ 3424879.391746262554079, 8348544.549409570172429 ], [ 3423495.019277036190033, 8348254.820865771733224 ] ] ], [ [ [ 3424394.062806111294776, 8401505.46095222979784 ], [ 3424380.271457484457642, 8401494.189804591238499 ], [ 3423062.184145864564925, 8400728.49782951362431 ], [ 3424394.062806111294776, 8401505.46095222979784 ] ] ] ] } }
]
}
