{
"type": "FeatureCollection",
"name": "07_mask",
"crs": { "type": "name", "properties": { "name": "urn:ogc:def:crs:EPSG::3857" } },
"features": [
{ "type": "Feature", "properties": { "MINX": 2900920.8385443371, "MINY": 8059140.0912254471, "MAXX": 3703810.8385443371, "MAXY": 8610735.0912254471, "CNTX": 3302365.8385443371, "CNTY": 8334937.5912254471, "AREA": 442870109550.0, "PERIM": 2708970.0, "HEIGHT": 551595.0, "WIDTH": 802890.0, "fid": null, "name": null, "id": null, "type": null }, "geometry": { "type": "MultiPolygon", "coordinates": [ [ [ [ 2900920.838544337078929, 8610735.091225447133183 ], [ 3703810.838544337078929, 8610735.091225447133183 ], [ 3703810.838544337078929, 8059140.091225447133183 ], [ 2900920.838544337078929, 8059140.091225447133183 ], [ 2900920.838544337078929, 8610735.091225447133183 ] ], [ [ 3426526.319969857111573, 8348827.819494449533522 ], [ 3426036.998170300386846, 8349007.591979185119271 ], [ 3425624.286314773838967, 8348957.261265096254647 ], [ 3424879.391746262554079, 8348544.549409570172429 ], [ 3423495.019277036190033, 8348254.820865771733224 ], [ 3423036.43944749655202, 8349091.592028835788369 ], [ 3422853.771123748272657, 8349645.25201334990561 ], [ 3422461.000934308860451, 8349961.35901116579771 ], [ 3421539.9488664874807, 8350696.187436858192086 ], [ 3419758.241587751545012, 8351169.296149291098118 ], [ 3418952.950162334367633, 8351139.097720838151872 ], [ 3417573.888596306554973, 8351139.097720839083195 ], [ 3416949.787741607986391, 8351360.552862828597426 ], [ 3416376.017600998282433, 8351662.537147359922528 ], [ 3415691.519889393355697, 8351883.992289350368083 ], [ 3414986.889892153441906, 8352024.918288798071444 ], [ 3414543.979608173947781, 8352155.778145428746939 ], [ 3414181.598466735798866, 8352326.902573329396546 ], [ 3413758.820468391757458, 8352588.622286589816213 ], [ 3413235.381041870452464, 8352910.738856757059693 ], [ 3412852.867614797316492, 8353162.392427200451493 ], [ 3412309.295902640558779, 8353343.58299791906029 ], [ 3411030.895764790475368, 8353353.649140737019479 ], [ 3410356.464196003507823, 8353544.905854273587465 ], [ 3409651.83419876312837, 8353937.485424164682627 ], [ 3409007.601058429572731, 8354350.197279690764844 ], [ 3408343.235632460098714, 8355236.017847649753094 ], [ 3407900.325348480604589, 8355880.250987983308733 ], [ 3406966.334812234155834, 8356824.815755556337535 ], [ 3406759.502536537591368, 8356254.410097647458315 ], [ 3406691.029917728621513, 8355612.360742292366922 ], [ 3406652.513373921159655, 8355493.141801068559289 ], [ 3406536.963742519263178, 8355351.92727707978338 ], [ 3406373.145979926921427, 8355169.222133135423064 ], [ 3406137.148659531027079, 8354907.166765062138438 ], [ 3406033.521345594897866, 8354832.902470515109599 ], [ 3405904.223757097497582, 8354806.303819733671844 ], [ 3405709.815398465842009, 8354815.465074671432376 ], [ 3405621.783945186063647, 8354793.469230538234115 ], [ 3405553.010763798840344, 8354710.93007804453373 ], [ 3405465.914394227787852, 8354535.675742850638926 ], [ 3405488.823945404496044, 8354341.374002024531364 ], [ 3405534.665311679709703, 8354211.156418070197105 ], [ 3405731.82326170289889, 8353877.358505383133888 ], [ 3405764.840622649528086, 8353781.089620160870254 ], [ 3405750.168713758233935, 8353655.439705284312367 ], [ 3405673.458452678285539, 8353535.942624905146658 ], [ 3405664.886851888149977, 8353491.294888076372445 ], [ 3405681.39553235610947, 8353409.699523785151541 ], [ 3405723.574487392324954, 8353339.078667758964002 ], [ 3406028.022162596229464, 8353054.810007696971297 ], [ 3406099.556067342404276, 8352971.36112648434937 ], [ 3406236.189610268454999, 8352875.059812464751303 ], [ 3406318.721880699042231, 8352822.805869306437671 ], [ 3406334.306609395891428, 8352745.775117186829448 ], [ 3406315.04833749262616, 8352693.499967060051858 ], [ 3406255.447882147971541, 8352652.242016468197107 ], [ 3406134.399067910853773, 8352622.885963646695018 ], [ 3405943.653120524715632, 8352617.399690926074982 ], [ 3405806.106757760513574, 8352568.797686770558357 ], [ 3405671.309986415319145, 8352476.173815814778209 ], [ 3405520.917354410048574, 8352336.786703810095787 ], [ 3405402.618131593801081, 8352268.012156871147454 ], [ 3405287.079632150009274, 8352239.586711104027927 ], [ 3405163.281226493418217, 8352196.473150549456477 ], [ 3405088.997730314265937, 8352129.535920359194279 ], [ 3405055.991501302924007, 8352053.419338404200971 ], [ 3405056.90432112198323, 8351986.483405553735793 ], [ 3405093.584093316458166, 8351932.377672157250345 ], [ 3405164.194046292454004, 8351936.049594085663557 ], [ 3405249.475908153690398, 8351979.13951331935823 ], [ 3405350.3536306633614, 8351987.390332498587668 ], [ 3405443.884266783017665, 8351943.393443428911269 ], [ 3405513.58139992877841, 8351845.26960186008364 ], [ 3405559.433898150920868, 8351702.200477054342628 ], [ 3405582.354581277817488, 8351514.210801312699914 ], [ 3405577.768218253739178, 8351434.428890411742032 ], [ 3405546.587628890294582, 8351366.569601628929377 ], [ 3405489.736764963716269, 8351315.233181319199502 ], [ 3405375.111085344105959, 8351273.053976934403181 ], [ 3405254.975090932566673, 8351240.938666741363704 ], [ 3405183.452318128664047, 8351199.688834897242486 ], [ 3405135.763048287015408, 8351109.824717858806252 ], [ 3405126.601454188581556, 8350986.940681705251336 ], [ 3405104.593590859789401, 8350900.728444782085717 ], [ 3405032.146866276394576, 8350810.867967402562499 ], [ 3404917.52118665445596, 8350726.493447300046682 ], [ 3404868.919096989557147, 8350662.311954943463206 ], [ 3404853.323236329946667, 8350585.281631156802177 ], [ 3404896.426143135875463, 8350466.984258125536144 ], [ 3404956.03773041954264, 8350367.951198117807508 ], [ 3405004.639820069074631, 8350270.755013786256313 ], [ 3405038.558868888299912, 8350156.111603220924735 ], [ 3405048.655546691734344, 8350081.850868911482394 ], [ 3405049.568366507533938, 8350000.226843853481114 ], [ 3405035.809277446009219, 8349916.76826189365238 ], [ 3405009.215051100123674, 8349839.745717890560627 ], [ 3404944.115412903483957, 8349725.131114503368735 ], [ 3404911.098051944281906, 8349650.852602638304234 ], [ 3404879.917462573386729, 8349492.192312750965357 ], [ 3404856.072827653028071, 8349441.75342835765332 ], [ 3404812.057101008482277, 8349383.066970790736377 ], [ 3404783.637235017493367, 8349327.145004313439131 ], [ 3404781.800463414750993, 8349273.943242013454437 ], [ 3404808.394689749460667, 8349229.011711498722434 ], [ 3404891.839780006092042, 8349200.597966472618282 ], [ 3404995.467093936167657, 8349200.597966467030346 ], [ 3405350.353630424942821, 8349219.857387904077768 ], [ 3405441.13467512326315, 8349202.433247841894627 ], [ 3405537.426034610718489, 8349168.491671776399016 ], [ 3405582.35458106873557, 8349128.137883769348264 ], [ 3405632.793442317750305, 8349055.700623743236065 ], [ 3405655.71412545396015, 8348974.087944564409554 ], [ 3405638.292625148780644, 8348922.723938561044633 ], [ 3405606.199215965345502, 8348870.45374576933682 ], [ 3405533.752491381950676, 8348808.101461802609265 ], [ 3405487.899993142578751, 8348758.59589227847755 ], [ 3405466.816081590484828, 8348695.315920128487051 ], [ 3405489.413938203360885, 8348589.540965424850583 ], [ 3405500.24532464845106, 8348529.711572245694697 ], [ 3405493.399175961501896, 8348472.4694914361462 ], [ 3405468.641721211373806, 8348375.408808371052146 ], [ 3405448.860247694887221, 8348241.449474256485701 ], [ 3405445.242364236153662, 8348125.643710596486926 ], [ 3405446.867628798820078, 8348116.35810374841094 ], [ 3405451.019845802336931, 8348087.064301556907594 ], [ 3405471.101881929207593, 8348049.678946242667735 ], [ 3405495.336135060526431, 8348012.669620720669627 ], [ 3405526.538988309912384, 8347974.157126520760357 ], [ 3405700.976630290504545, 8347831.627272564917803 ], [ 3405767.768324728589505, 8347767.758342543616891 ], [ 3405823.762028567958623, 8347702.917242249473929 ], [ 3405872.31959042372182, 8347631.510893349535763 ], [ 3405920.35395066998899, 8347542.48605047725141 ], [ 3405944.699523288290948, 8347461.022738337516785 ], [ 3405956.889007511548698, 8347320.160754961892962 ], [ 3405973.386556033045053, 8347253.709848375059664 ], [ 3406044.330467474181205, 8347122.954072375781834 ], [ 3406068.998866614885628, 8347058.538637915626168 ], [ 3406080.542697798460722, 8346998.832177430391312 ], [ 3406072.928444627672434, 8346934.108355497010052 ], [ 3406059.202751413919032, 8346874.64605472330004 ], [ 3406051.966984509956092, 8346816.24525748193264 ], [ 3406062.475544423330575, 8346663.459285863675177 ], [ 3406070.301304617896676, 8346616.510065098293126 ], [ 3406166.358893153723329, 8346335.705139831639826 ], [ 3406184.904720307327807, 8346268.113735510036349 ], [ 3406179.594780592247844, 8346205.341370071284473 ], [ 3406159.368029117118567, 8346111.581668892875314 ], [ 3406154.147144998889416, 8346094.629016464576125 ], [ 3406141.735021778382361, 8346054.314129758626223 ], [ 3406080.297794827725738, 8345927.756875108927488 ], [ 3406039.031659603118896, 8345864.479061302728951 ], [ 3405971.17129803262651, 8345694.84945579431951 ], [ 3405968.421706601977348, 8345592.12321943603456 ], [ 3406005.101478794123977, 8345490.348742893896997 ], [ 3406118.803206618409604, 8345284.019386194646358 ], [ 3406199.50983738899231, 8345097.872644560411572 ], [ 3406286.61733888508752, 8344985.077472377568483 ], [ 3406361.81365487491712, 8344923.61985635291785 ], [ 3406393.918196002487093, 8344891.532156537286937 ], [ 3406444.345925299916416, 8344792.485466877929866 ], [ 3406465.440968790091574, 8344731.979686841368675 ], [ 3406466.186809371691197, 8344653.729521069675684 ], [ 3406438.958061929326504, 8344580.673210027627647 ], [ 3406428.68327292567119, 8344484.702270201407373 ], [ 3406377.509703008458018, 8344219.534617987461388 ], [ 3406373.591256932821125, 8344202.210662779398263 ], [ 3406302.279991132672876, 8343857.397280883975327 ], [ 3406281.017968390136957, 8343730.236909796483815 ], [ 3406277.077258417848498, 8343706.66110944468528 ], [ 3406274.650493517518044, 8343692.122368494980037 ], [ 3406199.008899545762688, 8343545.587599069811404 ], [ 3406129.723648476414382, 8343182.400717217475176 ], [ 3406068.497928502038121, 8342420.203819050453603 ], [ 3406104.120165510103106, 8342068.956949009560049 ], [ 3406216.552851145621389, 8341923.161268356256187 ], [ 3406443.644612246658653, 8341779.577426605857909 ], [ 3406652.925254817120731, 8341523.342430521734059 ], [ 3406705.245415445417166, 8341269.325133047066629 ], [ 3406631.774551538284868, 8341063.908839161507785 ], [ 3406469.248095042072237, 8340922.550407614558935 ], [ 3406371.286943167448044, 8340679.596925345249474 ], [ 3406473.700874626170844, 8340414.56587855797261 ], [ 3406652.658087917137891, 8340115.048072695732117 ], [ 3406800.746406438294798, 8339985.611199266277254 ], [ 3406941.365187135059386, 8339881.860161758959293 ], [ 3407105.283137251157314, 8339871.834063797257841 ], [ 3407284.440725650172681, 8339853.195274693891406 ], [ 3407347.714724177960306, 8339754.017390658147633 ], [ 3407340.156130746938288, 8339657.358329710550606 ], [ 3407257.022735050879419, 8339520.421304926276207 ], [ 3407185.121475959662348, 8339268.195295035839081 ], [ 3407098.837738668080419, 8339072.042639424093068 ], [ 3407042.866298710461706, 8338916.148826252669096 ], [ 3406993.028562692459673, 8338784.546978921629488 ], [ 3406951.48412873968482, 8338681.276500252075493 ], [ 3406883.657163012307137, 8338486.508377129212022 ], [ 3406835.422427667770535, 8338394.811706870794296 ], [ 3406766.370947551913559, 8338295.874197480268776 ], [ 3406675.95725716277957, 8338201.729134868830442 ], [ 3406585.332059738691896, 8338068.351657604798675 ], [ 3406524.462562190368772, 8337937.670118915848434 ], [ 3406465.307384803425521, 8337852.338684412650764 ], [ 3406325.044826454948634, 8337690.024017198011279 ], [ 3406255.581464224494994, 8337614.696387317031622 ], [ 3406201.825282141566277, 8337551.092383648268878 ], [ 3406142.436333827674389, 8337526.47661114949733 ], [ 3406112.213092090096325, 8337522.326157142408192 ], [ 3406078.472154446877539, 8337529.501145591028035 ], [ 3405990.986166675575078, 8337552.792309978976846 ], [ 3405937.241116544697434, 8337560.254328896291554 ], [ 3405884.987747593317181, 8337556.677857357077301 ], [ 3405846.471203792840242, 8337525.615612531080842 ], [ 3405827.068216552492231, 8337482.013890113681555 ], [ 3405826.767653923947364, 8337432.760811001993716 ], [ 3405852.437928482424468, 8337369.158374059014022 ], [ 3405882.594378518871963, 8337299.286838475614786 ], [ 3405953.838852585759014, 8337208.443792421370745 ], [ 3405998.366648877970874, 8337155.461729776114225 ], [ 3406024.593520892318338, 8337110.184443251229823 ], [ 3406037.027907996904105, 8336977.842137586325407 ], [ 3406029.87006472889334, 8336831.02111326251179 ], [ 3406066.271538191009313, 8336720.581661676056683 ], [ 3406113.649113446008414, 8336656.985357159748673 ], [ 3406144.195181703194976, 8336605.795255040749907 ], [ 3406210.986876143142581, 8336568.269316707737744 ], [ 3406275.86387534532696, 8336554.605507688596845 ], [ 3406310.584424507804215, 8336547.299022447317839 ], [ 3406367.913962238002568, 8336531.935560438781977 ], [ 3406434.41622600518167, 8336511.826249692589045 ], [ 3406473.433707506395876, 8336473.17502789478749 ], [ 3406487.549018929246813, 8336427.968144473619759 ], [ 3406485.968282157089561, 8336385.03510557860136 ], [ 3406471.062602339778095, 8336312.612380332313478 ], [ 3406372.53372106468305, 8336071.642517913132906 ], [ 3406177.424049596302211, 8335562.203764002770185 ], [ 3406110.732542676851153, 8335369.63663455657661 ], [ 3406095.559696082025766, 8335280.185668771155179 ], [ 3406081.177217869088054, 8335185.880407835356891 ], [ 3406076.51293119834736, 8335074.737255605868995 ], [ 3406035.847921221982688, 8334980.390479028224945 ], [ 3405978.462723738513887, 8334914.75673046708107 ], [ 3405926.610104947816581, 8334882.006281837821007 ], [ 3405864.671940297819674, 8334842.878072340972722 ], [ 3405774.870507111307234, 8334799.623214499093592 ], [ 3405731.689676647074521, 8334749.681823777034879 ], [ 3405710.427653911523521, 8334698.858033077791333 ], [ 3405707.577874947804958, 8334661.275576442480087 ], [ 3405705.9526103772223, 8334621.42028525006026 ], [ 3405710.594633135944605, 8334571.855256324633956 ], [ 3405726.580112003721297, 8334524.100128985010087 ], [ 3405744.75858483556658, 8334441.566579459235072 ], [ 3405752.617740874644369, 8334366.867891798727214 ], [ 3405731.255530596710742, 8334315.759860062971711 ], [ 3405662.181786588393152, 8334276.656717044301331 ], [ 3405564.220634732861072, 8334257.480364204384387 ], [ 3405455.884506341535598, 8334243.379487494938076 ], [ 3405357.511472374200821, 8334231.066067876294255 ], [ 3405295.395196536090225, 8334200.613612871617079 ], [ 3405250.577969562262297, 8334169.344809635542333 ], [ 3405197.845926790032536, 8334081.011707248166203 ], [ 3405165.240447946824133, 8334024.984838534146547 ], [ 3405125.098639576695859, 8333947.995478550903499 ], [ 3405106.396965133026242, 8333920.964437575079501 ], [ 3405075.361091112252325, 8333914.565266842022538 ], [ 3405014.625176965724677, 8333922.332536863163114 ], [ 3404970.464734989684075, 8333939.985453651286662 ], [ 3404920.90529771335423, 8333971.650478830561042 ], [ 3404846.131995790172368, 8334050.868801890872419 ], [ 3404794.869370307773352, 8334098.797403134405613 ], [ 3404741.090924331918359, 8334139.885613651014864 ], [ 3404659.19317499967292, 8334204.519464238546789 ], [ 3404603.177207262720913, 8334222.989535004831851 ], [ 3404556.890563011169434, 8334232.853498516604304 ], [ 3404515.924990417901427, 8334223.916349810548127 ], [ 3404464.161427218932658, 8334180.04724330548197 ], [ 3404418.654019396752119, 8334113.118670775555074 ], [ 3404375.484320882242173, 8334033.061154993250966 ], [ 3404322.752278107218444, 8333917.080802299082279 ], [ 3404277.256002231035382, 8333797.395224204286933 ], [ 3404303.939284151885659, 8333682.808691812679172 ], [ 3404332.303490384016186, 8333582.367655019275844 ], [ 3404346.352010108530521, 8333503.88249659538269 ], [ 3404335.609679243527353, 8333423.566807536408305 ], [ 3404316.106504460796714, 8333344.33314685896039 ], [ 3404298.840851437766105, 8333238.049729695543647 ], [ 3404310.585057694464922, 8333061.05383488535881 ], [ 3404340.207174164708704, 8332879.38482225779444 ], [ 3404343.246196256950498, 8332796.251889157108963 ], [ 3404338.370402553584427, 8332712.943391495384276 ], [ 3404331.835948432795703, 8332572.119749032892287 ], [ 3404327.427696592640132, 8332477.253384769894183 ], [ 3404288.410215076059103, 8332325.293244988657534 ], [ 3404234.787616378162056, 8332243.754946390166879 ], [ 3404117.534796773921698, 8332160.938017807900906 ], [ 3403986.333644980564713, 8332106.49201862514019 ], [ 3403879.845420131459832, 8332050.127154509536922 ], [ 3403837.443826107308269, 8332033.824442286975682 ], [ 3403803.179686855524778, 8332015.514267128892243 ], [ 3403682.876713205594569, 8331951.27458980679512 ], [ 3403597.182969226036221, 8331868.284460002556443 ], [ 3403560.837155496235937, 8331816.752514698542655 ], [ 3403525.315105993766338, 8331767.360717865638435 ], [ 3403497.852587623056024, 8331715.608881236054003 ], [ 3403471.135909841861576, 8331662.291191707365215 ], [ 3403434.723304411396384, 8331569.885068940930068 ], [ 3403395.505447817966342, 8331487.649224118329585 ], [ 3403353.048194042872638, 8331429.215565577149391 ], [ 3403320.364791554398835, 8331380.488115381449461 ], [ 3403258.003612835891545, 8331321.018561854958534 ], [ 3403219.353485648985952, 8331289.62959511578083 ], [ 3403185.401040972210467, 8331275.424091118387878 ], [ 3403176.662460949737579, 8331271.76242836099118 ], [ 3403107.911543466150761, 8331251.799780812114477 ], [ 3403049.413151080720127, 8331250.674815536476672 ], [ 3403010.673968303948641, 8331269.005153399892151 ], [ 3402975.096259064972401, 8331296.202958710491657 ], [ 3402959.088516298681498, 8331329.930141029879451 ], [ 3402960.079259771388024, 8331358.606087517924607 ], [ 3402996.202434523962438, 8331444.59047737531364 ], [ 3403047.843546284362674, 8331522.678758562542498 ], [ 3403102.356700906064361, 8331583.032300695776939 ], [ 3403149.400317698251456, 8331643.276039297692478 ], [ 3403161.667725580278784, 8331682.982909697107971 ], [ 3403165.942394031211734, 8331743.999549805186689 ], [ 3403150.168422196991742, 8331785.471740377135575 ], [ 3403115.35881744325161, 8331812.539088176563382 ], [ 3402939.830244447570294, 8331862.240026609040797 ], [ 3402829.200934550724924, 8331891.778381451033056 ], [ 3402761.418496639933437, 8331911.41185665037483 ], [ 3402703.231798829045147, 8331919.287321485579014 ], [ 3402649.98768640588969, 8331910.70593305490911 ], [ 3402600.38372132787481, 8331850.94533216394484 ], [ 3402539.870446152985096, 8331762.110515057109296 ], [ 3402508.611933147069067, 8331675.615063207224011 ], [ 3402457.226856211666018, 8331575.841026769019663 ], [ 3402422.907057210337371, 8331513.083120237104595 ], [ 3402370.798403590917587, 8331467.421287798322737 ], [ 3402277.178711873479187, 8331440.906672101467848 ], [ 3402211.544740130193532, 8331420.325925353914499 ], [ 3402166.961284090764821, 8331433.362597514875233 ], [ 3402089.137828115839511, 8331474.281574091874063 ], [ 3402058.614023758564144, 8331516.590490070171654 ], [ 3402060.13910078490153, 8331557.840813486836851 ], [ 3402086.06541018281132, 8331638.864178041927516 ], [ 3402105.145570902619511, 8331695.689153350889683 ], [ 3402131.461498523596674, 8331783.530483751557767 ], [ 3402167.05033972254023, 8331908.654342970810831 ], [ 3402176.512496442534029, 8331979.732345054857433 ], [ 3402165.625450252555311, 8332022.882452725432813 ], [ 3402127.197962054982781, 8332089.019967874512076 ], [ 3402075.122704291250557, 8332160.871835331432521 ], [ 3402050.543360737618059, 8332178.454360658302903 ], [ 3402019.808049343526363, 8332178.321995193138719 ], [ 3401971.962932218797505, 8332135.788681549951434 ], [ 3401924.663280596025288, 8332056.017317932099104 ], [ 3401873.69008577754721, 8331959.348639521747828 ], [ 3401824.87648908328265, 8331923.986132262274623 ], [ 3401715.738860358484089, 8331889.704736608080566 ], [ 3401592.051774190273136, 8331853.769004215486348 ], [ 3401493.077614969108254, 8331796.656035960651934 ], [ 3401423.235766470432281, 8331720.086967111565173 ], [ 3401402.129591015633196, 8331611.576874379068613 ], [ 3401398.033033747691661, 8331499.891895264387131 ], [ 3401393.569122159387916, 8331378.282262961380184 ], [ 3401385.865813390817493, 8331269.269851828925312 ], [ 3401407.684433569665998, 8331214.477495020255446 ], [ 3401457.644621009938419, 8331142.2598484037444 ], [ 3401553.947112441062927, 8331047.566245835274458 ], [ 3401653.64484834112227, 8330965.79941782169044 ], [ 3401674.305745819583535, 8330930.243151245638728 ], [ 3401672.235203289426863, 8330887.209710107184947 ], [ 3401649.559423021972179, 8330859.020846602506936 ], [ 3401594.422879255842417, 8330838.618176029063761 ], [ 3401531.02642927877605, 8330829.13371051568538 ], [ 3401441.069148812443018, 8330849.867209057323635 ], [ 3401381.101339149288833, 8330839.2578264772892 ], [ 3401319.93127898266539, 8330795.144132944755256 ], [ 3401244.334212813992053, 8330720.416137131862342 ], [ 3401206.85294027486816, 8330660.312261549755931 ], [ 3401186.203174739144742, 8330600.03242532722652 ], [ 3401179.690984521061182, 8330507.485196359455585 ], [ 3401194.785907457116991, 8330402.257141154259443 ], [ 3401217.650930846109986, 8330300.360934776253998 ], [ 3401241.929711766075343, 8330182.255726723000407 ], [ 3401272.998981629963964, 8330148.401454079896212 ], [ 3401314.821714299265295, 8330133.051294279284775 ], [ 3401352.614681407343596, 8330140.638150881044567 ], [ 3401395.428157549351454, 8330184.946431264281273 ], [ 3401469.210716024041176, 8330291.627039610408247 ], [ 3401478.706268585287035, 8330301.81658496055752 ], [ 3401604.831251606810838, 8330438.693095417693257 ], [ 3401662.305504678282887, 8330464.299826973117888 ], [ 3401712.221164326183498, 8330462.050136406905949 ], [ 3401790.890648431144655, 8330430.686874551698565 ], [ 3401850.6246871589683, 8330388.91351031512022 ], [ 3401882.762624132912606, 8330341.494190899655223 ], [ 3401920.700306569691747, 8330256.294569100253284 ], [ 3401960.007218741811812, 8330159.825875290669501 ], [ 3401999.48111014906317, 8330062.211602138355374 ], [ 3402018.216180438175797, 8330024.035200404934585 ], [ 3402045.444927872158587, 8329996.908241061493754 ], [ 3402112.225490363780409, 8329958.07054825220257 ], [ 3402173.061592052225024, 8329943.382410996593535 ], [ 3402210.787767463829368, 8329933.105143121443689 ], [ 3402251.35258988942951, 8329910.279073574580252 ], [ 3402289.846869784407318, 8329882.821721023879945 ], [ 3402331.224324492737651, 8329876.403993087820709 ], [ 3402390.2347865360789, 8329881.674910116009414 ], [ 3402465.564685922581702, 8329907.522306648083031 ], [ 3402500.352026780601591, 8329930.105771494098008 ], [ 3402507.264967158436775, 8329956.659074320457876 ], [ 3402506.507994628511369, 8330037.400226728990674 ], [ 3402505.784417944960296, 8330101.84381190687418 ], [ 3402521.458202250301838, 8330210.552283336408436 ], [ 3402544.267565911635756, 8330313.395630775950849 ], [ 3402566.809762798249722, 8330442.883682748302817 ], [ 3402583.863908789120615, 8330532.055534415878356 ], [ 3402610.825489454902709, 8330627.42627449799329 ], [ 3402635.90577072603628, 8330737.13502680696547 ], [ 3402651.100881216581911, 8330773.065328177064657 ], [ 3402661.809816227760166, 8330806.437213342636824 ], [ 3402707.17250870866701, 8330825.626666986383498 ], [ 3402737.818764507770538, 8330815.811365505680442 ], [ 3402807.950043671764433, 8330778.314828206785023 ], [ 3402891.428529777098447, 8330748.185395538806915 ], [ 3402908.23777287825942, 8330735.326385184191167 ], [ 3402915.863157989922911, 8330713.490381135605276 ], [ 3402900.712575296405703, 8330646.063854766078293 ], [ 3402909.940961074549705, 8330606.913962357677519 ], [ 3402925.681537061929703, 8330578.064484269358218 ], [ 3402967.13691541319713, 8330551.133995136246085 ], [ 3403010.17303053336218, 8330556.802402788773179 ], [ 3403051.238790669012815, 8330556.074552533216774 ], [ 3403070.686305698473006, 8330540.238313252106309 ], [ 3403094.041134855244309, 8330511.433207376860082 ], [ 3403089.955709537956864, 8330443.413020242005587 ], [ 3403072.411757783032954, 8330264.410876895301044 ], [ 3403089.131945279892534, 8330123.523624841123819 ], [ 3403116.839366517029703, 8330036.959136326797307 ], [ 3403117.685394642408937, 8330003.700998709537089 ], [ 3403124.36456408444792, 8329971.259020648896694 ], [ 3403084.99086020514369, 8329910.080586276017129 ], [ 3403029.219795336015522, 8329811.63156649377197 ], [ 3403008.236071322113276, 8329704.781460301019251 ], [ 3403010.607176469638944, 8329663.850229381583631 ], [ 3402988.265354676637799, 8329621.706294819712639 ], [ 3402972.636098172981292, 8329598.815027663484216 ], [ 3402923.789105633739382, 8329586.994516699574888 ], [ 3402885.461804972030222, 8329593.742791166529059 ], [ 3402835.835575997829437, 8329579.716972715221345 ], [ 3402807.638348991516978, 8329544.167376052588224 ], [ 3402776.591343019623309, 8329490.203768042847514 ], [ 3402764.168087847530842, 8329437.585770474746823 ], [ 3402759.715308213140815, 8329382.454154908657074 ], [ 3402760.283037611749023, 8329338.150686760433018 ], [ 3402761.04001014214009, 8329278.940144838765264 ], [ 3402768.698791097849607, 8329175.096805791370571 ], [ 3402795.370941069442779, 8329055.884952469728887 ], [ 3402810.176433325279504, 8328919.16636386141181 ], [ 3402841.345890721771866, 8328791.270619552582502 ], [ 3402882.289199408143759, 8328684.03835944738239 ], [ 3402912.300934096332639, 8328520.249212822876871 ], [ 3402896.749601228162646, 8328403.230838537216187 ], [ 3402887.810646115802228, 8328312.783762495964766 ], [ 3402887.042541624512523, 8328250.97963226120919 ], [ 3402900.846158474683762, 8328218.87608543317765 ], [ 3402919.269534190651029, 8328198.127919545397162 ], [ 3402958.420599084347486, 8328192.461321129463613 ], [ 3402999.352775831706822, 8328213.429961856454611 ], [ 3403025.624175648670644, 8328254.463404668495059 ], [ 3403075.083425389137119, 8328315.672230735421181 ], [ 3403158.428328113164753, 8328360.91769755538553 ], [ 3403184.37690140446648, 8328362.020173402503133 ], [ 3403250.355963568668813, 8328364.820462787523866 ], [ 3403360.629051097668707, 8328378.799876080825925 ], [ 3403462.831475551705807, 8328414.851008745841682 ], [ 3403513.4929757877253, 8328421.22336791548878 ], [ 3403577.167724491097033, 8328406.45008687954396 ], [ 3403632.003705626819283, 8328369.781607991084456 ], [ 3403747.608996754977852, 8328299.069066029973328 ], [ 3403848.731622138060629, 8328219.978540039621294 ], [ 3403891.489438524935395, 8328135.905820233747363 ], [ 3403940.848500709980726, 8328032.25493239145726 ], [ 3403987.001561560668051, 8327901.508279357105494 ], [ 3403989.36153476126492, 8327876.351389423944056 ], [ 3403997.131635208148509, 8327793.473161587491632 ], [ 3404003.387790581677109, 8327720.715707063674927 ], [ 3404012.326745683327317, 8327648.091253271326423 ], [ 3404041.581507840193808, 8327537.48033429775387 ], [ 3404033.5219767075032, 8327490.057264240458608 ], [ 3404007.1726532462053, 8327472.08904895465821 ], [ 3403981.04596876911819, 8327455.950762780383229 ], [ 3403944.332800721284002, 8327445.743094497360289 ], [ 3403879.544857108034194, 8327447.52888426464051 ], [ 3403816.74953238107264, 8327428.524575867690146 ], [ 3403753.787228415254503, 8327409.321896262466908 ], [ 3403703.927228510379791, 8327375.700792090035975 ], [ 3403656.983799261506647, 8327353.257412288337946 ], [ 3403629.777315722312778, 8327341.440493145957589 ], [ 3403594.64488444570452, 8327349.377227800898254 ], [ 3403529.856940836180001, 8327375.237814031541348 ], [ 3403479.774301953613758, 8327389.810613918118179 ], [ 3403429.279780954122543, 8327425.195519933477044 ], [ 3403365.70521979406476, 8327458.993223902769387 ], [ 3403279.833364639431238, 8327462.697091271169484 ], [ 3403199.872574436478317, 8327437.585788769647479 ], [ 3403143.711891355458647, 8327409.608503081835806 ], [ 3403100.486533096991479, 8327376.714934658259153 ], [ 3403083.577102449722588, 8327347.591461781412363 ], [ 3403099.228622846771032, 8327305.637107249349356 ], [ 3403132.424094980582595, 8327265.601014163345098 ], [ 3403160.187175969127566, 8327217.672628530301154 ], [ 3403192.647939462214708, 8327145.053118641488254 ], [ 3403204.737236149143428, 8327059.559661922976375 ], [ 3403191.968890553805977, 8326981.562626414932311 ], [ 3403170.773659514728934, 8326938.596267457120121 ], [ 3403179.946385548450053, 8326913.310384378768504 ], [ 3403191.456820889841765, 8326883.747835665941238 ], [ 3403230.797128914855421, 8326864.017490520142019 ], [ 3403268.556700175628066, 8326861.879121081903577 ], [ 3403312.561294867657125, 8326882.447174425236881 ], [ 3403378.9077113494277, 8326891.662033603526652 ], [ 3403479.006197421811521, 8326872.570974445901811 ], [ 3403538.628916662652045, 8326862.430247141048312 ], [ 3403572.926451758015901, 8326836.086466272361577 ], [ 3403602.77120722271502, 8326802.556149635463953 ], [ 3403610.229613099247217, 8326769.488925229758024 ], [ 3403604.095909156836569, 8326733.423774522729218 ], [ 3403619.958936583250761, 8326677.562818869017065 ], [ 3403636.22271417779848, 8326657.766890934668481 ], [ 3403660.657342395279557, 8326648.243701735511422 ], [ 3403676.743008805438876, 8326639.161412358283997 ], [ 3403693.541119958274066, 8326628.073098470456898 ], [ 3403707.489452149719, 8326627.25745774526149 ], [ 3403728.706947084981948, 8326642.798735647462308 ], [ 3403768.325553840957582, 8326655.650625596754253 ], [ 3403790.099646230228245, 8326654.526359892450273 ], [ 3403825.020570474676788, 8326647.802813638933003 ], [ 3403870.327603206504136, 8326637.750572280958295 ], [ 3403889.975493319798261, 8326612.972737523727119 ], [ 3403895.229773282073438, 8326595.844336251728237 ], [ 3403896.810510049108416, 8326579.112770265899599 ], [ 3403893.938467185012996, 8326552.637734674848616 ], [ 3403886.502325200941414, 8326523.495465461164713 ], [ 3403874.357368759345263, 8326500.459486782550812 ], [ 3403853.629679579287767, 8326481.766228633001447 ], [ 3403788.073631481267512, 8326456.636215545237064 ], [ 3403797.112774126697332, 8326421.696821826510131 ], [ 3403816.048219497315586, 8326386.978029538877308 ], [ 3403833.380664206109941, 8326377.763799675740302 ], [ 3403861.065821551717818, 8326358.67406814545393 ], [ 3403938.878145575523376, 8326300.413217833265662 ], [ 3404048.561239792965353, 8326169.23430141620338 ], [ 3404090.428500254172832, 8326122.194739664904773 ], [ 3404124.124910095706582, 8326021.878473894670606 ], [ 3404103.285901418887079, 8325925.465046983212233 ], [ 3404064.413135248236358, 8325866.017340033315122 ], [ 3404021.043061649892479, 8325812.477341409772635 ], [ 3403949.175198421813548, 8325758.01197714637965 ], [ 3403881.69332312932238, 8325705.288299900479615 ], [ 3403795.843731862958521, 8325624.462222370319068 ], [ 3403724.142847869545221, 8325548.596280341036618 ], [ 3403662.048835928551853, 8325484.831580515950918 ], [ 3403608.303785789292306, 8325395.720617908984423 ], [ 3403582.076913765631616, 8325322.127190082333982 ], [ 3403569.486679357942194, 8325269.715186671353877 ], [ 3403565.04503167187795, 8325205.005168752744794 ], [ 3403574.07304236618802, 8325146.687293357215822 ], [ 3403582.622379252221435, 8325110.277424607425928 ], [ 3403605.309291461482644, 8325076.09374621976167 ], [ 3403668.182539828587323, 8325032.587475139647722 ], [ 3403759.653765368741006, 8324990.580143365077674 ], [ 3403892.302070531062782, 8324930.699170833453536 ], [ 3403973.43171537714079, 8324878.620530331507325 ], [ 3404036.471942978445441, 8324807.765076839365065 ], [ 3404090.294916744809598, 8324705.9680265635252 ], [ 3404103.942686298396438, 8324587.75385688431561 ], [ 3404129.624092804268003, 8324504.758237471804023 ], [ 3404163.18691925611347, 8324400.717514935880899 ], [ 3404167.149893120396882, 8324335.508243010379374 ], [ 3404098.688406303524971, 8324215.272581011988223 ], [ 3404077.89392542745918, 8324165.512866504490376 ], [ 3404033.900462677702308, 8324060.22082847636193 ], [ 3403991.710375675931573, 8323904.907894192263484 ], [ 3403949.587080371100456, 8323807.243997517041862 ], [ 3403819.087241361383349, 8323666.788300555199385 ], [ 3403731.011260279454291, 8323594.159605321474373 ], [ 3403693.318480711895972, 8323558.726932948455215 ], [ 3403667.136136483866721, 8323519.504396705888212 ], [ 3403649.391809660475701, 8323494.582769744098186 ], [ 3403582.566719358786941, 8323400.736300812102854 ], [ 3403574.206625599879771, 8323342.366557636298239 ], [ 3403579.861655727494508, 8323307.37578123062849 ], [ 3403584.815373060293496, 8323276.770004938356578 ], [ 3403585.394234410487115, 8323245.216882300563157 ], [ 3403585.51668584998697, 8323238.474402887746692 ], [ 3403581.230885447002947, 8323135.751506763510406 ], [ 3403558.966987296473235, 8323092.873603099957108 ], [ 3403526.294716760516167, 8323059.778906146995723 ], [ 3403488.11213143216446, 8323038.22997540794313 ], [ 3403470.156297571957111, 8322993.986559936776757 ], [ 3403507.537382557056844, 8322903.914130163379014 ], [ 3403596.092037432361394, 8322815.69356784503907 ], [ 3403693.440932075493038, 8322671.334919094108045 ], [ 3403713.923718363046646, 8322574.127967033535242 ], [ 3403664.887482678052038, 8322410.826690726913512 ], [ 3403607.157194765750319, 8322246.735896308906376 ], [ 3403568.818762148264796, 8322197.73849215824157 ], [ 3403425.817744337487966, 8322134.377222717739642 ], [ 3403363.267322482541203, 8322061.939830492250621 ], [ 3403323.737771312240511, 8321963.859675322659314 ], [ 3403287.725916047114879, 8321837.758531081490219 ], [ 3403264.181843751110137, 8321786.472727267071605 ], [ 3403217.750484159216285, 8321739.879618643783033 ], [ 3403195.252815075218678, 8321681.677197695709765 ], [ 3403189.085715281311423, 8321612.08603255264461 ], [ 3403205.783638886641711, 8321543.024222983978689 ], [ 3403231.353725902736187, 8321479.51436288561672 ], [ 3403250.812372880987823, 8321442.329515986144543 ], [ 3403268.812734532169998, 8321407.942510672844946 ], [ 3403277.662634040694684, 8321355.382028870284557 ], [ 3403295.696391532663256, 8321248.323695522733033 ], [ 3403299.982191924471408, 8321222.903076277114451 ], [ 3403256.511930782347918, 8321129.415866342373192 ], [ 3403211.249425838701427, 8321041.304592532105744 ], [ 3403158.929265181999654, 8320960.287203174084425 ], [ 3403053.198012866079807, 8320855.459332367405295 ], [ 3402946.943558947183192, 8320777.725987628102303 ], [ 3402924.690792750567198, 8320770.523194295354187 ], [ 3402904.541964923031628, 8320767.241189875639975 ], [ 3402878.114717821124941, 8320765.743362843059003 ], [ 3402860.348127100151032, 8320768.739017214626074 ], [ 3402849.004670992027968, 8320766.492276314646006 ], [ 3402837.661214885301888, 8320754.3995355758816 ], [ 3402831.393927553668618, 8320736.183367822319269 ], [ 3402819.449346192646772, 8320703.34151497669518 ], [ 3402773.919674477074295, 8320654.354340971447527 ], [ 3402649.252976789604872, 8320575.411664577201009 ], [ 3402591.923439051955938, 8320516.293315065093338 ], [ 3402557.547980307601392, 8320466.888887148350477 ], [ 3402464.562809678725898, 8320330.285050003789365 ], [ 3402385.325596156995744, 8320191.150844245217741 ], [ 3402294.667002882342786, 8320028.210552616044879 ], [ 3402278.738356808200479, 8320000.8709452804178 ], [ 3403192.568298258818686, 8316882.57861465960741 ], [ 3403571.814674504101276, 8316553.362235804088414 ], [ 3404661.230693879537284, 8316181.658306236378849 ], [ 3405120.013304435182363, 8316118.985705605708063 ], [ 3406111.002113569993526, 8316148.958110854960978 ], [ 3407038.105145804118365, 8316500.294320958666503 ], [ 3407800.066560232080519, 8317134.622286469675601 ], [ 3407868.898224190808833, 8317214.61359871737659 ], [ 3408162.301667700055987, 8317240.661464530043304 ], [ 3408851.294468743726611, 8317478.264718692749739 ], [ 3409414.196546392515302, 8317752.858141713775694 ], [ 3411052.096292268484831, 8318059.242816150188446 ], [ 3413452.43710176134482, 8318004.684223321266472 ], [ 3413655.958583987783641, 8318006.964426641352475 ], [ 3415097.815308434888721, 8318072.082760253921151 ], [ 3416885.719190291594714, 8318011.413759468123317 ], [ 3417547.822228921111673, 8317913.112922253087163 ], [ 3418642.523233492393047, 8317952.767922042869031 ], [ 3419650.011396238580346, 8318382.78002692386508 ], [ 3419667.742713431362063, 8318394.575433555059135 ], [ 3419947.155346889980137, 8318381.945271759293973 ], [ 3420507.970596649684012, 8318459.968362739309669 ], [ 3420988.385697037447244, 8318516.897971169091761 ], [ 3421125.763694029301405, 8318484.120649544522166 ], [ 3422029.824536410626024, 8318409.419525982812047 ], [ 3423469.324256631545722, 8318509.381931932643056 ], [ 3423672.02465381519869, 8318530.396123193204403 ], [ 3426314.239597420673817, 8318895.396862935274839 ], [ 3426869.750950128305703, 8319026.969482499174774 ], [ 3427322.738755296450108, 8319181.044132850132883 ], [ 3429248.049924155697227, 8319444.584634265862405 ], [ 3429725.888366050086915, 8319511.81547464709729 ], [ 3430269.948887648526579, 8319639.230411754921079 ], [ 3430990.646724646911025, 8319880.714050305075943 ], [ 3431026.221773587167263, 8319887.309585662558675 ], [ 3431764.541655550245196, 8320126.272804226726294 ], [ 3432714.543957634363323, 8320836.068694176152349 ], [ 3432796.163408254738897, 8320927.24197446834296 ], [ 3433064.214245942421257, 8321274.809141080826521 ], [ 3433101.523628083523363, 8321331.295257953926921 ], [ 3433244.408229683991522, 8321543.944472041912377 ], [ 3433653.137584805488586, 8322444.541613089852035 ], [ 3433665.727819212712348, 8322491.783030259422958 ], [ 3433764.928371982648969, 8323155.353166813030839 ], [ 3433766.76514358446002, 8323205.878020375967026 ], [ 3433665.23530441429466, 8324096.114756396971643 ], [ 3433305.329006035812199, 8324916.661653770133853 ], [ 3432749.322656068019569, 8325559.442821991629899 ], [ 3432671.278831548523158, 8325706.816444485448301 ], [ 3432569.180912486743182, 8325802.73537639901042 ], [ 3432291.841808095574379, 8326172.890781207941473 ], [ 3432244.030086824670434, 8326222.341454386711121 ], [ 3431806.047652863897383, 8326545.679520728997886 ], [ 3431572.6854382683523, 8327209.659500318579376 ], [ 3431545.055940668098629, 8327258.129243683069944 ], [ 3431319.855404308997095, 8327597.389329337514937 ], [ 3431260.744754735380411, 8327674.513964747078717 ], [ 3430959.273487865924835, 8327940.573421991430223 ], [ 3430656.801780539099127, 8328349.974282898940146 ], [ 3430550.561428245622665, 8328461.835794581100345 ], [ 3430524.479087891988456, 8328605.153406841680408 ], [ 3430176.209288340527564, 8329262.834329371340573 ], [ 3430155.709155371412635, 8329408.855384328402579 ], [ 3429979.488175314385444, 8329848.990170499309897 ], [ 3429988.367687076795846, 8329852.587598407641053 ], [ 3429890.697581101208925, 8330093.666190395131707 ], [ 3429741.575356587767601, 8330525.155715075321496 ], [ 3429695.035477967467159, 8330593.626283078454435 ], [ 3429631.105947755277157, 8330735.093234494328499 ], [ 3429567.773004665970802, 8330944.456968975253403 ], [ 3429545.72061355272308, 8330986.975474837236106 ], [ 3429529.640916577074677, 8331016.465862285345793 ], [ 3429536.317913342267275, 8331075.050393292680383 ], [ 3429483.975585747510195, 8332066.458528998307884 ], [ 3429474.825123611837626, 8332107.575931350700557 ], [ 3429442.50544921355322, 8332238.792236316017807 ], [ 3429432.063680988736451, 8332277.417214906774461 ], [ 3429330.939682381693274, 8332513.073582215234637 ], [ 3429458.783617263194174, 8332848.797209605574608 ], [ 3429516.252245162148029, 8333399.107087591663003 ], [ 3429606.436950727365911, 8333970.605938402935863 ], [ 3429609.030694867949933, 8334034.246369851753116 ], [ 3429575.356709093786776, 8334493.917834357358515 ], [ 3429586.920655933674425, 8334494.984742418862879 ], [ 3429575.20984551962465, 8334621.915256804786623 ], [ 3429519.378474667668343, 8334983.809932175092399 ], [ 3429500.153598625678569, 8335072.212409922853112 ], [ 3428942.86912673804909, 8336268.603632684797049 ], [ 3428905.084989820607007, 8336317.519588931463659 ], [ 3428815.590529974084347, 8336862.692760843783617 ], [ 3428656.406287843827158, 8337445.729021176695824 ], [ 3428632.843167501501739, 8337527.454733155667782 ], [ 3428382.625327305868268, 8338351.248853186145425 ], [ 3428153.910388675518334, 8338900.958387395367026 ], [ 3427691.969760621432215, 8339759.398054528981447 ], [ 3427581.966026625130326, 8339945.43876173440367 ], [ 3427449.638212560676038, 8340607.918445643037558 ], [ 3427328.378797695972025, 8340875.45905939117074 ], [ 3427199.491875099018216, 8341084.543807891197503 ], [ 3427222.596395334228873, 8341214.769285581074655 ], [ 3427260.264444080647081, 8341964.012474805116653 ], [ 3427246.791175762191415, 8342143.014468176290393 ], [ 3426965.085841939784586, 8343205.015396519564092 ], [ 3426855.374942777212709, 8343435.985710546374321 ], [ 3426789.635973611846566, 8343564.955121650360525 ], [ 3426743.516919183079153, 8343726.636864187195897 ], [ 3427001.678848226554692, 8344258.387869493104517 ], [ 3427145.614264452364296, 8345076.802082605659962 ], [ 3427059.518768524285406, 8345903.304831450805068 ], [ 3427009.475200485438108, 8346105.403856224380434 ], [ 3426931.074213963933289, 8346314.752833420410752 ], [ 3426940.006692554336041, 8346365.45068487804383 ], [ 3426878.257691189646721, 8347681.011479387059808 ], [ 3426812.956366444937885, 8347918.619282244704664 ], [ 3426682.35371695458889, 8348393.834887962788343 ], [ 3426526.319969857111573, 8348827.819494449533522 ] ] ] ] } }
]
}
