{
"type": "FeatureCollection",
"name": "12",
"crs": { "type": "name", "properties": { "name": "urn:ogc:def:crs:EPSG::3857" } },
"features": [
{ "type": "Feature", "properties": { "name": "Сертолово", "layer": "finns_0_1_count_100_plus", "path": "C:/Work/SPb_Mountains/SPb_Mountains/new_files/layers/finns_0_1_count_100_plus.geojson" }, "geometry": { "type": "Point", "coordinates": [ 3362914.060803244356066, 8432017.676011657342315 ] } },
{ "type": "Feature", "properties": { "name": "Дубровка", "layer": "finns_0_1_count_100_plus", "path": "C:/Work/SPb_Mountains/SPb_Mountains/new_files/layers/finns_0_1_count_100_plus.geojson" }, "geometry": { "type": "Point", "coordinates": [ 3443607.377817268483341, 8365200.309190234169364 ] } },
{ "type": "Feature", "properties": { "name": "Кузьмоловский", "layer": "finns_0_1_count_100_plus", "path": "C:/Work/SPb_Mountains/SPb_Mountains/new_files/layers/finns_0_1_count_100_plus.geojson" }, "geometry": { "type": "Point", "coordinates": [ 3394412.111098284367472, 8424215.256594832986593 ] } },
{ "type": "Feature", "properties": { "name": "имени Свердлова", "layer": "finns_0_1_count_100_plus", "path": "C:/Work/SPb_Mountains/SPb_Mountains/new_files/layers/finns_0_1_count_100_plus.geojson" }, "geometry": { "type": "Point", "coordinates": [ 3410459.583800620865077, 8354911.636894186958671 ] } },
{ "type": "Feature", "properties": { "name": "Новое Девяткино", "layer": "finns_0_1_count_100_plus", "path": "C:/Work/SPb_Mountains/SPb_Mountains/new_files/layers/finns_0_1_count_100_plus.geojson" }, "geometry": { "type": "Point", "coordinates": [ 3392602.89107416709885, 8412506.122649922966957 ] } },
{ "type": "Feature", "properties": { "name": "Коммунар", "layer": "finns_0_1_count_100_plus", "path": "C:/Work/SPb_Mountains/SPb_Mountains/new_files/layers/finns_0_1_count_100_plus.geojson" }, "geometry": { "type": "Point", "coordinates": [ 3383394.887886168435216, 8315963.200338057242334 ] } },
{ "type": "Feature", "properties": { "name": "Тельмана", "layer": "finns_0_1_count_100_plus", "path": "C:/Work/SPb_Mountains/SPb_Mountains/new_files/layers/finns_0_1_count_100_plus.geojson" }, "geometry": { "type": "Point", "coordinates": [ 3407724.052029714453965, 8338863.066272918134928 ] } },
{ "type": "Feature", "properties": { "name": "Всеволожск", "layer": "finns_1_5_count_100_plus", "path": "C:/Work/SPb_Mountains/SPb_Mountains/new_files/layers/finns_1_5_count_100_plus.geojson" }, "geometry": { "type": "Point", "coordinates": [ 3411459.86734904255718, 8403975.616981349885464 ] } },
{ "type": "Feature", "properties": { "name": "Мурино", "layer": "finns_1_5_count_100_plus", "path": "C:/Work/SPb_Mountains/SPb_Mountains/new_files/layers/finns_1_5_count_100_plus.geojson" }, "geometry": { "type": "Point", "coordinates": [ 3390491.260521359741688, 8409740.814805774018168 ] } },
{ "type": "Feature", "properties": { "name": "Кудрово", "layer": "finns_1_5_count_100_plus", "path": "C:/Work/SPb_Mountains/SPb_Mountains/new_files/layers/finns_1_5_count_100_plus.geojson" }, "geometry": { "type": "Point", "coordinates": [ 3396575.97275617159903, 8379209.991733524017036 ] } },
{ "type": "Feature", "properties": { "name": "Янино-1", "layer": "finns_1_5_count_100_plus", "path": "C:/Work/SPb_Mountains/SPb_Mountains/new_files/layers/finns_1_5_count_100_plus.geojson" }, "geometry": { "type": "Point", "coordinates": [ 3402056.85467707272619, 8387590.487090036273003 ] } },
{ "type": "Feature", "properties": { "name": "имени Морозова", "layer": "finns_1_5_count_100_plus", "path": "C:/Work/SPb_Mountains/SPb_Mountains/new_files/layers/finns_1_5_count_100_plus.geojson" }, "geometry": { "type": "Point", "coordinates": [ 3454801.899582370650023, 8394068.322132742032409 ] } },
{ "type": "Feature", "properties": { "name": "Бугры", "layer": "finns_1_5_count_100_plus", "path": "C:/Work/SPb_Mountains/SPb_Mountains/new_files/layers/finns_1_5_count_100_plus.geojson" }, "geometry": { "type": "Point", "coordinates": [ 3384087.629077375400811, 8415342.727224681526423 ] } },
{ "type": "Feature", "properties": { "name": "Старая", "layer": "finns_1_5_count_100_plus", "path": "C:/Work/SPb_Mountains/SPb_Mountains/new_files/layers/finns_1_5_count_100_plus.geojson" }, "geometry": { "type": "Point", "coordinates": [ 3409959.625703570898622, 8384069.1148542156443 ] } },
{ "type": "Feature", "properties": { "name": "Рощино", "layer": "finns_1_5_count_100_plus", "path": "C:/Work/SPb_Mountains/SPb_Mountains/new_files/layers/finns_1_5_count_100_plus.geojson" }, "geometry": { "type": "Point", "coordinates": [ 3298263.463149299845099, 8453547.301641274243593 ] } },
{ "type": "Feature", "properties": { "name": "Гатчина", "layer": "finns_1_5_count_100_plus", "path": "C:/Work/SPb_Mountains/SPb_Mountains/new_files/layers/finns_1_5_count_100_plus.geojson" }, "geometry": { "type": "Point", "coordinates": [ 3353847.355444910004735, 8303550.197810588404536 ] } },
{ "type": "Feature", "properties": { "name": "Сусанино", "layer": "finns_1_5_count_100_plus", "path": "C:/Work/SPb_Mountains/SPb_Mountains/new_files/layers/finns_1_5_count_100_plus.geojson" }, "geometry": { "type": "Point", "coordinates": [ 3380653.500710045918822, 8287528.961305610835552 ] } },
{ "type": "Feature", "properties": { "name": "Кировск", "layer": "finns_1_5_count_100_plus", "path": "C:/Work/SPb_Mountains/SPb_Mountains/new_files/layers/finns_1_5_count_100_plus.geojson" }, "geometry": { "type": "Point", "coordinates": [ 3448846.718707046937197, 8372012.34581352211535 ] } },
{ "type": "Feature", "properties": { "name": "Шлиссельбург", "layer": "finns_1_5_count_100_plus", "path": "C:/Work/SPb_Mountains/SPb_Mountains/new_files/layers/finns_1_5_count_100_plus.geojson" }, "geometry": { "type": "Point", "coordinates": [ 3454609.316863298416138, 8387349.125694211572409 ] } },
{ "type": "Feature", "properties": { "name": "Новоселье", "layer": "finns_1_5_count_100_plus", "path": "C:/Work/SPb_Mountains/SPb_Mountains/new_files/layers/finns_1_5_count_100_plus.geojson" }, "geometry": { "type": "Point", "coordinates": [ 3348217.995587188750505, 8357346.68639372009784 ] } },
{ "type": "Feature", "properties": { "name": "Новогорелово", "layer": "finns_1_5_count_100_plus", "path": "C:/Work/SPb_Mountains/SPb_Mountains/new_files/layers/finns_1_5_count_100_plus.geojson" }, "geometry": { "type": "Point", "coordinates": [ 3358089.028794300276786, 8353237.573518145829439 ] } },
{ "type": "Feature", "properties": { "name": "Тосно", "layer": "finns_1_5_count_100_plus", "path": "C:/Work/SPb_Mountains/SPb_Mountains/new_files/layers/finns_1_5_count_100_plus.geojson" }, "geometry": { "type": "Point", "coordinates": [ 3437296.976446823216975, 8298179.059228086844087 ] } },
{ "type": "Feature", "properties": { "name": "Никольское", "layer": "finns_1_5_count_100_plus", "path": "C:/Work/SPb_Mountains/SPb_Mountains/new_files/layers/finns_1_5_count_100_plus.geojson" }, "geometry": { "type": "Point", "coordinates": [ 3427238.414425520692021, 8334176.737295073457062 ] } },
{ "type": "Feature", "properties": { "name": "Фёдоровское", "layer": "finns_1_5_count_100_plus", "path": "C:/Work/SPb_Mountains/SPb_Mountains/new_files/layers/finns_1_5_count_100_plus.geojson" }, "geometry": { "type": "Point", "coordinates": [ 3398736.361245945561677, 8324888.053366824053228 ] } },
{ "type": "Feature", "properties": { "name": "Сосновый Бор", "layer": "finns_1_5_count_100_plus", "path": "C:/Work/SPb_Mountains/SPb_Mountains/new_files/layers/finns_1_5_count_100_plus.geojson" }, "geometry": { "type": "Point", "coordinates": [ 3238529.891931490972638, 8378445.218371272087097 ] } },
{ "type": "Feature", "properties": { "name": "Ладожское Озеро", "layer": "finns_5_plus_count_100_plus", "path": "C:/Work/SPb_Mountains/SPb_Mountains/new_files/layers/finns_5_plus_count_100_plus.geojson" }, "geometry": { "type": "Point", "coordinates": [ 3459438.690332383383065, 8426508.258098293095827 ] } },
{ "type": "Feature", "properties": { "name": "Новый Свет", "layer": "finns_5_plus_count_100_plus", "path": "C:/Work/SPb_Mountains/SPb_Mountains/new_files/layers/finns_5_plus_count_100_plus.geojson" }, "geometry": { "type": "Point", "coordinates": [ 3361548.43781798845157, 8302041.218346148729324 ] } },
{ "type": "Feature", "properties": { "name": "Отрадное", "layer": "finns_5_plus_count_100_plus", "path": "C:/Work/SPb_Mountains/SPb_Mountains/new_files/layers/finns_5_plus_count_100_plus.geojson" }, "geometry": { "type": "Point", "coordinates": [ 3428511.742420959752053, 8349293.600957542657852 ] } },
{ "type": "Feature", "properties": { "name": "Аннино", "layer": "finns_5_plus_count_100_plus", "path": "C:/Work/SPb_Mountains/SPb_Mountains/new_files/layers/finns_5_plus_count_100_plus.geojson" }, "geometry": { "type": "Point", "coordinates": [ 3345879.740815025288612, 8349360.335576569661498 ] } }
]
}
