{
"type": "FeatureCollection",
"name": "13_mask",
"crs": { "type": "name", "properties": { "name": "urn:ogc:def:crs:EPSG::3857" } },
"features": [
{ "type": "Feature", "properties": { "MINX": 2900920.8385443371, "MINY": 8059140.0912254471, "MAXX": 3703810.8385443371, "MAXY": 8610735.0912254471, "CNTX": 3302365.8385443371, "CNTY": 8334937.5912254471, "AREA": 442870109550.0, "PERIM": 2708970.0, "HEIGHT": 551595.0, "WIDTH": 802890.0, "fid": null, "name": null, "id": null, "type": null }, "geometry": { "type": "MultiPolygon", "coordinates": [ [ [ [ 2900920.838544337078929, 8610735.091225447133183 ], [ 3703810.838544337078929, 8610735.091225447133183 ], [ 3703810.838544337078929, 8059140.091225447133183 ], [ 2900920.838544337078929, 8059140.091225447133183 ], [ 2900920.838544337078929, 8610735.091225447133183 ] ], [ [ 3289754.587750166188926, 8345350.697057317011058 ], [ 3290418.643239085562527, 8344701.16742975730449 ], [ 3290546.7409398984164, 8344791.446838050149381 ], [ 3290641.384770932141691, 8344838.229763159528375 ], [ 3290724.629486108664423, 8344849.146558297798038 ], [ 3290738.132540333550423, 8344847.710136953741312 ], [ 3290834.446163723245263, 8344857.433609909377992 ], [ 3290950.185038247611374, 8344845.544456074945629 ], [ 3291140.01816580304876, 8344790.916471165604889 ], [ 3291251.337656538002193, 8344732.178579117171466 ], [ 3291351.937080313917249, 8344668.911011203192174 ], [ 3291372.787220924627036, 8344616.803515738807619 ], [ 3291370.861393734347075, 8344599.147157727740705 ], [ 3291383.841246353928, 8344584.010013324208558 ], [ 3291406.56155441282317, 8344579.126357299275696 ], [ 3291428.190931465476751, 8344592.119983178563416 ], [ 3291446.035445835441351, 8344631.587157100439072 ], [ 3291473.074950139503926, 8344681.352337822318077 ], [ 3291505.524581694509834, 8344730.012932121753693 ], [ 3291557.989457682706416, 8344754.365448036231101 ], [ 3291648.30296052293852, 8344756.531102158129215 ], [ 3291735.922531687188894, 8344799.800120761618018 ], [ 3291819.746108218561858, 8344839.268404840491712 ], [ 3291909.002075898461044, 8344898.206039284355938 ], [ 3291997.701446127146482, 8344953.917674097232521 ], [ 3292058.270381045062095, 8345034.491452450864017 ], [ 3292147.504084824584424, 8345045.320140263997018 ], [ 3292257.298498539254069, 8345006.381136966869235 ], [ 3292294.323361160233617, 8345008.23747525177896 ], [ 3292330.635779038071632, 8345006.403236227110028 ], [ 3292436.634198118932545, 8344978.27092851139605 ], [ 3292498.294064039364457, 8344957.188342402689159 ], [ 3292604.83794862870127, 8344964.746243700385094 ], [ 3292633.447057748679072, 8344984.127213099040091 ], [ 3292639.623348532710224, 8344989.303871909156442 ], [ 3292863.377465888857841, 8345150.734931043349206 ], [ 3292943.961645247414708, 8345276.195963389240205 ], [ 3292924.436206584330648, 8345439.561489405110478 ], [ 3292925.516005660407245, 8345601.825577950105071 ], [ 3292956.885838162153959, 8345730.54318548925221 ], [ 3292869.221739212982357, 8345822.574114511720836 ], [ 3292718.528544601518661, 8345887.376600087620318 ], [ 3292441.621311405673623, 8346125.351589628495276 ], [ 3292139.845303976442665, 8346342.756083586253226 ], [ 3292078.185438056010753, 8346361.146021327003837 ], [ 3292054.607969917822629, 8346375.314261806197464 ], [ 3292051.212725451216102, 8346378.607663248665631 ], [ 3292033.546322273090482, 8346395.693588308990002 ], [ 3292025.854145461227745, 8346403.142445106059313 ], [ 3291932.958030452951789, 8346560.432226716540754 ], [ 3291863.62825163686648, 8346752.628266933374107 ], [ 3291855.613248306326568, 8346797.765773836523294 ], [ 3291870.619115662761033, 8346839.897309899330139 ], [ 3291892.448867799248546, 8346853.513849354349077 ], [ 3291922.271359369624406, 8346876.149191290140152 ], [ 3291926.612819512374699, 8346924.780043472535908 ], [ 3291942.208680171053857, 8346987.116422472521663 ], [ 3291971.029296325985342, 8347015.167964748106897 ], [ 3291997.100321059115231, 8347028.077457370236516 ], [ 3292032.366335725877434, 8347034.11221079993993 ], [ 3292131.151251815725118, 8347106.949642269872129 ], [ 3292259.068478626664728, 8347118.400326599366963 ], [ 3292276.523374774493277, 8347115.283439720980823 ], [ 3292287.132122240960598, 8347113.382360428571701 ], [ 3292342.246402107179165, 8347109.867575572803617 ], [ 3292390.926415407564491, 8347104.606454215012491 ], [ 3292419.067982665263116, 8347096.980045446194708 ], [ 3292435.331760264933109, 8347100.62745735514909 ], [ 3292611.011404124088585, 8347156.00446473993361 ], [ 3292675.169603069312871, 8347168.823338976129889 ], [ 3292679.210500585846603, 8347171.078124429099262 ], [ 3292696.709924529306591, 8347180.782552022486925 ], [ 3292710.502409433480352, 8347188.453258949331939 ], [ 3292776.759770324453712, 8347206.624244898557663 ], [ 3292845.365972471889108, 8347259.391096297651529 ], [ 3292889.348303268197924, 8347310.411937993019819 ], [ 3292904.587941552046686, 8347331.523351282812655 ], [ 3292898.721404394134879, 8347379.029778492636979 ], [ 3292906.936782814562321, 8347405.999594013206661 ], [ 3292912.213326677214354, 8347432.969508062116802 ], [ 3292942.113741891924292, 8347454.081271824426949 ], [ 3292964.611410972196609, 8347487.661259195767343 ], [ 3292990.348477231804281, 8347482.200908514671028 ], [ 3293038.293781895656139, 8347489.230834423564374 ], [ 3293064.81008458789438, 8347467.787370658479631 ], [ 3293101.066842723637819, 8347474.397256452590227 ], [ 3293141.219783033709973, 8347496.636581213213503 ], [ 3293164.2183898226358, 8347509.104780671186745 ], [ 3293193.85163825750351, 8347499.355708020739257 ], [ 3293232.446105697657913, 8347521.573001174256206 ], [ 3293277.664082839153707, 8347540.297478278167546 ], [ 3293320.55548262083903, 8347546.531612238846719 ], [ 3293340.826761887408793, 8347560.945303833112121 ], [ 3293375.914665373042226, 8347601.887415659613907 ], [ 3293392.289762463886291, 8347624.105017391964793 ], [ 3293386.434357251506299, 8347642.431825755164027 ], [ 3293404.36792721087113, 8347652.181087349541485 ], [ 3293417.236460342537612, 8347679.85933327767998 ], [ 3293438.676594261080027, 8347696.6166603974998 ], [ 3293452.71398204471916, 8347708.709372596815228 ], [ 3293468.699460914358497, 8347700.90548110473901 ], [ 3293484.295321568846703, 8347709.881062394939363 ], [ 3293503.008127962239087, 8347712.998200326226652 ], [ 3293533.030994611792266, 8347707.537682974711061 ], [ 3293549.784577968996018, 8347707.935615273192525 ], [ 3293561.773687123320997, 8347712.622375111095607 ], [ 3293695.201228743884712, 8347915.327585316263139 ], [ 3293794.231047713663429, 8348004.99806344229728 ], [ 3293817.94209924293682, 8348015.366835434921086 ], [ 3293842.588234492577612, 8348026.465195997618139 ], [ 3293850.369466896168888, 8348029.560359289869666 ], [ 3293886.592829182744026, 8348038.049956702627242 ], [ 3293911.962541123852134, 8348043.997102363966405 ], [ 3293992.279553693719208, 8348049.833710944280028 ], [ 3294140.813150196801871, 8348132.873232938349247 ], [ 3294272.971649608574808, 8348174.990280425176024 ], [ 3294404.640343256760389, 8348178.306593575514853 ], [ 3294425.323504637926817, 8348178.151832258328795 ], [ 3294435.486974139232188, 8348175.896739192306995 ], [ 3294487.395252669695765, 8348151.2013043705374 ], [ 3294591.100490242708474, 8348137.162307067774236 ], [ 3294763.801548179704696, 8348150.803348151966929 ], [ 3294875.310282058548182, 8348183.170522205531597 ], [ 3294946.365512997377664, 8348202.913683705031872 ], [ 3295088.553898526821285, 8348242.42227406334132 ], [ 3295251.124882802832872, 8348243.19608739297837 ], [ 3295366.140180639922619, 8348268.930954336188734 ], [ 3295459.626288966741413, 8348311.557288690470159 ], [ 3295502.862779173068702, 8348330.681735508143902 ], [ 3295771.821800759062171, 8348426.1499461857602 ], [ 3295877.107775106560439, 8348466.256691080518067 ], [ 3295945.624921654816717, 8348451.222163593396544 ], [ 3295992.412503618281335, 8348501.366853901185095 ], [ 3296091.008176568429917, 8348523.078637641854584 ], [ 3296228.042469677049667, 8348593.277560788206756 ], [ 3296299.899200960062444, 8348711.920785895548761 ], [ 3296443.62379545904696, 8348743.671327593736351 ], [ 3296555.588939251378179, 8348813.872348493896425 ], [ 3296672.574592074844986, 8348848.962053908035159 ], [ 3296724.315891377162188, 8348921.330952310934663 ], [ 3296712.816587991546839, 8348987.752649379894137 ], [ 3296781.600901322439313, 8349052.229142675176263 ], [ 3296871.547049844637513, 8349089.133122880011797 ], [ 3296970.955355073790997, 8349048.359652733430266 ], [ 3296999.497672502882779, 8349085.949069377966225 ], [ 3296992.150586126837879, 8349222.908833720721304 ], [ 3297002.336319533642381, 8349290.460960966534913 ], [ 3297062.526768179610372, 8349297.890627089887857 ], [ 3297114.846928824204952, 8349268.393127672374249 ], [ 3297170.45101445261389, 8349294.109456779435277 ], [ 3297189.052501359954476, 8349353.900821064598858 ], [ 3297225.954912540502846, 8349347.908395485952497 ], [ 3297242.563780561555177, 8349393.68092084210366 ], [ 3297228.782427612226456, 8349433.129547224380076 ], [ 3297175.894537562038749, 8349434.456298411823809 ], [ 3297124.598516227677464, 8349433.284334855154157 ], [ 3297072.267223631963134, 8349443.743563416413963 ], [ 3297055.313265197444707, 8349490.356965178623796 ], [ 3297163.482414351776242, 8349535.157409532926977 ], [ 3297345.322802471462637, 8349462.185452817007899 ], [ 3297410.600551842246205, 8349473.97148061171174 ], [ 3297640.59775167144835, 8349554.727284207008779 ], [ 3297731.122761552687734, 8349701.536168184131384 ], [ 3297973.353973420802504, 8349885.034793777391315 ], [ 3298129.947101069614291, 8350161.507593827322125 ], [ 3298120.150985898450017, 8350325.445684384554625 ], [ 3298181.321046063210815, 8350347.472447510808706 ], [ 3298230.257094198837876, 8350415.963716248050332 ], [ 3298315.895178443752229, 8350631.282996892929077 ], [ 3298377.065238617360592, 8350768.293553511612117 ], [ 3298455.356236462015659, 8350827.013142009265721 ], [ 3298450.458178878761828, 8350939.56585493683815 ], [ 3298488.373597441241145, 8351097.615850980393589 ], [ 3298578.742760029155761, 8351177.372003614902496 ], [ 3298714.708386030513793, 8351291.898568630218506 ], [ 3298751.031935859937221, 8351327.707838049158454 ], [ 3298766.817039649002254, 8351331.047686114907265 ], [ 3298878.192190135829151, 8351354.669965920038521 ], [ 3298893.487488162703812, 8351337.528322763741016 ], [ 3298895.914253061637282, 8351335.825219746679068 ], [ 3298913.625184036325663, 8351317.002639848738909 ], [ 3298948.946858448442072, 8351286.25845863763243 ], [ 3298981.184982962440699, 8351265.246322127059102 ], [ 3299002.736436369363219, 8351244.433306927792728 ], [ 3299034.340039788745344, 8351221.032558650709689 ], [ 3299051.661352544091642, 8351195.176808688789606 ], [ 3299064.4185661803931, 8351151.029817932285368 ], [ 3299117.21740063233301, 8351077.466831720434129 ], [ 3299182.617601441219449, 8351056.565876478329301 ], [ 3299251.891720528714359, 8351044.357091903686523 ], [ 3299308.653528854250908, 8351021.9743726355955 ], [ 3299355.630353945773095, 8350987.559968314133584 ], [ 3299400.425317016430199, 8350973.028998725116253 ], [ 3299443.561619680374861, 8350984.352978650480509 ], [ 3299472.482423377223313, 8351029.803893188014627 ], [ 3299500.011733439750969, 8351060.635475794784725 ], [ 3299522.175444048363715, 8351080.563274540007114 ], [ 3299539.752791641280055, 8351120.419033438898623 ], [ 3299563.608558509033173, 8351144.549344988539815 ], [ 3299611.576127068605274, 8351147.933345483615994 ], [ 3299658.564084109850228, 8351145.102286132983863 ], [ 3299715.849094044882804, 8351133.623236297629774 ], [ 3299770.3845125567168, 8351111.948007834143937 ], [ 3299798.125329647213221, 8351083.438544047065079 ], [ 3299832.845878805033863, 8351043.715688886120915 ], [ 3299838.957318841014057, 8350974.245441020466387 ], [ 3299846.52704420639202, 8350922.093420990742743 ], [ 3299856.289763543289155, 8350910.106028264388442 ], [ 3299885.811692483723164, 8350878.523101535625756 ], [ 3299956.878055369481444, 8350842.074625767767429 ], [ 3299971.494304503779858, 8350818.98478643130511 ], [ 3300013.250245476141572, 8350777.427680939435959 ], [ 3300083.136621757410467, 8350708.756127408705652 ], [ 3300133.998497072607279, 8350673.569115157239139 ], [ 3300182.478135284967721, 8350619.517237051390111 ], [ 3300209.083493570797145, 8350592.115474581718445 ], [ 3300245.184404416475445, 8350575.417921007610857 ], [ 3300290.547096893191338, 8350570.419720266014338 ], [ 3300371.776929288636893, 8350579.995921998284757 ], [ 3300393.239327103365213, 8350585.082593099214137 ], [ 3300410.783278845250607, 8350601.60324037540704 ], [ 3300430.097210491541773, 8350630.575281363911927 ], [ 3300444.713459630031139, 8350680.071290821768343 ], [ 3300460.810257995501161, 8350738.458431070670485 ], [ 3300487.493539933580905, 8350814.561453773640096 ], [ 3300548.496620863676071, 8350854.813878356479108 ], [ 3300587.480706522706896, 8350881.221357465721667 ], [ 3300625.841403034050018, 8350911.410927961580455 ], [ 3300661.062889908906072, 8350954.163109733723104 ], [ 3300699.423586422111839, 8351000.697581793181598 ], [ 3300719.550150350201875, 8351029.626954699866474 ], [ 3300700.681496671866626, 8351062.338515247218311 ], [ 3300625.841403055004776, 8351143.465580383315682 ], [ 3300564.214932988397777, 8351216.409924240782857 ], [ 3300550.377920290920883, 8351254.143090889789164 ], [ 3300567.354142630472779, 8351279.291269805282354 ], [ 3300616.880184068344533, 8351336.997485309839249 ], [ 3300661.686279089190066, 8351324.412227743305266 ], [ 3300717.50187174603343, 8351323.638091335073113 ], [ 3300774.09670084156096, 8351340.138273490592837 ], [ 3300810.264403382316232, 8351349.560646065510809 ], [ 3300803.974852157756686, 8351377.075812300667167 ], [ 3300767.807149620261043, 8351408.528161718510091 ], [ 3300761.51759839663282, 8351440.754793773405254 ], [ 3300773.317464412655681, 8351455.684818566776812 ], [ 3300833.8418715368025, 8351510.716044828295708 ], [ 3300865.289627674967051, 8351549.24699488747865 ], [ 3300889.6574641992338, 8351548.450716046616435 ], [ 3300937.602768856100738, 8351509.145614272914827 ], [ 3300966.6905517866835, 8351509.941888874396682 ], [ 3300988.698415108025074, 8351528.809198388829827 ], [ 3300981.629627448506653, 8351565.747681392356753 ], [ 3300988.698415113147348, 8351597.178715790621936 ], [ 3301015.426224843598902, 8351634.139660061337054 ], [ 3301025.645354098640382, 8351671.874962267465889 ], [ 3301042.944402961991727, 8351716.666529781185091 ], [ 3301096.400022421497852, 8351781.122625420801342 ], [ 3301152.99485151655972, 8351803.15373295918107 ], [ 3301187.581817288417369, 8351798.420136029832065 ], [ 3301204.090497761964798, 8351770.903399057686329 ], [ 3301189.941790488548577, 8351753.628072396852076 ], [ 3301152.994851509574801, 8351728.45615791156888 ], [ 3301119.977490549907088, 8351671.07867019250989 ], [ 3301120.767858929932117, 8351620.779728258959949 ], [ 3301143.566090630367398, 8351579.903795723803341 ], [ 3301173.433109995443374, 8351580.67795900721103 ], [ 3301197.800946523901075, 8351612.131176030263305 ], [ 3301228.458334275055677, 8351630.99874675553292 ], [ 3301241.827805111650378, 8351615.272081287577748 ], [ 3301276.414770882576704, 8351597.178715771064162 ], [ 3301314.931314678862691, 8351590.122757624834776 ], [ 3301349.518280452117324, 8351602.686349229887128 ], [ 3301368.38693413650617, 8351650.640536333434284 ], [ 3301373.886116986628622, 8351722.174252385273576 ], [ 3301392.754770670086145, 8351754.402253894135356 ], [ 3301428.91134126111865, 8351752.831771494820714 ], [ 3301492.586089961230755, 8351716.6665297485888 ], [ 3301565.689599529374391, 8351684.438693008385599 ], [ 3301639.58347748266533, 8351675.790066179819405 ], [ 3301763.003396871034056, 8351709.588338028639555 ], [ 3301799.159967462066561, 8351734.760188158601522 ], [ 3301807.809491901192814, 8351803.1537329191342 ], [ 3301832.177328429650515, 8351866.040077343583107 ], [ 3301865.985057767946273, 8351866.81427064538002 ], [ 3301880.913001472130418, 8351835.382088008336723 ], [ 3301907.640811196528375, 8351808.639400438405573 ], [ 3301976.035506307147443, 8351800.78693407215178 ], [ 3302003.542552473023534, 8351827.507473488338292 ], [ 3302044.419069474097341, 8351852.657606014050543 ], [ 3302190.637220566160977, 8351887.253003065474331 ], [ 3302259.811152114532888, 8351906.917594517581165 ], [ 3302325.845874019898474, 8351911.629141083918512 ], [ 3302410.738117658067495, 8351870.751597784459591 ], [ 3302435.10595417721197, 8351839.29727865755558 ], [ 3302437.465927380602807, 8351807.068906467407942 ], [ 3302439.035532194655389, 8351775.636978263966739 ], [ 3302521.578934569377452, 8351673.445427361875772 ], [ 3302555.386663904413581, 8351647.499615948647261 ], [ 3302600.971995366271585, 8351669.508205429650843 ], [ 3302655.96382379392162, 8351710.27403749525547 ], [ 3302671.682135892566293, 8351748.452118031680584 ], [ 3302697.875612071715295, 8351840.513863737694919 ], [ 3302731.560889972373843, 8351874.932245207950473 ], [ 3302775.721331949345767, 8351883.935023134574294 ], [ 3302841.600206569302827, 8351874.202290718443692 ], [ 3302844.583568916656077, 8351839.76179292332381 ], [ 3302804.920434364583343, 8351811.315876744687557 ], [ 3302802.58272505691275, 8351787.426700572483242 ], [ 3302804.976094104349613, 8351745.266917197033763 ], [ 3302820.783461788203567, 8351734.715949271805584 ], [ 3302870.120260085444897, 8351740.466999096795917 ], [ 3302924.733602242078632, 8351741.440254122950137 ], [ 3302942.46679712086916, 8351768.249056761153042 ], [ 3302946.774861414916813, 8351793.177791465073824 ], [ 3302965.932945773936808, 8351821.911193516105413 ], [ 3303023.897004602942616, 8351843.477908251807094 ], [ 3303055.044198115821928, 8351870.287081509828568 ], [ 3303096.243541639298201, 8351883.227187599055469 ], [ 3303142.708297076635063, 8351907.183033633045852 ], [ 3303169.057620538864285, 8351942.641367654316127 ], [ 3303174.801706267986447, 8352011.611965047195554 ], [ 3303177.206207272596657, 8352062.400219158269465 ], [ 3303201.151029732543975, 8352099.275011129677296 ], [ 3303241.393025638535619, 8352125.642701797187328 ], [ 3303244.743742308579385, 8352143.847966017201543 ], [ 3303261.998263375367969, 8352149.112680199556053 ], [ 3303302.240259278565645, 8352144.799153594300151 ], [ 3303339.599080365616828, 8352075.340662055648863 ], [ 3303434.454418416135013, 8351987.655780051834881 ], [ 3303532.660473141353577, 8351892.340575057081878 ], [ 3303556.137753735762089, 8351876.038236943073571 ], [ 3303577.210533333476633, 8351879.400452977977693 ], [ 3303601.645161552354693, 8351898.556265688501298 ], [ 3303605.953225848264992, 8351927.776717778295279 ], [ 3303608.357726850081235, 8351956.53276389464736 ], [ 3303632.302549310959876, 8351980.488847846165299 ], [ 3303665.331042214762419, 8351996.614455070346594 ], [ 3303722.816427235957235, 8352014.576078252866864 ], [ 3303798.869903308805078, 8352016.965065900236368 ], [ 3303877.316748432349414, 8351988.828149226494133 ], [ 3303895.873707534745336, 8351958.877492574974895 ], [ 3303911.447304286062717, 8351899.595901266671717 ], [ 3303929.414270085748285, 8351850.489869029261172 ], [ 3303965.938194997143, 8351839.120320753194392 ], [ 3304043.182789622806013, 8351824.742512403987348 ], [ 3304083.302334083244205, 8351830.139717167243361 ], [ 3304133.60761195095256, 8351846.906468631699681 ], [ 3304167.738167814910412, 8351867.853901633992791 ], [ 3304215.048951385077089, 8351922.954560983926058 ], [ 3304265.944222556892782, 8351993.60610861890018 ], [ 3304357.571295390836895, 8352043.907591331750154 ], [ 3304414.455555159132928, 8352044.504840536043048 ], [ 3304466.297041997313499, 8352038.443869260139763 ], [ 3304482.237993071787059, 8352042.137964297086 ], [ 3304520.565293734893203, 8352061.139356609433889 ], [ 3304590.162239348050207, 8352100.381036445498466 ], [ 3304638.909044348634779, 8352135.331524473614991 ], [ 3304674.787316215690225, 8352162.628413137048483 ], [ 3304724.446941036731005, 8352174.88328902143985 ], [ 3304742.235795657616109, 8352178.865022022277117 ], [ 3304767.98399386415258, 8352160.173016260378063 ], [ 3304800.177590583916754, 8352127.677795846015215 ], [ 3304819.491522226016968, 8352124.912722424603999 ], [ 3304837.580939473584294, 8352140.551991306245327 ], [ 3304865.956277669407427, 8352202.357290472835302 ], [ 3304873.759773971512914, 8352219.346096171066165 ], [ 3304893.697094765957445, 8352255.226228380575776 ], [ 3304906.27619722019881, 8352265.490367338061333 ], [ 3304960.243886333424598, 8352281.174176199361682 ], [ 3304986.971696061082184, 8352290.509265832602978 ], [ 3304999.239103942643851, 8352315.528249150142074 ], [ 3305008.066739561967552, 8352351.099151268601418 ], [ 3305005.862613648176193, 8352376.11833996605128 ], [ 3304994.819720167201012, 8352404.56643298920244 ], [ 3305005.617710772436112, 8352422.219348328188062 ], [ 3305027.447462907992303, 8352454.361920403316617 ], [ 3305050.991535202134401, 8352474.713793400675058 ], [ 3305073.555995974689722, 8352478.385985154658556 ], [ 3305102.988869326654822, 8352473.983779592439532 ], [ 3305147.8728879946284, 8352464.405120276845992 ], [ 3305194.482358763925731, 8352445.513297466561198 ], [ 3305217.781528176274151, 8352438.655621983110905 ], [ 3305242.795017745345831, 8352446.752104033716023 ], [ 3305265.604381399229169, 8352460.97627295833081 ], [ 3305293.567837476264685, 8352488.451339387334883 ], [ 3305334.53341007232666, 8352530.88082970213145 ], [ 3305361.639706071000546, 8352552.493859875947237 ], [ 3305427.741219674237072, 8352574.41666036657989 ], [ 3305517.587180651258677, 8352580.743535166606307 ], [ 3305557.383898590691388, 8352594.879474360495806 ], [ 3305624.665398798882961, 8352624.545124913565814 ], [ 3305661.52328218659386, 8352652.109288896434009 ], [ 3305690.188051052391529, 8352666.024142719805241 ], [ 3305719.309229832142591, 8352669.984018479473889 ], [ 3305737.187140045221895, 8352699.716337821446359 ], [ 3305765.4177629025653, 8352733.829012486152351 ], [ 3305795.596476841252297, 8352745.288428841158748 ], [ 3305849.20794358337298, 8352755.155044822022319 ], [ 3305894.080830299295485, 8352746.947612212970853 ], [ 3305935.168854330200702, 8352715.732904724776745 ], [ 3305943.874038504902273, 8352703.43288616091013 ], [ 3305943.985357992816716, 8352662.772179286926985 ], [ 3305948.371345925144851, 8352617.554550716653466 ], [ 3305937.395244134124368, 8352603.175225906074047 ], [ 3305877.39403862087056, 8352551.498376001603901 ], [ 3305858.703496125061065, 8352531.102047670632601 ], [ 3305849.675485423300415, 8352508.803306357003748 ], [ 3305859.972538314759731, 8352483.20850477181375 ], [ 3305884.284715092275292, 8352466.086362075991929 ], [ 3305926.819892502389848, 8352455.357391091994941 ], [ 3305941.781232057139277, 8352459.20654589869082 ], [ 3305952.590354608837515, 8352473.828928140923381 ], [ 3305958.501419569831342, 8352487.876175880432129 ], [ 3305982.390582283958793, 8352497.12304016482085 ], [ 3305999.110769793391228, 8352489.955613250844181 ], [ 3306020.294868880417198, 8352503.272874977439642 ], [ 3306039.542008832097054, 8352532.362990400753915 ], [ 3306045.575525235850364, 8352576.297024651430547 ], [ 3306072.681821233127266, 8352612.355868501588702 ], [ 3306082.411144724581391, 8352629.544716809876263 ], [ 3306106.60087006399408, 8352643.879848713986576 ], [ 3306129.276650330517441, 8352669.939774019643664 ], [ 3306149.236235023941845, 8352693.964540492743254 ], [ 3306164.63172059552744, 8352719.914030800573528 ], [ 3306165.433220929000527, 8352726.418009417131543 ], [ 3306161.214212234131992, 8352778.361554572358727 ], [ 3306153.844861949328333, 8352809.841998564079404 ], [ 3306167.425839821342379, 8352836.721050335094333 ], [ 3306181.118137184996158, 8352863.489585998468101 ], [ 3306349.422075246460736, 8352962.290658129379153 ], [ 3306380.580400709528476, 8353006.625469711609185 ], [ 3306388.895966668147594, 8353023.748866431415081 ], [ 3306398.090956605505198, 8353044.788133082911372 ], [ 3306413.70908116037026, 8353095.694114692509174 ], [ 3306422.080306867603213, 8353117.463663812726736 ], [ 3306418.373367824591696, 8353132.507698697037995 ], [ 3306397.83492178702727, 8353174.609035774134099 ], [ 3306395.063066469039768, 8353190.781499719247222 ], [ 3306401.052055072505027, 8353218.746008010581136 ], [ 3306416.180373867042363, 8353246.268143363296986 ], [ 3306451.925062346272171, 8353268.502740835770965 ], [ 3306493.480628240853548, 8353268.96734507009387 ], [ 3306535.470340145751834, 8353253.900908075273037 ], [ 3306577.404392308555543, 8353267.418664373457432 ], [ 3306644.340802096296102, 8353311.047336434014142 ], [ 3306663.465490609407425, 8353341.888449875637889 ], [ 3306674.95366205368191, 8353351.822236229665577 ], [ 3306678.382302368525416, 8353362.419764705002308 ], [ 3306672.972175118513405, 8353372.530573274940252 ], [ 3306667.383936686441302, 8353384.544090307317674 ], [ 3306667.528652026318014, 8353397.995712704956532 ], [ 3306666.738283642102033, 8353407.199468465521932 ], [ 3306663.676997647620738, 8353425.407894087024033 ], [ 3306661.951545546296984, 8353498.441168104298413 ], [ 3306670.990688197314739, 8353534.924888911657035 ], [ 3306692.620065252296627, 8353552.359259450808167 ], [ 3306784.558832656592131, 8353575.479776280932128 ], [ 3306814.503775666002184, 8353592.515992924571037 ], [ 3306846.663976545445621, 8353625.615040546283126 ], [ 3306850.493367027956992, 8353647.872906041331589 ], [ 3306848.166789675597101, 8353675.640019228681922 ], [ 3306841.710259214043617, 8353697.079399612732232 ], [ 3306841.187057610135525, 8353735.046504670754075 ], [ 3306865.220935665071011, 8353783.191552792675793 ], [ 3306868.749763525091112, 8353800.095495285466313 ], [ 3306894.976635548751801, 8353871.98193446546793 ], [ 3306896.234545797109604, 8353907.029316608794034 ], [ 3306907.077064202167094, 8354004.892932187765837 ], [ 3306918.932589968200773, 8354022.549675665795803 ], [ 3306992.325530219823122, 8354079.038262826390564 ], [ 3307039.992536166217178, 8354196.309330732561648 ], [ 3307048.886963476426899, 8354214.055039562284946 ], [ 3307068.056179784238338, 8354233.725831507705152 ], [ 3307113.69717098865658, 8354247.842810120433569 ], [ 3307131.107539340853691, 8354257.423784342594445 ], [ 3307145.222850768361241, 8354278.621457421220839 ], [ 3307163.635094542056322, 8354329.558077369816601 ], [ 3307187.847083781845868, 8354372.927500911056995 ], [ 3307220.263319491874427, 8354440.68167164735496 ], [ 3307248.928088360000402, 8354465.420286132022738 ], [ 3307302.105409090407193, 8354493.987072032876313 ], [ 3307349.204685621429235, 8354492.770049465820193 ], [ 3307391.795522777363658, 8354469.447510283440351 ], [ 3307469.541055108420551, 8354434.817879816517234 ], [ 3307561.90283657470718, 8354436.344677987508476 ], [ 3307628.86151025723666, 8354456.370103571563959 ], [ 3307761.242648649029434, 8354483.299407945945859 ], [ 3307807.429105362389237, 8354544.106448472477496 ], [ 3307845.912253314163536, 8354570.283723898231983 ], [ 3307872.851570073980838, 8354575.041226860135794 ], [ 3307987.989319343585521, 8354544.880922732874751 ], [ 3308104.362714969553053, 8354590.442280754446983 ], [ 3308187.484978706110269, 8354589.203114301897585 ], [ 3308268.9931098241359, 8354551.806939099915326 ], [ 3308353.718374223448336, 8354541.451108699664474 ], [ 3308464.05825344985351, 8354579.378301975317299 ], [ 3308467.99896342586726, 8354620.270850103348494 ], [ 3308444.354703595861793, 8354653.772814334370196 ], [ 3308451.245380074251443, 8354688.248574354685843 ], [ 3308517.747643849346787, 8354732.084802178665996 ], [ 3308577.849036911036819, 8354882.824994270689785 ], [ 3308610.354328213725239, 8354943.900875186547637 ], [ 3308633.508782291319221, 8354970.013181415386498 ], [ 3308677.836203509010375, 8355041.446301405318081 ], [ 3308722.664562434889376, 8355096.105940105393529 ], [ 3308728.08582163695246, 8355125.670998414978385 ], [ 3308733.996886596549302, 8355137.001351553946733 ], [ 3308794.944307777099311, 8355145.89746131747961 ], [ 3310018.223059608601034, 8355474.684841408394277 ], [ 3310039.106596073601395, 8355494.403255148790777 ], [ 3310121.071137106977403, 8355514.896297653205693 ], [ 3310145.116147106979042, 8355512.12995489872992 ], [ 3310178.61218187212944, 8355521.203563008457422 ], [ 3310197.525363348890096, 8355517.640510690398514 ], [ 3310217.61853142734617, 8355522.774847497232258 ], [ 3310232.602134881541133, 8355546.410547499544919 ], [ 3310349.632315500639379, 8355571.639749004505575 ], [ 3310597.50742554012686, 8355646.509018787182868 ], [ 3310644.406326990574598, 8355649.275411908514798 ], [ 3311660.319131464697421, 8355933.400574449449778 ], [ 3311785.342051519546658, 8355963.987063584849238 ], [ 3311933.63074513617903, 8355970.471769669093192 ], [ 3312119.200336202979088, 8355980.608284123241901 ], [ 3312177.943631466478109, 8355988.310273853130639 ], [ 3312415.777723440900445, 8356056.765380627475679 ], [ 3312547.858299209270626, 8356104.571457382291555 ], [ 3312570.144461257383227, 8356124.424349702894688 ], [ 3312637.804447737988085, 8356228.957237917929888 ], [ 3312792.171185569372028, 8356460.315939710475504 ], [ 3312921.023496118374169, 8356653.168356301262975 ], [ 3313128.456235184334219, 8356884.518223775550723 ], [ 3313282.021472677122802, 8357056.308825391344726 ], [ 3313480.548652485944331, 8357287.649196443147957 ], [ 3313583.764084309339523, 8357390.206290346570313 ], [ 3313770.602717582136393, 8357544.741914089769125 ], [ 3313940.042114450596273, 8357677.409156106412411 ], [ 3314154.209682701621205, 8357845.875418854877353 ], [ 3314345.512227553408593, 8358004.870365818031132 ], [ 3314548.748221812304109, 8358154.437662011012435 ], [ 3314588.990217721089721, 8358198.161652391776443 ], [ 3314855.823037043213844, 8358402.394861753098667 ], [ 3314981.046332185156643, 8358501.779332120902836 ], [ 3315069.48966758325696, 8358545.99245722591877 ], [ 3315186.764751083217561, 8358575.305661669000983 ], [ 3315254.836619671434164, 8358587.726170883513987 ], [ 3315270.243237193673849, 8358627.976734790951014 ], [ 3315310.986170812044293, 8358714.434271425940096 ], [ 3315325.390912919770926, 8358767.615569271147251 ], [ 3315324.901107163634151, 8358824.760430195368826 ], [ 3315310.485233115497977, 8358857.550842741504312 ], [ 3315159.435816154349595, 8359134.824957795441151 ], [ 3315124.147537593729794, 8359167.107489150948822 ], [ 3314858.806399478577077, 8359346.501742123626173 ], [ 3314558.677920508664101, 8359545.25317114405334 ], [ 3314199.950861617457122, 8359769.829242881387472 ], [ 3313959.177935108542442, 8359934.135924671776593 ], [ 3313939.697024228982627, 8359938.033270443789661 ], [ 3313920.149321655277163, 8359941.952762300148606 ], [ 3313894.100560822058469, 8359947.156610642559826 ], [ 3313358.798525703139603, 8360032.455958508886397 ], [ 3314227.504013577010483, 8361381.280938124284148 ], [ 3313966.214514185674489, 8363461.919544394128025 ], [ 3313694.925384761299938, 8365092.178044553846121 ], [ 3313821.053681189194322, 8365760.299400156363845 ], [ 3313664.459040803834796, 8367241.045253380201757 ], [ 3313260.462027714587748, 8369285.188192526809871 ], [ 3313392.997856776230037, 8369793.268148763105273 ], [ 3313613.408465862739831, 8370631.241626501083374 ], [ 3313190.995526471640915, 8372615.031128011643887 ], [ 3313462.770931301172823, 8374121.638454745523632 ], [ 3313424.977964197285473, 8374136.614451695233583 ], [ 3313385.136718461290002, 8374152.389201376587152 ], [ 3313327.506618107203394, 8374180.743899578228593 ], [ 3313285.405586710665375, 8374207.634371371008456 ], [ 3313111.936424299608916, 8374307.34296684525907 ], [ 3313030.71772385854274, 8374344.972551373764873 ], [ 3312936.073892829474062, 8374350.341882744804025 ], [ 3312891.880055005196482, 8374342.886944378726184 ], [ 3312850.079586233012378, 8374360.792121547274292 ], [ 3312774.838742444757372, 8374397.822917115874588 ], [ 3312705.564623361919075, 8374439.624230360612273 ], [ 3312635.099385726731271, 8374485.020192467607558 ], [ 3312557.465172885917127, 8374524.425711693242192 ], [ 3312503.720122756436467, 8374519.655325136147439 ], [ 3312426.687035160139203, 8374483.222986324690282 ], [ 3312339.501610010396689, 8374458.128709051758051 ], [ 3312269.637497620657086, 8374449.187090664170682 ], [ 3312224.252541248686612, 8374475.457285744138062 ], [ 3312190.812166233081371, 8374516.060896393842995 ], [ 3312145.427209861110896, 8374551.89432321768254 ], [ 3312109.593465793412179, 8374559.061029485426843 ], [ 3312066.601878470275551, 8374575.76857918780297 ], [ 3312040.319346707779914, 8374602.061413354240358 ], [ 3312024.200284451711923, 8374622.962619308382273 ], [ 3312017.331871873699129, 8374639.67031380161643 ], [ 3312011.064584545791149, 8374648.634351427666843 ], [ 3312001.502240293193609, 8374655.202069074846804 ], [ 3311998.218315316364169, 8374662.058240016922355 ], [ 3312000.912246990948915, 8374672.220472772605717 ], [ 3312014.938502826262265, 8374681.472998176701367 ], [ 3312022.107478030957282, 8374692.234343285672367 ], [ 3312020.01467160647735, 8374719.392941806465387 ], [ 3312005.687853150535375, 8374737.898122625425458 ], [ 3311983.590934241190553, 8374749.258640322834253 ], [ 3311925.671403208281845, 8374766.876352788880467 ], [ 3311891.028777693863958, 8374811.076139117591083 ], [ 3311869.065442172344774, 8374823.457452075555921 ], [ 3311844.820057090837508, 8374838.967405705712736 ], [ 3311834.600927842315286, 8374851.370954326353967 ], [ 3311828.923633816652, 8374887.516656001098454 ], [ 3311854.605040335096419, 8374934.668313407339156 ], [ 3311836.092609026934952, 8374959.142916110344231 ], [ 3311817.880740341730416, 8374967.064450434409082 ], [ 3311798.767183782532811, 8374964.224235464818776 ], [ 3311784.139802697580308, 8374952.730251703411341 ], [ 3311766.072649348992854, 8374947.072023031301796 ], [ 3311754.283915281761438, 8374953.484682520851493 ], [ 3311740.847652748227119, 8374955.57046224270016 ], [ 3311728.903071392327547, 8374950.045366188511252 ], [ 3311722.925214738119394, 8374939.150510190986097 ], [ 3311708.598396279383451, 8374933.026321223936975 ], [ 3311698.14549609972164, 8374938.240757158957422 ], [ 3311692.323486733715981, 8374947.072023037821054 ], [ 3311693.971015196759254, 8374960.496454990468919 ], [ 3311704.123352755326778, 8374979.312890008091927 ], [ 3311724.717458542436361, 8374992.293595469556749 ], [ 3311735.615636688191444, 8375011.997684339061379 ], [ 3311739.890305136796087, 8375041.620484612882137 ], [ 3311742.929327235091478, 8375055.000709814950824 ], [ 3311748.907183888368309, 8375064.564368260093033 ], [ 3311754.584477917291224, 8375073.062942892313004 ], [ 3311754.283915292005986, 8375084.557114239782095 ], [ 3311756.065027148462832, 8375109.032214501872659 ], [ 3311753.382227421272546, 8375123.078251609578729 ], [ 3311744.27629307936877, 8375137.701247580349445 ], [ 3311732.932836974970996, 8375145.778301803395152 ], [ 3311721.734096206724644, 8375152.634928946383297 ], [ 3311711.882321277167648, 8375163.086304919794202 ], [ 3311704.713346073403955, 8375173.537695704959333 ], [ 3311692.924612003844231, 8375181.903256964869797 ], [ 3311681.87058657547459, 8375187.716994786635041 ], [ 3311659.484236988704652, 8375192.199345393106341 ], [ 3311653.361664998345077, 8375198.922876420430839 ], [ 3311649.632462059613317, 8375212.347766939550638 ], [ 3311646.192689795978367, 8375220.558042607270181 ], [ 3311640.559923563152552, 8375224.640993909910321 ], [ 3311638.433721292763948, 8375232.20777377858758 ], [ 3311638.878999255597591, 8375238.931341283023357 ], [ 3311648.15191283589229, 8375254.641879355534911 ], [ 3311670.226567852310836, 8375282.379492997191846 ], [ 3311696.820794191211462, 8375302.417210013605654 ], [ 3311745.623258933890611, 8375318.061312641017139 ], [ 3311765.504919982049614, 8375325.983232592232525 ], [ 3311783.238114857114851, 8375340.739772844128311 ], [ 3311803.398074633441865, 8375366.880002356134355 ], [ 3311820.730519342236221, 8375382.723955669440329 ], [ 3311831.617565536871552, 8375388.227185526862741 ], [ 3311847.436065172310919, 8375391.200706583447754 ], [ 3311869.544116034172475, 8375392.842800820246339 ], [ 3311889.692943857517093, 8375400.764801116660237 ], [ 3311902.249782414641231, 8375415.565872103907168 ], [ 3311912.079293448012322, 8375435.848047620616853 ], [ 3311916.56546892831102, 8375455.841800411231816 ], [ 3311912.079293452668935, 8375478.387540080584586 ], [ 3311907.626513825263828, 8375494.098588407039642 ], [ 3311910.587612280622125, 8375511.096737709827721 ], [ 3311920.762213733512908, 8375520.084025710821152 ], [ 3311983.457350921817124, 8375536.793753238394856 ], [ 3311999.420565894804895, 8375549.908585831522942 ], [ 3312001.802802996709943, 8375570.94562491774559 ], [ 3311994.644959744531661, 8375591.694240190088749 ], [ 3311973.739159387536347, 8375612.46510498598218 ], [ 3311943.727424683514982, 8375622.317971569485962 ], [ 3311916.409621655475348, 8375628.886556605808437 ], [ 3311912.235140753444284, 8375637.541120151057839 ], [ 3311913.125696680508554, 8375645.907207895070314 ], [ 3311918.201865459792316, 8375658.733748123981059 ], [ 3311927.163084465544671, 8375670.073493462987244 ], [ 3311949.549434055108577, 8375682.034613599069417 ], [ 3311974.629715317394584, 8375680.52560293674469 ], [ 3312009.572903460822999, 8375671.582501978613436 ], [ 3312031.658690423239022, 8375676.642121035605669 ], [ 3312049.280565808992833, 8375687.40491874050349 ], [ 3312058.119333376176655, 8375708.775221378542483 ], [ 3312040.619909436907619, 8375752.7809306262061 ], [ 3312032.860940932761878, 8375777.879614647477865 ], [ 3312028.975890708621591, 8375808.925761982798576 ], [ 3312021.083338817115873, 8375818.046563498675823 ], [ 3312005.988415869884193, 8375812.498629359528422 ], [ 3311991.505750122945756, 8375789.064201628789306 ], [ 3311974.340284649748355, 8375770.711723589338362 ], [ 3311959.857618903275579, 8375762.944666835479438 ], [ 3311940.899909629486501, 8375756.664452641271055 ], [ 3311924.625000083819032, 8375753.823933486826718 ], [ 3311908.650653162039816, 8375755.466108493506908 ], [ 3311902.372233884874731, 8375760.25948625896126 ], [ 3311899.266420093365014, 8375767.893390624783933 ], [ 3311901.626393300015479, 8375777.125099475495517 ], [ 3311923.27803425071761, 8375799.361137980595231 ], [ 3311925.671403302345425, 8375822.063270423561335 ], [ 3311931.938690631184727, 8375831.605732105672359 ], [ 3311948.959440766368061, 8375829.231211415491998 ], [ 3311964.777940399944782, 8375833.403266961686313 ], [ 3311971.056359680835158, 8375859.07921399269253 ], [ 3311955.226728100329638, 8375882.97989500220865 ], [ 3311950.451121947728097, 8375900.888812609016895 ], [ 3311955.827853355091065, 8375945.383895333856344 ], [ 3311954.336172182578593, 8375993.141509844921529 ], [ 3311967.772434717509896, 8376002.107193149626255 ], [ 3311994.633827830199152, 8375997.025158451870084 ], [ 3312006.878971814643592, 8375996.425966814160347 ], [ 3312013.624932952225208, 8376003.771615759469569 ], [ 3312005.086728014983237, 8376024.787757529877126 ], [ 3311990.938020743895322, 8376045.27134089358151 ], [ 3311983.312635629903525, 8376064.889474088326097 ], [ 3311984.036212322767824, 8376072.412731321528554 ], [ 3311987.92126254690811, 8376079.137065080925822 ], [ 3311991.327638964168727, 8376081.777976716868579 ], [ 3312006.155395133420825, 8376093.051795003935695 ], [ 3312024.968389068264514, 8376107.521366581320763 ], [ 3312048.7017044974491, 8376126.629233903251588 ], [ 3312063.785495494492352, 8376149.199217631481588 ], [ 3312073.336707804817706, 8376187.082324987277389 ], [ 3312084.813747299369425, 8376197.823674978688359 ], [ 3312098.250009832903743, 8376207.832674275152385 ], [ 3312115.71603793092072, 8376212.004944070242345 ], [ 3312133.950170513708144, 8376213.669414062052965 ], [ 3312174.236694212537259, 8376209.319599936716259 ], [ 3312224.118958012666553, 8376199.3327915109694 ], [ 3312259.518556069117039, 8376196.492101797834039 ], [ 3312292.769687951076776, 8376199.776649374514818 ], [ 3312304.413706683088094, 8376206.478906380943954 ], [ 3312311.471362398471683, 8376214.823446800000966 ], [ 3312316.658850667066872, 8376229.315450341440737 ], [ 3312311.738529179710895, 8376256.790414277464151 ], [ 3312310.00194512726739, 8376289.436485960148275 ], [ 3312305.337658467702568, 8376319.375124729238451 ], [ 3312307.853478960227221, 8376328.762877115048468 ], [ 3312312.796064348425716, 8376336.685883109457791 ], [ 3312324.317631640005857, 8376341.679378655739129 ], [ 3312339.07859611324966, 8376338.772054172120988 ], [ 3312347.639064949005842, 8376330.272020451724529 ], [ 3312354.66332481475547, 8376322.992625998333097 ], [ 3312370.337109110318124, 8376308.056573905050755 ], [ 3312389.061047449707985, 8376293.786347346380353 ], [ 3312412.271161269862205, 8376275.16629543621093 ], [ 3312435.236372209154069, 8376268.308624285273254 ], [ 3312448.127169236540794, 8376270.483548428863287 ], [ 3312470.201824250165373, 8376278.495264317840338 ], [ 3312484.205816186964512, 8376298.269370437599719 ], [ 3312488.491616583894938, 8376322.193668503314257 ], [ 3312489.059345988091081, 8376348.381764658726752 ], [ 3312483.270732473582029, 8376381.161402544938028 ], [ 3312489.092741840519011, 8376404.442357775755227 ], [ 3312487.890491342172027, 8376418.046991958282888 ], [ 3312480.131522838026285, 8376429.676421827636659 ], [ 3312460.127410353627056, 8376442.215808554552495 ], [ 3312456.910277073271573, 8376455.59857580345124 ], [ 3312470.346539607271552, 8376480.566490071825683 ], [ 3312472.828964251559228, 8376492.77305671107024 ], [ 3312469.756546309217811, 8376503.426076836884022 ], [ 3312460.361181290820241, 8376511.59340269304812 ], [ 3312447.013974350877106, 8376516.254109002649784 ], [ 3312438.932179323863238, 8376523.999765524640679 ], [ 3312429.503418460022658, 8376546.149280960671604 ], [ 3312425.79647941980511, 8376561.507501073181629 ], [ 3312424.571965022943914, 8376573.692007705569267 ], [ 3312433.410732590127736, 8376596.551883216947317 ], [ 3312448.405467993579805, 8376611.577296311967075 ], [ 3312464.61358584696427, 8376621.142974069342017 ], [ 3312481.356037254910916, 8376627.601478134281933 ], [ 3312533.453558925539255, 8376681.755480556748807 ], [ 3312554.927088689059019, 8376695.649153492413461 ], [ 3312597.106043734587729, 8376704.171802886761725 ], [ 3312633.006579499226063, 8376727.054277455434203 ], [ 3312640.631964616943151, 8376753.243811756372452 ], [ 3312640.264610303100199, 8376807.642879030667245 ], [ 3312630.457363174296916, 8376864.039887862280011 ], [ 3312619.336546050850302, 8376886.478959400206804 ], [ 3312593.521556149702519, 8376917.085874305106699 ], [ 3312590.159707532264292, 8376927.406581290997565 ], [ 3312593.532688102219254, 8376941.256326918490231 ], [ 3312600.38996873376891, 8376958.235617878846824 ], [ 3312621.963686041068286, 8376987.733067302033305 ], [ 3312654.313130052294582, 8377010.882766015827656 ], [ 3312700.911468878854066, 8377037.228676492348313 ], [ 3312717.063926985953003, 8377045.796111646108329 ], [ 3312722.585373728070408, 8377056.094803338870406 ], [ 3312725.858166757971048, 8377071.276521652005613 ], [ 3312734.975233050063252, 8377074.605850023217499 ], [ 3312743.179479517042637, 8377077.75761559791863 ], [ 3312757.517429924104363, 8377077.89078881777823 ], [ 3312764.229995215777308, 8377066.704246471635997 ], [ 3312772.590088970959187, 8377063.263944205828011 ], [ 3312785.369566506240517, 8377063.7522450722754 ], [ 3312803.035969688091427, 8377068.102563332766294 ], [ 3312807.800443893298507, 8377085.34849314391613 ], [ 3312792.148923497647047, 8377116.111603240482509 ], [ 3312786.516157269477844, 8377140.726622886955738 ], [ 3312771.298782885540277, 8377167.072997375391424 ], [ 3312740.196117177139968, 8377215.837344135157764 ], [ 3312733.038273926824331, 8377249.886014172807336 ], [ 3312722.373866715002805, 8377274.057557901367545 ], [ 3312705.642547257244587, 8377293.057467922568321 ], [ 3312714.548106520436704, 8377336.473333942703903 ], [ 3312721.483310796320438, 8377370.078632783144712 ], [ 3312746.463404521346092, 8377385.238801215775311 ], [ 3312768.771830465644598, 8377385.105622439645231 ], [ 3312821.715380260255188, 8377363.086764722131193 ], [ 3312837.211053369101137, 8377355.739761295728385 ], [ 3312879.96886976249516, 8377342.532930662855506 ], [ 3312920.778595067095011, 8377334.542254704982042 ], [ 3312953.050115434452891, 8377343.731532803736627 ], [ 3312973.154415464494377, 8377363.708263820037246 ], [ 3312996.28660564403981, 8377427.434397554956377 ], [ 3313001.47409392055124, 8377513.180322384461761 ], [ 3313101.939934330061078, 8377684.675164005719125 ], [ 3313177.292097633704543, 8377906.385772099718451 ], [ 3313167.763149235863239, 8378009.451954374089837 ], [ 3313119.483886109665036, 8378111.454042351804674 ], [ 3313047.215272721368819, 8378137.18232181482017 ], [ 3312927.179465856868774, 8378140.845112659037113 ], [ 3312780.204342247452587, 8378309.868240101262927 ], [ 3312674.862708179745823, 8378560.968196977861226 ], [ 3312668.740136202424765, 8378695.701246084645391 ], [ 3312587.488039940595627, 8379042.701800643466413 ], [ 3312592.24138219980523, 8379077.313948242925107 ], [ 3312595.002105572726578, 8379111.482225121930242 ], [ 3312596.304543614853173, 8379125.447083034552634 ], [ 3312597.495662168134004, 8379141.58773872628808 ], [ 3312598.753572414629161, 8379151.800551508553326 ], [ 3312599.054135038983077, 8379163.722918240353465 ], [ 3312611.544181901961565, 8379166.120714991353452 ], [ 3312622.765186568722129, 8379173.802550591528416 ], [ 3312626.394201967399567, 8379185.081098281778395 ], [ 3312622.954429706092924, 8379197.225538026541471 ], [ 3312607.202721766661853, 8379221.758699453435838 ], [ 3312583.625253630802035, 8379253.463213620707393 ], [ 3312565.969982401002198, 8379263.254341140389442 ], [ 3312551.131094287615269, 8379273.556131078861654 ], [ 3312539.386888013686985, 8379287.454689451493323 ], [ 3312532.752246368676424, 8379307.236868041567504 ], [ 3312536.002775498665869, 8379334.767709979787469 ], [ 3312546.88982169656083, 8379367.4940219912678 ], [ 3312554.91595698101446, 8379383.790625024586916 ], [ 3312568.597122395411134, 8379404.416758731938899 ], [ 3312583.59185780165717, 8379451.575111168436706 ], [ 3312572.237269749399275, 8379482.370299814268947 ], [ 3312555.405762753915042, 8379533.969736268743873 ], [ 3312550.218274487648159, 8379564.565441899001598 ], [ 3312547.413023321889341, 8379589.943543704226613 ], [ 3312532.440551818814129, 8379598.602758545428514 ], [ 3312502.963150669354945, 8379589.632700283080339 ], [ 3312478.283619573805481, 8379585.280893777497113 ], [ 3312460.795327576808631, 8379586.746297725476325 ], [ 3312447.414724790956825, 8379591.986229362897575 ], [ 3312438.097283417358994, 8379604.197948919609189 ], [ 3312439.054631039965898, 8379619.451525216922164 ], [ 3312461.318529188167304, 8379631.530070906504989 ], [ 3312488.235582050401717, 8379651.957068208605051 ], [ 3312496.373036827426404, 8379672.051071878522635 ], [ 3312494.836827854625881, 8379705.800239952281117 ], [ 3312503.686727372463793, 8379732.022562083788216 ], [ 3312496.684731411747634, 8379795.969005460850894 ], [ 3312447.381328966468573, 8379833.648818803951144 ], [ 3312427.599855459760875, 8379821.30349634308368 ], [ 3312419.440136787481606, 8379803.385052503086627 ], [ 3312377.973626484163105, 8379796.23545013833791 ], [ 3312349.331121520139277, 8379826.277148960158229 ], [ 3312346.470210611820221, 8379853.321443732827902 ], [ 3312355.665200548246503, 8379877.257281654514372 ], [ 3312357.891590365674347, 8379914.493428905494511 ], [ 3312372.875193824525923, 8379968.094271664507687 ], [ 3312384.652795946691185, 8379986.546018980443478 ], [ 3312410.47891780314967, 8380026.624883162789047 ], [ 3312397.688308317679912, 8380044.765914374962449 ], [ 3312392.834778521209955, 8380058.621517859399319 ], [ 3312406.393492497969419, 8380087.37641909904778 ], [ 3312439.499909045174718, 8380107.160744467750192 ], [ 3312478.76229343097657, 8380126.945122931152582 ], [ 3312543.895327479112893, 8380298.745039236731827 ], [ 3312568.630518339574337, 8380498.217381717637181 ], [ 3312593.566084280610085, 8380664.452158317901194 ], [ 3312766.033371293917298, 8380758.607635476626456 ], [ 3312777.810973417945206, 8380794.760105227120221 ], [ 3312781.339801274705678, 8380817.1667310744524 ], [ 3312782.953933891374618, 8380834.887777748517692 ], [ 3312784.790705493185669, 8380863.756742001511157 ], [ 3312786.026351841166615, 8380883.121218313463032 ], [ 3312799.896760390605778, 8380897.000604759901762 ], [ 3312838.903109942562878, 8380877.125331450253725 ], [ 3312870.840671835467219, 8380863.623500365763903 ], [ 3312904.325574647635221, 8380859.071079346351326 ], [ 3312938.066512294113636, 8380863.823362820781767 ], [ 3312983.607315956614912, 8380883.920670254155993 ], [ 3313063.690557597205043, 8380901.686291510239244 ], [ 3313100.693156319204718, 8380894.269139426760375 ], [ 3313137.306136824190617, 8380892.847889574244618 ], [ 3313168.887476346921176, 8380900.709181226789951 ], [ 3313216.265051608439535, 8380896.711913236416876 ], [ 3313269.375580639112741, 8380897.955507485195994 ], [ 3313333.6291906950064, 8380892.625819307751954 ], [ 3313415.560335879679769, 8380903.973618340678513 ], [ 3313455.457241363823414, 8380916.27633997797966 ], [ 3313530.742612951435149, 8380915.476884513162076 ], [ 3313582.606363689061254, 8380935.840818648226559 ], [ 3313632.087877326644957, 8380988.738454608246684 ], [ 3313653.895365567412227, 8381005.43837486486882 ], [ 3313712.70545253297314, 8381100.108983713202178 ], [ 3313766.116544193122536, 8381123.804585563950241 ], [ 3313782.19107865775004, 8381141.792862773872912 ], [ 3313785.463871688582003, 8381162.512747580185533 ], [ 3313783.304273569490761, 8381188.140638517215848 ], [ 3313759.348319167736918, 8381276.795173784717917 ], [ 3313759.381715017836541, 8381296.849190736189485 ], [ 3313842.860201133880764, 8381408.379835347644985 ], [ 3313871.970247966703027, 8381453.818729929625988 ], [ 3313935.589336932636797, 8381523.976400291547179 ], [ 3313956.672704136464745, 8381559.133298628032207 ], [ 3313973.472555831074715, 8381611.862363264895976 ], [ 3313848.083336643874645, 8381711.702232839539647 ], [ 3313748.66464212955907, 8381791.237188450992107 ], [ 3313677.083182079251856, 8381883.696574349887669 ], [ 3313602.519161193165928, 8382010.952503328211606 ], [ 3313552.506140144076198, 8382147.747771740891039 ], [ 3313506.083027513697743, 8382380.790046920999885 ], [ 3313518.635279112961143, 8382539.682020828127861 ], [ 3313553.80400088056922, 8382762.557833855971694 ], [ 3313620.247862210031599, 8382902.584103316999972 ], [ 3313731.763464061543345, 8383132.395377449691296 ], [ 3313838.141467192210257, 8383271.581549770198762 ], [ 3314089.468181810341775, 8383416.490284970961511 ], [ 3314550.410003405530006, 8384106.448122006841004 ], [ 3314513.560133086983114, 8384092.153421750292182 ], [ 3314235.528573003131896, 8383986.091811649501324 ], [ 3314146.662223548162729, 8384017.639093811623752 ], [ 3313860.025666825007647, 8383862.83654173836112 ], [ 3313788.93704003514722, 8383822.114768764935434 ], [ 3313679.810543250758201, 8383699.528705584816635 ], [ 3313512.029806813690811, 8383788.413395238108933 ], [ 3313289.390825346577913, 8383972.384337528608739 ], [ 3313117.99220545263961, 8383945.058330567553639 ], [ 3312949.009218516759574, 8384054.873947135172784 ], [ 3312686.729366392362863, 8384158.759293641895056 ], [ 3312471.849353403784335, 8384026.103563719429076 ], [ 3312496.851711013354361, 8383904.780425379984081 ], [ 3312370.960498930886388, 8383871.012025830335915 ], [ 3312114.680767364334315, 8384070.625501990318298 ], [ 3312093.530064139980823, 8384241.695331661961973 ], [ 3312066.813386363442987, 8384272.799363685771823 ], [ 3311953.267505809664726, 8384277.242807555012405 ], [ 3311785.175074794795364, 8384341.673044602386653 ], [ 3311758.458397020120174, 8384370.555747497826815 ], [ 3311749.552837764378637, 8384408.325606690719724 ], [ 3311789.627854433842003, 8384426.099725050851703 ], [ 3311791.854244254063815, 8384483.865905771031976 ], [ 3311735.081303976476192, 8384486.087691000662744 ], [ 3311713.930600731167942, 8384448.317433287389576 ], [ 3311582.573601658456028, 8384454.982758828438818 ], [ 3311566.988872963003814, 8384548.297949213534594 ], [ 3311473.480500743258744, 8384572.73783718328923 ], [ 3311484.612449819222093, 8384610.508732551708817 ], [ 3311489.065229460131377, 8384723.822580122388899 ], [ 3311467.91452623391524, 8384894.907572555355728 ], [ 3311352.142255859915167, 8384843.803847147151828 ], [ 3311356.595035498961806, 8384957.121281797997653 ], [ 3311130.616469299420714, 8384994.894147219136357 ], [ 3310961.410843373276293, 8385001.559967103414237 ], [ 3310622.999591528438032, 8385072.662420941516757 ], [ 3310281.2487549521029, 8385057.108700571581721 ], [ 3310286.814729498699307, 8385170.429415068589151 ], [ 3310004.063223019707948, 8385214.869386618956923 ], [ 3309380.674074875656515, 8385237.08947291597724 ], [ 3309264.901804498396814, 8385185.983374682255089 ], [ 3309204.789279495365918, 8385130.433669868856668 ], [ 3309149.129534124862403, 8385132.655650028958917 ], [ 3308981.037103111855686, 8385197.093365907669067 ], [ 3308924.264162834733725, 8385199.315366169437766 ], [ 3308694.94601190276444, 8385152.653501577675343 ], [ 3308468.96744570042938, 8385161.541453028097749 ], [ 3308300.875014686957002, 8385225.979421472176909 ], [ 3307960.23737302236259, 8385239.311485308222473 ], [ 3307787.692162368446589, 8385188.205371674150229 ], [ 3307758.749094774480909, 8385161.541453073732555 ], [ 3307725.353247542399913, 8385050.442830610089004 ], [ 3307688.617815599776804, 8385070.440459052100778 ], [ 3307615.146951716393232, 8385139.321594594046474 ], [ 3307447.054520700126886, 8385174.873400336131454 ], [ 3307437.547836173325777, 8384975.874374534934759 ], [ 3307370.488974949810654, 8384957.121282036416233 ], [ 3307376.054949498269707, 8385070.440459071658552 ], [ 3307318.168814309872687, 8385043.776966536417603 ], [ 3307261.395874032750726, 8385045.998920567333698 ], [ 3307093.303443017881364, 8385110.435878762044013 ], [ 3307036.530502741225064, 8385112.657852883450687 ], [ 3306863.985292089171708, 8385063.774576921015978 ], [ 3306807.21235180972144, 8385065.996536983177066 ], [ 3306761.81626348849386, 8385081.461397525854409 ], [ 3306924.376115864142776, 8385620.885374967940152 ], [ 3306908.457428690046072, 8385632.595997229218483 ], [ 3306906.208774991333485, 8385770.902742675505579 ], [ 3304472.174714093096554, 8385758.969683836214244 ], [ 3304475.837125302292407, 8385337.658421421423554 ], [ 3303102.510831929277629, 8385332.303301509469748 ], [ 3302770.322339609730989, 8385329.148004431277514 ], [ 3302755.338736155536026, 8385309.349657007493079 ], [ 3302712.502996116410941, 8385283.818533306010067 ], [ 3302653.414610426407307, 8385248.110660951584578 ], [ 3302627.109814763534814, 8385225.73500086273998 ], [ 3302581.045809492934495, 8385201.670687540434301 ], [ 3302361.879996111616492, 8385078.283988456241786 ], [ 3302243.948127615265548, 8385025.756944430992007 ], [ 3301833.813727860804647, 8384825.58434434607625 ], [ 3301344.141551970038563, 8384580.758582322858274 ], [ 3301070.807674392126501, 8384445.517998995259404 ], [ 3300797.184366137720644, 8384296.616254757158458 ], [ 3300567.999798592645675, 8384207.836521021090448 ], [ 3300348.934172758832574, 8384137.808816841803491 ], [ 3300120.957275707274675, 8384061.919001501984894 ], [ 3299446.813832657411695, 8383988.969335124827921 ], [ 3298985.258454742841423, 8384049.960471925325692 ], [ 3298569.52787214750424, 8384163.155027743428946 ], [ 3298338.629108014050871, 8384213.839804676361382 ], [ 3298251.923970812931657, 8384253.779267504811287 ], [ 3298182.481403735466301, 8384299.59039803314954 ], [ 3298089.976594299543649, 8384345.271042090840638 ], [ 3298032.258090598043054, 8384356.495651313103735 ], [ 3297951.706098217982799, 8384327.163573255762458 ], [ 3297888.320109216496348, 8384321.029118037782609 ], [ 3297668.614375618752092, 8384429.510725386440754 ], [ 3296977.930818959139287, 8384722.97724368609488 ], [ 3296636.98525758786127, 8384853.833159297704697 ], [ 3296486.384535355959088, 8384971.354388915933669 ], [ 3296260.058961225673556, 8385218.3867690814659 ], [ 3296196.344051535706967, 8385267.106951546855271 ], [ 3296100.880755202379078, 8385321.415255956351757 ], [ 3295973.651084839832038, 8385384.198515455238521 ], [ 3295906.536809280049056, 8385519.539699502289295 ], [ 3295865.745197622571141, 8385591.500173453241587 ], [ 3295709.419464944396168, 8385697.430566477589309 ], [ 3295388.658407326322049, 8385816.813646180555224 ], [ 3295304.767118751071393, 8385862.520537417382002 ], [ 3295203.036514369770885, 8385997.655548102222383 ], [ 3295268.242223537992686, 8386182.901748659089208 ], [ 3295246.947577298153192, 8386367.630854201503098 ], [ 3294936.058142334222794, 8386755.698318189010024 ], [ 3294955.841456434689462, 8386822.25621506664902 ], [ 3294941.021249344572425, 8386888.604614209383726 ], [ 3294932.282859161030501, 8386902.994751144200563 ], [ 3294613.195953074842691, 8387210.141155421733856 ], [ 3294341.00446732994169, 8387390.465491507202387 ], [ 3293982.657119194511324, 8387509.583536189049482 ], [ 3293575.343310332857072, 8387616.824105736799538 ], [ 3293485.616339631844312, 8387668.262852171435952 ], [ 3293470.943737388122827, 8387708.616167854517698 ], [ 3293511.138915523886681, 8387737.757835574448109 ], [ 3293556.463750958442688, 8387744.589916254393756 ], [ 3293611.065961170010269, 8387768.59585165604949 ], [ 3293487.022652657236904, 8387980.91841843444854 ], [ 3293450.297495851293206, 8388242.963562147691846 ], [ 3293328.504871207755059, 8388394.158274848945439 ], [ 3293328.504871205426753, 8388394.158274851739407 ], [ 3293328.504871204029769, 8388394.158274851739407 ], [ 3293258.490106277633458, 8388472.894499928690493 ], [ 3292870.90031907800585, 8388643.799441063776612 ], [ 3292547.560088620986789, 8388687.967123115435243 ], [ 3292224.290219254791737, 8388720.563888043165207 ], [ 3291958.40655738580972, 8388799.748659886419773 ], [ 3291912.018216186668724, 8388837.799991384148598 ], [ 3291685.810289736837149, 8389023.353356180712581 ], [ 3291651.046222388278693, 8389046.242569860070944 ], [ 3291616.282155040185899, 8389069.131783537566662 ], [ 3291471.642697193194181, 8389131.755745330825448 ], [ 3291471.642697193194181, 8389131.755745332688093 ], [ 3291345.589721801690757, 8389219.060546251013875 ], [ 3291303.47999154869467, 8389262.12753489986062 ], [ 3291300.415740677155554, 8389289.558374974876642 ], [ 3291291.440400827210397, 8389338.622453885152936 ], [ 3291307.248976348899305, 8389347.395089954137802 ], [ 3291315.893337755464017, 8389348.896653980016708 ], [ 3291334.681076062377542, 8389343.240781378000975 ], [ 3291353.771072587464005, 8389291.353404134511948 ], [ 3291377.055460143368691, 8389259.720802176743746 ], [ 3291407.560480715241283, 8389226.690806986764073 ], [ 3291432.305568215902895, 8389192.178337525576353 ], [ 3291445.427444425877184, 8389170.592736825346947 ], [ 3291464.252328242640942, 8389159.157853914424777 ], [ 3291468.550855217501521, 8389163.520284494385123 ], [ 3291469.880040637683123, 8389180.866191171109676 ], [ 3291466.540663820225745, 8389196.412813076749444 ], [ 3291462.442490647081286, 8389215.49204621091485 ], [ 3291457.13896883931011, 8389230.158716648817062 ], [ 3291446.285170370247215, 8389260.174447877332568 ], [ 3291427.111016120761633, 8389325.064455078914762 ], [ 3291410.840016426984221, 8389387.084387974813581 ], [ 3291399.037276946939528, 8389427.46180547401309 ], [ 3291381.512309402227402, 8389460.577785197645426 ], [ 3291333.69822957040742, 8389493.495133837684989 ], [ 3291261.401846477761865, 8389520.472087994217873 ], [ 3291012.844393035396934, 8389591.07617087289691 ], [ 3290949.123807065188885, 8389629.665923302993178 ], [ 3290945.686534019187093, 8389713.445360725745559 ], [ 3290917.985933730844408, 8389758.053242541849613 ], [ 3290877.246237945277244, 8389811.244259921833873 ], [ 3290829.43719103327021, 8389842.715043731033802 ], [ 3290778.781167450826615, 8389868.387134805321693 ], [ 3290699.228747658897191, 8389901.091416034847498 ], [ 3290641.129710962064564, 8389961.391312677413225 ], [ 3290577.346389366779476, 8390008.648961452767253 ], [ 3290372.087510218378156, 8390072.299944004043937 ], [ 3290291.156240036711097, 8390094.876854276284575 ], [ 3290221.754416304640472, 8390118.975324891507626 ], [ 3290207.713634316809475, 8390089.64563393779099 ], [ 3289857.644445224665105, 8389666.848900400102139 ], [ 3289532.610509287100285, 8389373.609722686931491 ], [ 3289520.031406833324581, 8389359.229102151468396 ], [ 3289255.030388289596885, 8388971.082037774845958 ], [ 3289249.114990999456495, 8388974.903736744076014 ], [ 3289225.838085481896996, 8388938.874697053804994 ], [ 3289230.836585558950901, 8388935.645368294790387 ], [ 3289208.070076424628496, 8388902.299256136640906 ], [ 3289073.677870885469019, 8388724.843145731836557 ], [ 3288767.313921436667442, 8387873.340613443404436 ], [ 3288763.492264300119132, 8387783.620541048236191 ], [ 3288614.22047329461202, 8387728.591914629563689 ], [ 3288549.799883997999132, 8387694.640398353338242 ], [ 3288529.743383079767227, 8387678.32485378999263 ], [ 3288018.878971540834755, 8387501.495308268815279 ], [ 3287992.76341901300475, 8387484.941942892037332 ], [ 3287805.699513231869787, 8387305.137269580736756 ], [ 3287173.640817082021385, 8386716.958114138804376 ], [ 3287051.239296888932586, 8386457.708191826939583 ], [ 3286825.847121241502464, 8386180.947510159574449 ], [ 3286805.442258589435369, 8386147.620221618562937 ], [ 3286720.761252015829086, 8385904.401121759787202 ], [ 3286594.148108850233257, 8385726.455207044258714 ], [ 3286539.391872431151569, 8385561.05682222917676 ], [ 3286458.392832270357758, 8385496.908559148199856 ], [ 3286294.372974859550595, 8385272.552392385900021 ], [ 3286248.588226206135005, 8385235.688764957711101 ], [ 3286190.134361611213535, 8385175.556221261620522 ], [ 3286177.610073883086443, 8385160.592331038787961 ], [ 3285788.193301188293844, 8384872.526304101571441 ], [ 3285248.220338411163539, 8384124.229136311449111 ], [ 3285113.511496326420456, 8383712.581171786412597 ], [ 3285107.382060613948852, 8383702.65512687060982 ], [ 3285093.438747491221875, 8383651.242167808115482 ], [ 3284961.223989250138402, 8383247.215711430646479 ], [ 3284952.875027441419661, 8383196.08233573846519 ], [ 3284948.849619687534869, 8383171.391253312118351 ], [ 3284947.375174829736352, 8383112.664254820905626 ], [ 3284881.730914570856839, 8382870.615206959657371 ], [ 3284872.825355303939432, 8382797.160826173610985 ], [ 3284878.523106246720999, 8382646.492632169276476 ], [ 3284811.086964832618833, 8382390.132921942509711 ], [ 3284814.483398984186351, 8382320.594103721901774 ], [ 3284693.882201534695923, 8381869.727642180398107 ], [ 3284735.717990042176098, 8381381.087399384006858 ], [ 3284736.739281302317977, 8381342.766115970909595 ], [ 3284484.865620993543416, 8381038.874618518166244 ], [ 3284320.714895527344197, 8380821.437102859839797 ], [ 3284175.142397466581315, 8380609.214107612147927 ], [ 3283761.13573931157589, 8379724.560293219983578 ], [ 3283653.254259102512151, 8378753.800039323978126 ], [ 3283670.787078864406794, 8378422.301252554170787 ], [ 3283864.384461848530918, 8377509.492806049063802 ], [ 3283972.840886288322508, 8377320.638680035248399 ], [ 3283899.002394649200141, 8377030.717768349684775 ], [ 3283895.125431601889431, 8377009.097287552431226 ], [ 3283645.2857456644997, 8376141.282339581288397 ], [ 3283653.018345869611949, 8376049.437033898197114 ], [ 3283642.520887974184006, 8376007.286916233599186 ], [ 3283593.497751406393945, 8375860.314122701063752 ], [ 3283557.018354277126491, 8375709.669468964450061 ], [ 3283487.673080216627568, 8375302.486127601005137 ], [ 3283477.231311975978315, 8375198.197184867225587 ], [ 3283538.420707155484706, 8374227.835819579660892 ], [ 3283906.730284221470356, 8373328.006181944161654 ], [ 3284543.473405899479985, 8372593.224909509532154 ], [ 3284618.914624767843634, 8372530.452552789822221 ], [ 3284852.810979860369116, 8372381.040510512888432 ], [ 3284853.061386028304696, 8372379.844035276211798 ], [ 3284928.28864071238786, 8372013.092790040187538 ], [ 3284995.71402732282877, 8371746.91570645570755 ], [ 3285001.536848282907158, 8371727.675249855034053 ], [ 3285005.495561043266207, 8371656.428466283716261 ], [ 3285018.778855658136308, 8371495.599528222344816 ], [ 3285055.983280348125845, 8371156.58353678137064 ], [ 3285080.728973433375359, 8370822.528131785802543 ], [ 3285212.512228571344167, 8370230.216773644089699 ], [ 3285117.148291856981814, 8367296.37330883461982 ], [ 3285116.675296720582992, 8367280.533440638333559 ], [ 3285028.978755613323301, 8364058.497559957206249 ], [ 3285062.753071458544582, 8363520.703009172342718 ], [ 3285104.977331991773099, 8363246.245315707288682 ], [ 3285129.021639472339302, 8363110.72215424105525 ], [ 3285184.237980168778449, 8362836.264460776001215 ], [ 3285412.580976331606507, 8362146.901822225190699 ], [ 3286551.005050953477621, 8359736.209891421720386 ], [ 3287760.225732033606619, 8355819.319491892121732 ], [ 3287977.358662261161953, 8355090.209968286566436 ], [ 3287631.952037767972797, 8348969.846972878091037 ], [ 3287699.125710165128112, 8348147.767481775023043 ], [ 3287987.636984019074589, 8347375.05263345502317 ], [ 3288475.676747431978583, 8346710.113402183167636 ], [ 3289126.35315327020362, 8346203.2137998547405 ], [ 3289349.48519179597497, 8346074.293066484853625 ], [ 3289381.299137881956995, 8346058.067355461418629 ], [ 3289754.587750166188926, 8345350.697057317011058 ] ] ] ] } }
]
}
