{
"type": "FeatureCollection",
"name": "23_1_points",
"crs": { "type": "name", "properties": { "name": "urn:ogc:def:crs:EPSG::3857" } },
"features": [
{ "type": "Feature", "properties": { "fid": 1, "id": 1, "photo": "M:\\RESEARCH\\MLA+ Горные просторы\\04 GIS\\02 Source data\\Фото-20260617T100655Z-3-001 — копия\\Фото\\1001.JPG", "name": "1001", "lon": 30.023713888888889, "lat": 59.751041666666666, "altitude": 92.844448094612346, "azimuth": 336.95980861244021, "layer": "1", "path": "C:/Work/SPb_Mountains/23_1/1.gpkg|layername=1" }, "geometry": { "type": "Point", "coordinates": [ 3342224.541834046132863, 8344517.421757066622376 ] } },
{ "type": "Feature", "properties": { "fid": 10, "id": 10, "photo": "M:\\RESEARCH\\MLA+ Горные просторы\\04 GIS\\02 Source data\\Фото-20260617T100655Z-3-001 — копия\\Фото\\102.jpg", "name": "102", "lon": 29.569380555555554, "lat": 60.199902777777773, "altitude": -26.949414062500001, "azimuth": 170.86163328197227, "layer": "10", "path": "C:/Work/SPb_Mountains/23_1/10.gpkg|layername=10" }, "geometry": { "type": "Point", "coordinates": [ 3291648.386516969185323, 8444379.152539329603314 ] } },
{ "type": "Feature", "properties": { "fid": 11, "id": 11, "photo": "M:\\RESEARCH\\MLA+ Горные просторы\\04 GIS\\02 Source data\\Фото-20260617T100655Z-3-001 — копия\\Фото\\1201.JPG", "name": "1201", "lon": 29.880194444444445, "lat": 59.836975, "altitude": 66.31063046479521, "azimuth": 12.88928507755393, "layer": "11", "path": "C:/Work/SPb_Mountains/23_1/11.gpkg|layername=11" }, "geometry": { "type": "Point", "coordinates": [ 3326248.030359557829797, 8363531.265490123070776 ] } },
{ "type": "Feature", "properties": { "fid": 12, "id": 12, "photo": "M:\\RESEARCH\\MLA+ Горные просторы\\04 GIS\\02 Source data\\Фото-20260617T100655Z-3-001 — копия\\Фото\\1202.JPG", "name": "1202", "lon": 29.879975, "lat": 59.837125, "altitude": 64.950383219039935, "azimuth": 44.308120733021916, "layer": "12", "path": "C:/Work/SPb_Mountains/23_1/12.gpkg|layername=12" }, "geometry": { "type": "Point", "coordinates": [ 3326223.601915744598955, 8363564.49777053669095 ] } },
{ "type": "Feature", "properties": { "fid": 13, "id": 13, "photo": "M:\\RESEARCH\\MLA+ Горные просторы\\04 GIS\\02 Source data\\Фото-20260617T100655Z-3-001 — копия\\Фото\\1203.JPG", "name": "1203", "lon": 29.880313888888889, "lat": 59.836886111111113, "altitude": 65.410902333264502, "azimuth": 69.451835696110507, "layer": "13", "path": "C:/Work/SPb_Mountains/23_1/13.gpkg|layername=13" }, "geometry": { "type": "Point", "coordinates": [ 3326261.32685429090634, 8363511.57235755585134 ] } },
{ "type": "Feature", "properties": { "fid": 14, "id": 14, "photo": "M:\\RESEARCH\\MLA+ Горные просторы\\04 GIS\\02 Source data\\Фото-20260617T100655Z-3-001 — копия\\Фото\\1204.JPG", "name": "1204", "lon": 29.879933333333334, "lat": 59.841002777777781, "altitude": 56.972294654498043, "azimuth": 127.3043213633597, "layer": "14", "path": "C:/Work/SPb_Mountains/23_1/14.gpkg|layername=14" }, "geometry": { "type": "Point", "coordinates": [ 3326218.963603627867997, 8364423.665726345963776 ] } },
{ "type": "Feature", "properties": { "fid": 15, "id": 15, "photo": "M:\\RESEARCH\\MLA+ Горные просторы\\04 GIS\\02 Source data\\Фото-20260617T100655Z-3-001 — копия\\Фото\\1205.JPG", "name": "1205", "lon": 29.840338888888887, "lat": 59.867855555555558, "altitude": 57.312099969521491, "azimuth": 17.307947162342412, "layer": "15", "path": "C:/Work/SPb_Mountains/23_1/15.gpkg|layername=15" }, "geometry": { "type": "Point", "coordinates": [ 3321811.330209829844534, 8370375.966718275099993 ] } },
{ "type": "Feature", "properties": { "fid": 16, "id": 16, "photo": "M:\\RESEARCH\\MLA+ Горные просторы\\04 GIS\\02 Source data\\Фото-20260617T100655Z-3-001 — копия\\Фото\\1206.jpg", "name": "1206", "lon": 29.843936111111109, "lat": 59.867627777777777, "altitude": 57.38727569331158, "azimuth": 52.27412031782066, "layer": "16", "path": "C:/Work/SPb_Mountains/23_1/16.gpkg|layername=16" }, "geometry": { "type": "Point", "coordinates": [ 3322211.771155877970159, 8370325.45632010884583 ] } },
{ "type": "Feature", "properties": { "fid": 17, "id": 17, "photo": "M:\\RESEARCH\\MLA+ Горные просторы\\04 GIS\\02 Source data\\Фото-20260617T100655Z-3-001 — копия\\Фото\\1207.jpg", "name": "1207", "lon": 29.844816666666667, "lat": 59.867241666666665, "altitude": 55.424770351599619, "azimuth": 20.184131621434613, "layer": "17", "path": "C:/Work/SPb_Mountains/23_1/17.gpkg|layername=17" }, "geometry": { "type": "Point", "coordinates": [ 3322309.794151938054711, 8370239.835825660265982 ] } },
{ "type": "Feature", "properties": { "fid": 18, "id": 18, "photo": "M:\\RESEARCH\\MLA+ Горные просторы\\04 GIS\\02 Source data\\Фото-20260617T100655Z-3-001 — копия\\Фото\\1208.JPG", "name": "1208", "lon": 29.706188888888889, "lat": 59.905797222222219, "altitude": 59.176302349336055, "azimuth": 29.771999339607067, "layer": "18", "path": "C:/Work/SPb_Mountains/23_1/18.gpkg|layername=18" }, "geometry": { "type": "Point", "coordinates": [ 3306877.820519912522286, 8378794.476540462113917 ] } },
{ "type": "Feature", "properties": { "fid": 19, "id": 19, "photo": "M:\\RESEARCH\\MLA+ Горные просторы\\04 GIS\\02 Source data\\Фото-20260617T100655Z-3-001 — копия\\Фото\\1301.JPG", "name": "1301", "lon": 29.694330555555556, "lat": 59.909938888888888, "altitude": 65.455913759788473, "azimuth": 22.68208695652174, "layer": "19", "path": "C:/Work/SPb_Mountains/23_1/19.gpkg|layername=19" }, "geometry": { "type": "Point", "coordinates": [ 3305557.756891589146107, 8379714.013135278597474 ] } },
{ "type": "Feature", "properties": { "fid": 2, "id": 2, "photo": "M:\\RESEARCH\\MLA+ Горные просторы\\04 GIS\\02 Source data\\Фото-20260617T100655Z-3-001 — копия\\Фото\\1002.JPG", "name": "1002", "lon": 29.989966666666668, "lat": 59.747783333333331, "altitude": 87.201564828614011, "azimuth": 10.96958160133639, "layer": "2", "path": "C:/Work/SPb_Mountains/23_1/2.gpkg|layername=2" }, "geometry": { "type": "Point", "coordinates": [ 3338467.818240581545979, 8343797.436908619478345 ] } },
{ "type": "Feature", "properties": { "fid": 20, "id": 20, "photo": "M:\\RESEARCH\\MLA+ Горные просторы\\04 GIS\\02 Source data\\Фото-20260617T100655Z-3-001 — копия\\Фото\\1302.JPG", "name": "1302", "lon": 29.694, "lat": 59.910930555555552, "altitude": 59.587663625545417, "azimuth": 36.845920533818621, "layer": "20", "path": "C:/Work/SPb_Mountains/23_1/20.gpkg|layername=20" }, "geometry": { "type": "Point", "coordinates": [ 3305520.959615465253592, 8379934.200890322215855 ] } },
{ "type": "Feature", "properties": { "fid": 21, "id": 21, "photo": "M:\\RESEARCH\\MLA+ Горные просторы\\04 GIS\\02 Source data\\Фото-20260617T100655Z-3-001 — копия\\Фото\\1303.JPG", "name": "1303", "lon": 29.69423611111111, "lat": 59.910780555555554, "altitude": 63.655108215033742, "azimuth": 40.81653596669571, "layer": "21", "path": "C:/Work/SPb_Mountains/23_1/21.gpkg|layername=21" }, "geometry": { "type": "Point", "coordinates": [ 3305547.243384124711156, 8379900.894757290370762 ] } },
{ "type": "Feature", "properties": { "fid": 22, "id": 22, "photo": "M:\\RESEARCH\\MLA+ Горные просторы\\04 GIS\\02 Source data\\Фото-20260617T100655Z-3-001 — копия\\Фото\\1304.JPG", "name": "1304", "lon": 29.645377777777778, "lat": 59.917252777777776, "altitude": 43.724050968940801, "azimuth": 17.8421630859375, "layer": "22", "path": "C:/Work/SPb_Mountains/23_1/22.gpkg|layername=22" }, "geometry": { "type": "Point", "coordinates": [ 3300108.358596450649202, 8381338.129577657207847 ] } },
{ "type": "Feature", "properties": { "fid": 23, "id": 23, "photo": "M:\\RESEARCH\\MLA+ Горные просторы\\04 GIS\\02 Source data\\Фото-20260617T100655Z-3-001 — копия\\Фото\\1305.JPG", "name": "1305", "lon": 29.632519444444444, "lat": 59.919177777777776, "altitude": 62.721113445378151, "azimuth": 79.025077796082741, "layer": "23", "path": "C:/Work/SPb_Mountains/23_1/23.gpkg|layername=23" }, "geometry": { "type": "Point", "coordinates": [ 3298676.975477333646268, 8381765.653065009042621 ] } },
{ "type": "Feature", "properties": { "fid": 24, "id": 24, "photo": "M:\\RESEARCH\\MLA+ Горные просторы\\04 GIS\\02 Source data\\Фото-20260617T100655Z-3-001 — копия\\Фото\\1306.JPG", "name": "1306", "lon": 29.632483333333333, "lat": 59.919086111111106, "altitude": 63.598095715359563, "azimuth": 58.296985583224114, "layer": "24", "path": "C:/Work/SPb_Mountains/23_1/24.gpkg|layername=24" }, "geometry": { "type": "Point", "coordinates": [ 3298672.955606832168996, 8381745.29424140509218 ] } },
{ "type": "Feature", "properties": { "fid": 25, "id": 25, "photo": "M:\\RESEARCH\\MLA+ Горные просторы\\04 GIS\\02 Source data\\Фото-20260617T100655Z-3-001 — копия\\Фото\\201.jpg", "name": "201", "lon": 29.976738888888889, "lat": 60.074772222222222, "altitude": 4.172507730820203, "azimuth": 132.6671142578125, "layer": "25", "path": "C:/Work/SPb_Mountains/23_1/25.gpkg|layername=25" }, "geometry": { "type": "Point", "coordinates": [ 3336995.308754032943398, 8416403.948737623170018 ] } },
{ "type": "Feature", "properties": { "fid": 26, "id": 26, "photo": "M:\\RESEARCH\\MLA+ Горные просторы\\04 GIS\\02 Source data\\Фото-20260617T100655Z-3-001 — копия\\Фото\\301.jpg", "name": "301", "lon": 30.410252777777778, "lat": 60.102263888888892, "altitude": 59.166197110289744, "azimuth": 198.62582396277628, "layer": "26", "path": "C:/Work/SPb_Mountains/23_1/26.gpkg|layername=26" }, "geometry": { "type": "Point", "coordinates": [ 3385253.854116955306381, 8422541.09552788361907 ] } },
{ "type": "Feature", "properties": { "fid": 27, "id": 27, "photo": "M:\\RESEARCH\\MLA+ Горные просторы\\04 GIS\\02 Source data\\Фото-20260617T100655Z-3-001 — копия\\Фото\\302.jpg", "name": "302", "lon": 30.410252777777778, "lat": 60.102263888888892, "altitude": 59.166197110289744, "azimuth": 198.62582396277628, "layer": "27", "path": "C:/Work/SPb_Mountains/23_1/27.gpkg|layername=27" }, "geometry": { "type": "Point", "coordinates": [ 3385253.854116955306381, 8422541.09552788361907 ] } },
{ "type": "Feature", "properties": { "fid": 28, "id": 28, "photo": "M:\\RESEARCH\\MLA+ Горные просторы\\04 GIS\\02 Source data\\Фото-20260617T100655Z-3-001 — копия\\Фото\\303.jpg", "name": "303", "lon": 30.4082, "lat": 60.101277777777781, "altitude": 51.758374274229567, "azimuth": 173.93742381145876, "layer": "28", "path": "C:/Work/SPb_Mountains/23_1/28.gpkg|layername=28" }, "geometry": { "type": "Point", "coordinates": [ 3385025.339940021280199, 8422320.870879298076034 ] } },
{ "type": "Feature", "properties": { "fid": 29, "id": 29, "photo": "M:\\RESEARCH\\MLA+ Горные просторы\\04 GIS\\02 Source data\\Фото-20260617T100655Z-3-001 — копия\\Фото\\304.jpg", "name": "304", "lon": 30.37318888888889, "lat": 60.101608333333331, "altitude": 65.877517772511851, "azimuth": 157.77940379403793, "layer": "29", "path": "C:/Work/SPb_Mountains/23_1/29.gpkg|layername=29" }, "geometry": { "type": "Point", "coordinates": [ 3381127.920879025943577, 8422394.69192842207849 ] } },
{ "type": "Feature", "properties": { "fid": 3, "id": 3, "photo": "M:\\RESEARCH\\MLA+ Горные просторы\\04 GIS\\02 Source data\\Фото-20260617T100655Z-3-001 — копия\\Фото\\1003.JPG", "name": "1003", "lon": 29.981455555555552, "lat": 59.744991666666671, "altitude": 117.67293930559237, "azimuth": 354.13558956671699, "layer": "3", "path": "C:/Work/SPb_Mountains/23_1/3.gpkg|layername=3" }, "geometry": { "type": "Point", "coordinates": [ 3337520.365685607306659, 8343180.62593331746757 ] } },
{ "type": "Feature", "properties": { "fid": 30, "id": 30, "photo": "M:\\RESEARCH\\MLA+ Горные просторы\\04 GIS\\02 Source data\\Фото-20260617T100655Z-3-001 — копия\\Фото\\305.jpg", "name": "305", "lon": 30.37061111111111, "lat": 60.1012, "altitude": 65.174284950547985, "azimuth": 167.13774104683196, "layer": "30", "path": "C:/Work/SPb_Mountains/23_1/30.gpkg|layername=30" }, "geometry": { "type": "Point", "coordinates": [ 3380840.963969425298274, 8422303.501328324899077 ] } },
{ "type": "Feature", "properties": { "fid": 31, "id": 31, "photo": "M:\\RESEARCH\\MLA+ Горные просторы\\04 GIS\\02 Source data\\Фото-20260617T100655Z-3-001 — копия\\Фото\\306.jpg", "name": "306", "lon": 30.366891666666668, "lat": 60.100891666666669, "altitude": 53.874963652224487, "azimuth": 158.02964793082148, "layer": "31", "path": "C:/Work/SPb_Mountains/23_1/31.gpkg|layername=31" }, "geometry": { "type": "Point", "coordinates": [ 3380426.917307836003602, 8422234.643869038671255 ] } },
{ "type": "Feature", "properties": { "fid": 32, "id": 32, "photo": "M:\\RESEARCH\\MLA+ Горные просторы\\04 GIS\\02 Source data\\Фото-20260617T100655Z-3-001 — копия\\Фото\\307.jpg", "name": "307", "lon": 30.36405, "lat": 60.102344444444448, "altitude": 48.950558365944453, "azimuth": 214.0465087890625, "layer": "32", "path": "C:/Work/SPb_Mountains/23_1/32.gpkg|layername=32" }, "geometry": { "type": "Point", "coordinates": [ 3380110.584421498700976, 8422559.086001690477133 ] } },
{ "type": "Feature", "properties": { "fid": 33, "id": 33, "photo": "M:\\RESEARCH\\MLA+ Горные просторы\\04 GIS\\02 Source data\\Фото-20260617T100655Z-3-001 — копия\\Фото\\308.jpg", "name": "308", "lon": 30.310397222222225, "lat": 60.109608333333334, "altitude": 79.38255578093306, "azimuth": 135.77871705619094, "layer": "33", "path": "C:/Work/SPb_Mountains/23_1/33.gpkg|layername=33" }, "geometry": { "type": "Point", "coordinates": [ 3374137.98451963160187, 8424181.51131359860301 ] } },
{ "type": "Feature", "properties": { "fid": 34, "id": 34, "photo": "M:\\RESEARCH\\MLA+ Горные просторы\\04 GIS\\02 Source data\\Фото-20260617T100655Z-3-001 — копия\\Фото\\309.jpg", "name": "309", "lon": 30.321786111111109, "lat": 60.108013888888891, "altitude": 83.688200747463966, "azimuth": 195.00453172205437, "layer": "34", "path": "C:/Work/SPb_Mountains/23_1/34.gpkg|layername=34" }, "geometry": { "type": "Point", "coordinates": [ 3375405.789831443689764, 8423825.353654343634844 ] } },
{ "type": "Feature", "properties": { "fid": 35, "id": 35, "photo": "M:\\RESEARCH\\MLA+ Горные просторы\\04 GIS\\02 Source data\\Фото-20260617T100655Z-3-001 — копия\\Фото\\310.jpg", "name": "310", "lon": 30.301733333333335, "lat": 60.075822222222229, "altitude": 58.859638178415473, "azimuth": 160.23537445936716, "layer": "35", "path": "C:/Work/SPb_Mountains/23_1/35.gpkg|layername=35" }, "geometry": { "type": "Point", "coordinates": [ 3373173.524820231366903, 8416638.253202335909009 ] } },
{ "type": "Feature", "properties": { "fid": 36, "id": 36, "photo": "M:\\RESEARCH\\MLA+ Горные просторы\\04 GIS\\02 Source data\\Фото-20260617T100655Z-3-001 — копия\\Фото\\311.jpg", "name": "311", "lon": 30.276061111111112, "lat": 60.078244444444451, "altitude": 50.546384113811499, "azimuth": 186.45112607383331, "layer": "36", "path": "C:/Work/SPb_Mountains/23_1/36.gpkg|layername=36" }, "geometry": { "type": "Point", "coordinates": [ 3370315.706114921253175, 8417178.793544925749302 ] } },
{ "type": "Feature", "properties": { "fid": 37, "id": 37, "photo": "M:\\RESEARCH\\MLA+ Горные просторы\\04 GIS\\02 Source data\\Фото-20260617T100655Z-3-001 — копия\\Фото\\312.jpg", "name": "312", "lon": 30.429169444444447, "lat": 60.100455555555556, "altitude": 55.088751495811728, "azimuth": 157.63944993553932, "layer": "37", "path": "C:/Work/SPb_Mountains/23_1/37.gpkg|layername=37" }, "geometry": { "type": "Point", "coordinates": [ 3387359.647817794699222, 8422137.251986438408494 ] } },
{ "type": "Feature", "properties": { "fid": 38, "id": 38, "photo": "M:\\RESEARCH\\MLA+ Горные просторы\\04 GIS\\02 Source data\\Фото-20260617T100655Z-3-001 — копия\\Фото\\313.jpg", "name": "313", "lon": 30.428794444444446, "lat": 60.100625, "altitude": 54.127659710133841, "azimuth": 172.7525635309853, "layer": "38", "path": "C:/Work/SPb_Mountains/23_1/38.gpkg|layername=38" }, "geometry": { "type": "Point", "coordinates": [ 3387317.903008747380227, 8422175.091991506516933 ] } },
{ "type": "Feature", "properties": { "fid": 39, "id": 39, "photo": "M:\\RESEARCH\\MLA+ Горные просторы\\04 GIS\\02 Source data\\Фото-20260617T100655Z-3-001 — копия\\Фото\\601.jpg", "name": "601", "lon": 30.66000833333333, "lat": 59.981777777777779, "altitude": 54.443983342491109, "azimuth": 289.99417098445593, "layer": "39", "path": "C:/Work/SPb_Mountains/23_1/39.gpkg|layername=39" }, "geometry": { "type": "Point", "coordinates": [ 3413056.515384190715849, 8395682.029750302433968 ] } },
{ "type": "Feature", "properties": { "fid": 4, "id": 4, "photo": "M:\\RESEARCH\\MLA+ Горные просторы\\04 GIS\\02 Source data\\Фото-20260617T100655Z-3-001 — копия\\Фото\\1004.JPG", "name": "1004", "lon": 29.976161111111111, "lat": 59.745169444444443, "altitude": 125.96908182386009, "azimuth": 345.91075896580486, "layer": "4", "path": "C:/Work/SPb_Mountains/23_1/4.gpkg|layername=4" }, "geometry": { "type": "Point", "coordinates": [ 3336930.990826018620282, 8343219.90390210878104 ] } },
{ "type": "Feature", "properties": { "fid": 40, "id": 40, "photo": "M:\\RESEARCH\\MLA+ Горные просторы\\04 GIS\\02 Source data\\Фото-20260617T100655Z-3-001 — копия\\Фото\\602.jpg", "name": "602", "lon": 30.659344444444443, "lat": 59.979569444444444, "altitude": 62.350208896534774, "azimuth": 276.76766969909028, "layer": "40", "path": "C:/Work/SPb_Mountains/23_1/40.gpkg|layername=40" }, "geometry": { "type": "Point", "coordinates": [ 3412982.611611136235297, 8395190.655716456472874 ] } },
{ "type": "Feature", "properties": { "fid": 41, "id": 41, "photo": "M:\\RESEARCH\\MLA+ Горные просторы\\04 GIS\\02 Source data\\Фото-20260617T100655Z-3-001 — копия\\Фото\\603.jpg", "name": "603", "lon": 30.713136111111112, "lat": 59.949352777777776, "altitude": 62.249148049981066, "azimuth": 74.437667817414649, "layer": "41", "path": "C:/Work/SPb_Mountains/23_1/41.gpkg|layername=41" }, "geometry": { "type": "Point", "coordinates": [ 3418970.672553391661495, 8388470.465755696408451 ] } },
{ "type": "Feature", "properties": { "fid": 42, "id": 42, "photo": "M:\\RESEARCH\\MLA+ Горные просторы\\04 GIS\\02 Source data\\Фото-20260617T100655Z-3-001 — копия\\Фото\\604.jpg", "name": "604", "lon": 30.630505555555555, "lat": 59.952725, "altitude": 62.974799732977303, "azimuth": 252.33808906182446, "layer": "42", "path": "C:/Work/SPb_Mountains/23_1/42.gpkg|layername=42" }, "geometry": { "type": "Point", "coordinates": [ 3409772.281184981577098, 8389220.144556548446417 ] } },
{ "type": "Feature", "properties": { "fid": 43, "id": 43, "photo": "M:\\RESEARCH\\MLA+ Горные просторы\\04 GIS\\02 Source data\\Фото-20260617T100655Z-3-001 — копия\\Фото\\605.jpg", "name": "605", "lon": 30.619827777777779, "lat": 59.949286111111107, "altitude": 35.3896875, "azimuth": 216.42045594577942, "layer": "43", "path": "C:/Work/SPb_Mountains/23_1/43.gpkg|layername=43" }, "geometry": { "type": "Point", "coordinates": [ 3408583.636399955488741, 8388455.645856289193034 ] } },
{ "type": "Feature", "properties": { "fid": 44, "id": 44, "photo": "M:\\RESEARCH\\MLA+ Горные просторы\\04 GIS\\02 Source data\\Фото-20260617T100655Z-3-001 — копия\\Фото\\606.jpg", "name": "606", "lon": 30.613230555555557, "lat": 59.947066666666665, "altitude": 47.361177406523467, "azimuth": 228.03384418901661, "layer": "44", "path": "C:/Work/SPb_Mountains/23_1/44.gpkg|layername=44" }, "geometry": { "type": "Point", "coordinates": [ 3407849.236981527879834, 8387962.283717908896506 ] } },
{ "type": "Feature", "properties": { "fid": 45, "id": 45, "photo": "M:\\RESEARCH\\MLA+ Горные просторы\\04 GIS\\02 Source data\\Фото-20260617T100655Z-3-001 — копия\\Фото\\607.jpg", "name": "607", "lon": 31.389644444444443, "lat": 60.118508333333331, "altitude": 115.8858261017526, "azimuth": 266.92849740932644, "layer": "45", "path": "C:/Work/SPb_Mountains/23_1/45.gpkg|layername=45" }, "geometry": { "type": "Point", "coordinates": [ 3494279.235737463925034, 8426169.857982954010367 ] } },
{ "type": "Feature", "properties": { "fid": 46, "id": 46, "photo": "M:\\RESEARCH\\MLA+ Горные просторы\\04 GIS\\02 Source data\\Фото-20260617T100655Z-3-001 — копия\\Фото\\608.jpg", "name": "608", "lon": 31.394530555555555, "lat": 60.116372222222225, "altitude": 98.573443320915374, "azimuth": 312.78076171875, "layer": "46", "path": "C:/Work/SPb_Mountains/23_1/46.gpkg|layername=46" }, "geometry": { "type": "Point", "coordinates": [ 3494823.155138312838972, 8425692.580941297113895 ] } },
{ "type": "Feature", "properties": { "fid": 47, "id": 47, "photo": "M:\\RESEARCH\\MLA+ Горные просторы\\04 GIS\\02 Source data\\Фото-20260617T100655Z-3-001 — копия\\Фото\\609.jpg", "name": "609", "lon": 30.61031666666667, "lat": 59.94325, "altitude": 43.583858926502771, "azimuth": 284.60067763794774, "layer": "47", "path": "C:/Work/SPb_Mountains/23_1/47.gpkg|layername=47" }, "geometry": { "type": "Point", "coordinates": [ 3407524.86435418901965, 8387113.950967747718096 ] } },
{ "type": "Feature", "properties": { "fid": 48, "id": 48, "photo": "M:\\RESEARCH\\MLA+ Горные просторы\\04 GIS\\02 Source data\\Фото-20260617T100655Z-3-001 — копия\\Фото\\611.jpg", "name": "611", "lon": 30.614791666666669, "lat": 59.94445555555555, "altitude": 46.005846153846157, "azimuth": 261.87881468376827, "layer": "48", "path": "C:/Work/SPb_Mountains/23_1/48.gpkg|layername=48" }, "geometry": { "type": "Point", "coordinates": [ 3408023.01907548867166, 8387381.899959800764918 ] } },
{ "type": "Feature", "properties": { "fid": 49, "id": 49, "photo": "M:\\RESEARCH\\MLA+ Горные просторы\\04 GIS\\02 Source data\\Фото-20260617T100655Z-3-001 — копия\\Фото\\612.jpg", "name": "612", "lon": 31.367572222222222, "lat": 60.115988888888893, "altitude": 127.38162393162393, "azimuth": 278.88864142538978, "layer": "49", "path": "C:/Work/SPb_Mountains/23_1/49.gpkg|layername=49" }, "geometry": { "type": "Point", "coordinates": [ 3491822.167199010029435, 8425606.935022287070751 ] } },
{ "type": "Feature", "properties": { "fid": 5, "id": 5, "photo": "M:\\RESEARCH\\MLA+ Горные просторы\\04 GIS\\02 Source data\\Фото-20260617T100655Z-3-001 — копия\\Фото\\1005.JPG", "name": "1005", "lon": 30.089197222222221, "lat": 59.756777777777778, "altitude": 96.67416014144986, "azimuth": 16.715055467511885, "layer": "5", "path": "C:/Work/SPb_Mountains/23_1/5.gpkg|layername=5" }, "geometry": { "type": "Point", "coordinates": [ 3349514.113156159408391, 8345785.084884006530046 ] } },
{ "type": "Feature", "properties": { "fid": 50, "id": 50, "photo": "M:\\RESEARCH\\MLA+ Горные просторы\\04 GIS\\02 Source data\\Фото-20260617T100655Z-3-001 — копия\\Фото\\701.JPG", "name": "701", "lon": 30.680758333333333, "lat": 59.692036111111108, "altitude": 37.850551603258069, "azimuth": 302.75041186161451, "layer": "50", "path": "C:/Work/SPb_Mountains/23_1/50.gpkg|layername=50" }, "geometry": { "type": "Point", "coordinates": [ 3415366.394818151369691, 8331489.98999771848321 ] } },
{ "type": "Feature", "properties": { "fid": 51, "id": 51, "photo": "M:\\RESEARCH\\MLA+ Горные просторы\\04 GIS\\02 Source data\\Фото-20260617T100655Z-3-001 — копия\\Фото\\702.JPG", "name": "702", "lon": 30.681083333333333, "lat": 59.691988888888886, "altitude": 37.519937625306305, "azimuth": 337.09957882069796, "layer": "51", "path": "C:/Work/SPb_Mountains/23_1/51.gpkg|layername=51" }, "geometry": { "type": "Point", "coordinates": [ 3415402.573652659077197, 8331479.57332331314683 ] } },
{ "type": "Feature", "properties": { "fid": 52, "id": 52, "photo": "M:\\RESEARCH\\MLA+ Горные просторы\\04 GIS\\02 Source data\\Фото-20260617T100655Z-3-001 — копия\\Фото\\703.JPG", "name": "703", "lon": 30.700961111111109, "lat": 59.693158333333329, "altitude": 34.742458352093649, "azimuth": 83.015167183729744, "layer": "52", "path": "C:/Work/SPb_Mountains/23_1/52.gpkg|layername=52" }, "geometry": { "type": "Point", "coordinates": [ 3417615.357752982992679, 8331737.543523267842829 ] } },
{ "type": "Feature", "properties": { "fid": 53, "id": 53, "photo": "M:\\RESEARCH\\MLA+ Горные просторы\\04 GIS\\02 Source data\\Фото-20260617T100655Z-3-001 — копия\\Фото\\704.JPG", "name": "704", "lon": 30.796916666666668, "lat": 59.67765, "altitude": 15.84847641575066, "azimuth": 216.63903811716551, "layer": "53", "path": "C:/Work/SPb_Mountains/23_1/53.gpkg|layername=53" }, "geometry": { "type": "Point", "coordinates": [ 3428297.081336213741452, 8328317.259870488196611 ] } },
{ "type": "Feature", "properties": { "fid": 6, "id": 6, "photo": "M:\\RESEARCH\\MLA+ Горные просторы\\04 GIS\\02 Source data\\Фото-20260617T100655Z-3-001 — копия\\Фото\\1006.JPG", "name": "1006", "lon": 30.073252777777778, "lat": 59.756408333333333, "altitude": 105.67013167013167, "azimuth": 310.66763678696157, "layer": "6", "path": "C:/Work/SPb_Mountains/23_1/6.gpkg|layername=6" }, "geometry": { "type": "Point", "coordinates": [ 3347739.185719622299075, 8345703.432226232253015 ] } },
{ "type": "Feature", "properties": { "fid": 7, "id": 7, "photo": "M:\\RESEARCH\\MLA+ Горные просторы\\04 GIS\\02 Source data\\Фото-20260617T100655Z-3-001 — копия\\Фото\\1007.JPG", "name": "1007", "lon": 30.041327777777781, "lat": 59.754447222222225, "altitude": 100.69247051708497, "azimuth": 316.0732459521974, "layer": "7", "path": "C:/Work/SPb_Mountains/23_1/7.gpkg|layername=7" }, "geometry": { "type": "Point", "coordinates": [ 3344185.310976047068834, 8345270.01293614692986 ] } },
{ "type": "Feature", "properties": { "fid": 8, "id": 8, "photo": "M:\\RESEARCH\\MLA+ Горные просторы\\04 GIS\\02 Source data\\Фото-20260617T100655Z-3-001 — копия\\Фото\\1008.JPG", "name": "1008", "lon": 30.036597222222223, "lat": 59.75376111111111, "altitude": 102.16469957081546, "azimuth": 301.85263835263834, "layer": "8", "path": "C:/Work/SPb_Mountains/23_1/8.gpkg|layername=8" }, "geometry": { "type": "Point", "coordinates": [ 3343658.707940433640033, 8345118.383583190850914 ] } },
{ "type": "Feature", "properties": { "fid": 9, "id": 9, "photo": "M:\\RESEARCH\\MLA+ Горные просторы\\04 GIS\\02 Source data\\Фото-20260617T100655Z-3-001 — копия\\Фото\\101.jpg", "name": "101", "lon": 29.571552777777779, "lat": 60.199986111111109, "altitude": 32.655657142857144, "azimuth": 177.52536005009392, "layer": "9", "path": "C:/Work/SPb_Mountains/23_1/9.gpkg|layername=9" }, "geometry": { "type": "Point", "coordinates": [ 3291890.197188637219369, 8444397.818725597113371 ] } }
]
}
