{
"type": "FeatureCollection",
"name": "9",
"crs": { "type": "name", "properties": { "name": "urn:ogc:def:crs:EPSG::3857" } },
"features": [
{ "type": "Feature", "properties": { "fid": null, "name": "Ижорское плато" }, "geometry": { "type": "Point", "coordinates": [ 3305068.594401396811008, 8314248.22927503939718 ] } },
{ "type": "Feature", "properties": { "fid": null, "name": "Путиловское плато" }, "geometry": { "type": "Point", "coordinates": [ 3434011.03287626709789, 8315376.005704849027097 ] } },
{ "type": "Feature", "properties": { "fid": null, "name": "Дудергофские высоты" }, "geometry": { "type": "Point", "coordinates": [ 3360315.9307, 8334692.343411546200514 ] } },
{ "type": "Feature", "properties": { "fid": null, "name": "Моренный пояс" }, "geometry": { "type": "Point", "coordinates": [ 3369565.9307, 8346181.630280491895974 ] } }
]
}
