{
"type": "FeatureCollection",
"name": "amphitheater_bound",
"crs": { "type": "name", "properties": { "name": "urn:ogc:def:crs:EPSG::3857" } },
"features": [
{ "type": "Feature", "properties": { "fid": 20, "type": "Внешняя граница буфер" }, "geometry": { "type": "MultiLineString", "coordinates": [ [ [ 3285833.395872170105577, 8440398.407266212627292 ], [ 3285607.401876172516495, 8442264.144155846908689 ], [ 3285482.746924645733088, 8442752.899622946977615 ], [ 3285482.165280575864017, 8443497.795467281714082 ], [ 3285510.179453429765999, 8443723.126857627183199 ], [ 3285680.24353, 8444411.614941375330091 ], [ 3285703.856421262491494, 8444457.069677984341979 ], [ 3285095.509656319394708, 8445041.913019305095077 ], [ 3285015.883195952046663, 8445217.517043197527528 ], [ 3285015.176909110043198, 8445218.040526386350393 ], [ 3284775.150611872784793, 8445476.596151411533356 ], [ 3284038.384738131426275, 8446036.69169064424932 ], [ 3283936.270059202797711, 8446203.963309505954385 ], [ 3283860.127828479744494, 8446238.366261336952448 ], [ 3283148.703888840973377, 8446900.948770925402641 ], [ 3283118.253700956236571, 8446940.331013923510909 ], [ 3282615.347784599289298, 8447922.525835946202278 ], [ 3282501.569566110149026, 8449020.102961305528879 ], [ 3282510.907623728271574, 8449134.18966524489224 ], [ 3282597.634861228056252, 8449645.103073852136731 ], [ 3282613.062956422567368, 8449704.379439601674676 ], [ 3282764.766903307288885, 8450073.604111235588789 ], [ 3282789.958069102372974, 8450241.813442133367062 ], [ 3283390.16414839355275, 8451242.712883707135916 ], [ 3283409.652268639300019, 8451264.231016477569938 ], [ 3283627.809296881780028, 8451436.526497453451157 ], [ 3283752.87005195626989, 8451631.948714375495911 ], [ 3283742.798533116932958, 8451639.502353504300117 ], [ 3283778.120751062873751, 8451686.598644098266959 ], [ 3283784.690242940559983, 8451681.671525189653039 ], [ 3283849.503234163857996, 8451782.949487430974841 ], [ 3283875.007741159759462, 8451829.99196151457727 ], [ 3283896.11987142637372, 8451855.570119338110089 ], [ 3284136.211759130004793, 8452081.955281941220164 ], [ 3284342.610176835674793, 8452343.646313868463039 ], [ 3284497.185668609570712, 8452450.679998923093081 ], [ 3284498.800805003382266, 8452468.637337535619736 ], [ 3284498.440897721797228, 8452471.616594221442938 ], [ 3284498.440897721797228, 8452514.246857259422541 ], [ 3284508.451438798569143, 8452575.93459090590477 ], [ 3284510.216489189304411, 8452595.558696743100882 ], [ 3284497.37707016710192, 8452700.109889650717378 ], [ 3284534.232750611845404, 8452927.269986521452665 ], [ 3284390.749081772286445, 8453527.668131424114108 ], [ 3284388.313066741451621, 8453569.080386947840452 ], [ 3284458.394507358316332, 8454287.658333586528897 ], [ 3284470.983571885153651, 8454470.56336166523397 ], [ 3284481.53963701846078, 8454523.749689837917686 ], [ 3284864.987007708288729, 8455505.200326208025217 ], [ 3285074.308291177265346, 8455741.218763645738363 ], [ 3284876.371357882861048, 8456272.240889046341181 ], [ 3284850.302878782618791, 8456611.62752384506166 ], [ 3284785.524165234062821, 8456820.443779179826379 ], [ 3284779.840130162425339, 8456866.728064764291048 ], [ 3284843.62831231765449, 8457946.211277643218637 ], [ 3285021.960611513350159, 8458343.98743992485106 ], [ 3285001.002315399236977, 8458351.655109234154224 ], [ 3285025.362465706653893, 8458418.239520074799657 ], [ 3285163.044813435524702, 8458673.358370140194893 ], [ 3285174.719106842763722, 8458759.764707734808326 ], [ 3285552.580690666101873, 8459422.562184970825911 ], [ 3285581.028929778374732, 8459716.107768492773175 ], [ 3285605.389080085791647, 8459822.480424834415317 ], [ 3285708.141644218470901, 8460125.577237220481038 ], [ 3285720.68508863216266, 8460318.305866016075015 ], [ 3285951.20527527295053, 8461027.58693222515285 ], [ 3285969.881390508729964, 8461067.375177726149559 ], [ 3286404.724851580802351, 8461741.408249726518989 ], [ 3287002.627373465336859, 8462276.124989798292518 ], [ 3287464.632995509076864, 8462505.882923573255539 ], [ 3287702.213522817473859, 8462683.299649866297841 ], [ 3288018.837893628515303, 8462783.670578675344586 ], [ 3288195.029385382309556, 8462860.357739068567753 ], [ 3288230.757605833467096, 8462872.537814222276211 ], [ 3288461.97741695586592, 8462924.147211708128452 ], [ 3288654.191511201206595, 8462985.07968863658607 ], [ 3288726.114763182587922, 8462983.103964705020189 ], [ 3288867.484810893423855, 8463014.6584536973387 ], [ 3288925.949171631596982, 8463021.154493780806661 ], [ 3288966.94582782452926, 8463025.424775075167418 ], [ 3289025.410188562702388, 8463031.108810145407915 ], [ 3289763.52203925838694, 8463010.535370413213968 ], [ 3289871.901240800041705, 8463033.55298219807446 ], [ 3290072.31023186724633, 8463118.87562195956707 ], [ 3290469.517307880334556, 8463213.780642176046968 ], [ 3290464.433754178695381, 8463229.031303282827139 ], [ 3290518.026084855664521, 8463246.895413506776094 ], [ 3290523.136946103069931, 8463231.56282976269722 ], [ 3290587.20173135958612, 8463258.180007642135024 ], [ 3290584.830455761402845, 8463267.233969016000628 ], [ 3290650.203171852044761, 8463284.355394659563899 ], [ 3290781.570702071301639, 8463338.935034712776542 ], [ 3291653.874498234130442, 8463426.881502628326416 ], [ 3292514.354361241683364, 8463258.884778322651982 ], [ 3292651.413313178345561, 8463186.463851645588875 ], [ 3292885.192830246407539, 8463135.029747452586889 ], [ 3293638.22471659258008, 8462719.48681940510869 ], [ 3293779.446154193487018, 8462576.408966096118093 ], [ 3293798.352190271019936, 8462566.341411242261529 ], [ 3293824.066870851442218, 8462539.996345667168498 ], [ 3293857.797662459313869, 8462536.377708842977881 ], [ 3293905.255748109892011, 8462515.641544733196497 ], [ 3294307.474405761808157, 8462438.731741108000278 ], [ 3294587.174208874348551, 8462290.114409564062953 ], [ 3294854.478593378327787, 8462212.080005155876279 ], [ 3294934.514050768688321, 8462152.847932836040854 ], [ 3295182.580993837676942, 8462068.651413828134537 ], [ 3296007.537153515499085, 8461396.271735087037086 ], [ 3296046.513394007459283, 8461350.79945451207459 ], [ 3296289.293282317463309, 8460898.256017183884978 ], [ 3296307.930735442787409, 8460910.680985933169723 ], [ 3296322.011041007004678, 8460889.56052758730948 ], [ 3296331.384427756536752, 8460895.560043014585972 ], [ 3296461.416618681047112, 8460961.716771731153131 ], [ 3297821.788349852431566, 8461287.882679453119636 ], [ 3297914.17964340467006, 8461287.882679453119636 ], [ 3297969.469790100120008, 8461287.373136127367616 ], [ 3298093.228498129174113, 8461285.091869618743658 ], [ 3298126.135506213176996, 8461284.304676339030266 ], [ 3298281.261628719046712, 8461279.742143325507641 ], [ 3298839.576762764714658, 8461210.547688655555248 ], [ 3299004.968584554735571, 8461174.047424536198378 ], [ 3299058.983851558063179, 8461157.671590510755777 ], [ 3299170.176540842745453, 8461170.131336089223623 ], [ 3299377.083371255546808, 8461173.962526448071003 ], [ 3299626.370228039566427, 8461289.577863184735179 ], [ 3299629.129380847793072, 8461312.897266333922744 ], [ 3299632.551280608866364, 8461327.155182003974915 ], [ 3299699.857891402672976, 8461511.773812621831894 ], [ 3299720.53121994016692, 8461665.673787791281939 ], [ 3299822.798559830989689, 8461848.993850667029619 ], [ 3299866.431613507214934, 8461968.677110964432359 ], [ 3299874.416046283207834, 8461984.645976517349482 ], [ 3300062.646666918881238, 8462298.363677572458982 ], [ 3300089.622461116872728, 8462380.55190747231245 ], [ 3300152.357290071900934, 8462535.678029980510473 ], [ 3300312.759825791697949, 8462822.391648758202791 ], [ 3300312.860019950661808, 8462822.652869245037436 ], [ 3300323.050058232620358, 8462852.779938947409391 ], [ 3300344.3884462043643, 8462927.464296849444509 ], [ 3300502.47165197506547, 8463354.80389417335391 ], [ 3300566.347114183939993, 8463493.961151126772165 ], [ 3300770.690181775018573, 8463866.890909859910607 ], [ 3300857.378309058025479, 8464001.485633797943592 ], [ 3300916.475854386109859, 8464089.768407598137856 ], [ 3301036.242346026934683, 8464262.004028910771012 ], [ 3301074.22249098867178, 8464315.370557894930243 ], [ 3301227.067346988245845, 8464525.247076580300927 ], [ 3301433.319269925355911, 8464778.287554340437055 ], [ 3301640.91452210303396, 8465006.414205083623528 ], [ 3301806.010223639197648, 8465174.123437594622374 ], [ 3301907.789802384097129, 8465269.707737633958459 ], [ 3302048.072966285981238, 8465477.065489245578647 ], [ 3302182.667690225411206, 8465657.285543331876397 ], [ 3302413.900067950133234, 8465931.12290764041245 ], [ 3302478.325320838019252, 8465998.769423173740506 ], [ 3302487.441040034405887, 8466011.191166032105684 ], [ 3302559.30093501880765, 8466107.004359345883131 ], [ 3302591.244282896164805, 8466148.826199900358915 ], [ 3302671.088610657025129, 8466251.483192736282945 ], [ 3302970.179745544213802, 8466582.075145294889808 ], [ 3303065.992938857059926, 8466673.325805593281984 ], [ 3303391.243874969426543, 8466942.11242613196373 ], [ 3303419.168373654596508, 8466962.058496620506048 ], [ 3303453.550066681113094, 8466990.372832054272294 ], [ 3303594.673304987605661, 8467115.275008488446474 ], [ 3303738.710202450864017, 8467246.786958346143365 ], [ 3303850.980774061288685, 8467401.963846815750003 ], [ 3303986.716131254564971, 8467565.074402097612619 ], [ 3304134.49682677956298, 8467729.891340330243111 ], [ 3304184.959163694642484, 8467782.155903562903404 ], [ 3304214.879019928630441, 8467831.913925344124436 ], [ 3304269.853550766129047, 8468033.487205080688 ], [ 3304641.552100097760558, 8468867.872955575585365 ], [ 3304769.303024514578283, 8469066.343141723424196 ], [ 3305463.215848347637802, 8469820.824912736192346 ], [ 3306370.628647422417998, 8470297.647481357678771 ], [ 3307385.60019607655704, 8470441.141402108594775 ], [ 3307531.601252553518862, 8470436.57886909134686 ], [ 3308224.586238201707602, 8470333.059054465964437 ], [ 3308434.462756887078285, 8470276.027391780167818 ], [ 3308482.375420142430812, 8470259.994263708591461 ], [ 3308585.374048618599772, 8470264.666386265307665 ], [ 3308824.907031900249422, 8470264.666386265307665 ], [ 3309552.513906961772591, 8470175.093886712566018 ], [ 3309616.717841090634465, 8470159.042903181165457 ], [ 3309588.520023788325489, 8470164.797559773549438 ], [ 3310537.064976551104337, 8469861.634430531412363 ], [ 3311336.62864632345736, 8469261.026190737262368 ], [ 3311894.365007463376969, 8468430.98855834081769 ], [ 3311958.240469672251493, 8468289.550034880638123 ], [ 3312088.581898204982281, 8467820.677944043651223 ], [ 3312212.668521096929908, 8467748.402520002797246 ], [ 3312380.55673764180392, 8467622.486357592046261 ], [ 3312455.473026727791876, 8467572.789413347840309 ], [ 3312539.173465897329152, 8467524.960590964183211 ], [ 3312581.78406993066892, 8467502.866203688085079 ], [ 3312626.799962882418185, 8467483.171750521287322 ], [ 3312730.25865198019892, 8467438.832312336191535 ], [ 3312825.773786984849721, 8467399.034339420497417 ], [ 3313446.280453694984317, 8467048.826527556404471 ], [ 3313966.69902532082051, 8466562.16592176631093 ], [ 3314123.727388069499284, 8466375.687338031828403 ], [ 3314373.043349781539291, 8466033.173889957368374 ], [ 3314540.102687234524637, 8465765.844367753714323 ], [ 3314568.422536547295749, 8465724.951706485822797 ], [ 3314577.994004318024963, 8465713.841198347508907 ], [ 3314910.70502693997696, 8465242.676994234323502 ], [ 3314974.192501897923648, 8465131.422113671898842 ], [ 3314999.026744935195893, 8465110.104543974623084 ], [ 3315060.241138136480004, 8465062.493349261581898 ], [ 3315139.423954257275909, 8465027.559753915295005 ], [ 3315756.244505365844816, 8464858.103558555245399 ], [ 3315910.197234976105392, 8464811.334183622151613 ], [ 3316485.076394853182137, 8464619.70779699832201 ], [ 3316706.717512642499059, 8464529.389795795083046 ], [ 3316772.731631776783615, 8464531.223521325737238 ], [ 3316847.863575550261885, 8464540.615014297887683 ], [ 3317036.637589474674314, 8464558.17448485083878 ], [ 3317260.201707204803824, 8464571.862083895131946 ], [ 3317443.531897037755698, 8464577.468983199447393 ], [ 3317671.658547782339156, 8464577.468983199447393 ], [ 3317915.744576148688793, 8464567.522830666974187 ], [ 3318139.308693878352642, 8464549.272698607295752 ], [ 3318388.419627431314439, 8464518.400622636079788 ], [ 3318607.421212146058679, 8464481.900358516722918 ], [ 3319398.48328443756327, 8464233.932103704661131 ], [ 3319494.976453871000558, 8464188.224812921136618 ], [ 3320153.25313055049628, 8464532.729946816340089 ], [ 3320422.442578429356217, 8464623.980607114732265 ], [ 3321226.638020690530539, 8464778.570623291656375 ], [ 3322042.675448825582862, 8464709.931725149974227 ], [ 3322489.80368428491056, 8464609.555998822674155 ], [ 3323385.486306789796799, 8464249.276826284825802 ], [ 3323755.05148099642247, 8464025.712708555161953 ], [ 3324496.987425923813134, 8463391.250362161546946 ], [ 3324788.989538877271116, 8463044.49785302951932 ], [ 3325150.449653040617704, 8462506.592312650755048 ], [ 3325342.076039666309953, 8462141.589671459048986 ], [ 3325475.859332450199872, 8461784.6436084844172 ], [ 3325524.372853151056916, 8461770.249892888590693 ], [ 3325665.811376613564789, 8461706.374430680647492 ], [ 3326011.870215937495232, 8461521.970706833526492 ], [ 3326239.996866682078689, 8461380.53218337148428 ], [ 3326372.371324696578085, 8461293.539713587611914 ], [ 3326687.18610272416845, 8461074.53812887147069 ], [ 3326885.785717498045415, 8460923.758340459316969 ], [ 3327123.037434272933751, 8460727.569420820102096 ], [ 3327311.246416050940752, 8460549.148510726168752 ], [ 3327438.035061196424067, 8460477.187387807294726 ], [ 3327558.060906519182026, 8460405.313829053193331 ], [ 3327749.687293144874275, 8460284.406704157590866 ], [ 3327797.422311262693256, 8460244.36909950338304 ], [ 3327999.939886581152678, 8460149.360854292288423 ], [ 3328229.710558202117682, 8460050.887709312140942 ], [ 3328470.785189406014979, 8459959.571561127901077 ], [ 3328879.930573709309101, 8459768.232957858592272 ], [ 3329020.75153347151354, 8459688.94720740430057 ], [ 3329113.337908334098756, 8459745.554280294105411 ], [ 3329273.026563855353743, 8459800.304676473140717 ], [ 3330459.740686819888651, 8459954.842938128858805 ], [ 3330510.074352727271616, 8459951.247676277533174 ], [ 3330633.125072179362178, 8460072.833506213501096 ], [ 3331049.133580908179283, 8460415.782828330993652 ], [ 3331322.88556180242449, 8460602.846681941300631 ], [ 3331826.704443770926446, 8460880.33959024399519 ], [ 3332043.424761978443712, 8460973.871517049148679 ], [ 3333232.177395082078874, 8461219.444684240967035 ], [ 3333391.866050602868199, 8461219.444684240967035 ], [ 3334276.160660645458847, 8461086.154129344969988 ], [ 3335081.876524512656033, 8460698.126712674275041 ], [ 3335232.440114004537463, 8460595.469719840213656 ], [ 3336012.952443132642657, 8459818.70340015180409 ], [ 3336154.390966594219208, 8459613.389414479956031 ], [ 3336290.491175841074437, 8459379.383379092440009 ], [ 3336451.178085857536644, 8459091.27227621152997 ], [ 3336488.560277166776359, 8459002.743530299514532 ], [ 3336926.505241358652711, 8458884.265665590763092 ], [ 3337356.12693999055773, 8458732.177485967054963 ], [ 3337789.567576405592263, 8458540.55109933950007 ], [ 3338064.930910071823746, 8458401.469079703092575 ], [ 3338496.090279979631305, 8458155.092296898365021 ], [ 3338731.564729331061244, 8458005.601944107562304 ], [ 3339119.390415568370372, 8457733.298802707344294 ], [ 3339227.348548372276127, 8457662.766155943274498 ], [ 3339313.610526604577899, 8457702.618023525923491 ], [ 3339582.799974484369159, 8457793.868683824315667 ], [ 3339984.581494296900928, 8457899.686744846403599 ], [ 3340224.114477578550577, 8457945.312074994668365 ], [ 3340785.450801241211593, 8457998.296375725418329 ], [ 3340995.327319926582277, 8457998.296375725418329 ], [ 3341474.798037477768958, 8457959.733160633593798 ], [ 3341714.331020759418607, 8457920.951630007475615 ], [ 3342065.474789228755981, 8457842.235708383843303 ], [ 3342334.664237107615918, 8457764.672647131606936 ], [ 3343015.662827669177204, 8457473.288486536592245 ], [ 3343262.039610473904759, 8457329.568696565926075 ], [ 3343803.734259144868702, 8456925.451092507690191 ], [ 3344027.298376874066889, 8456715.574573822319508 ], [ 3344134.58444642322138, 8456609.661424316465855 ], [ 3344374.11742970533669, 8456361.003375004976988 ], [ 3344455.751590949483216, 8456272.788942374289036 ], [ 3344711.253439784049988, 8455985.349362436681986 ], [ 3344874.954166659153998, 8455784.325694181025028 ], [ 3345106.646198627538979, 8455473.269108982756734 ], [ 3345249.113200978841633, 8455264.135065829381347 ], [ 3345456.995416081510484, 8454929.461475366726518 ], [ 3345552.541914030443877, 8454746.339747356250882 ], [ 3346013.326813229359686, 8454821.014884900301695 ], [ 3346991.861738148145378, 8454651.101892698556185 ], [ 3347181.038927713409066, 8454584.56138700991869 ], [ 3347935.89492510817945, 8454191.016599705442786 ], [ 3348183.07648006035015, 8454013.450891433283687 ], [ 3348279.238250787835568, 8453941.409305769950151 ], [ 3348602.037461591418833, 8453689.329356698319316 ], [ 3348657.455709005240351, 8453644.986967382952571 ], [ 3348911.378912136424333, 8453436.838543564081192 ], [ 3349150.123031596187502, 8453286.405587902292609 ], [ 3349654.814590736292303, 8453029.265378274023533 ], [ 3349869.376328295096755, 8452908.611981144174933 ], [ 3350295.973165187984705, 8452645.1256995331496 ], [ 3350746.401338222436607, 8452304.438912872225046 ], [ 3350909.227070893160999, 8452155.218172244727612 ], [ 3350955.742778547108173, 8452117.290392631664872 ], [ 3351042.823703695554286, 8452057.086296232417226 ], [ 3351136.815446707885712, 8451989.385629391297698 ], [ 3351321.130840276833624, 8451851.144627172499895 ], [ 3351350.930963816586882, 8451827.927797093987465 ], [ 3351713.554223127663136, 8451732.898899735882878 ], [ 3351770.208404909819365, 8451717.458037115633488 ], [ 3352310.290613209363073, 8451564.567117851227522 ], [ 3352692.665647398680449, 8451478.995285602286458 ], [ 3353100.51851631840691, 8451417.089046571403742 ], [ 3353857.522269567009062, 8451197.451425364241004 ], [ 3354272.71277392283082, 8451014.950104767456651 ], [ 3355072.402605702634901, 8450498.442617487162352 ], [ 3355391.779916745610535, 8450211.003037547692657 ], [ 3355535.261111969593912, 8450072.982372846454382 ], [ 3355861.482222534250468, 8449737.636196251958609 ], [ 3355975.503647266887128, 8449613.643082721158862 ], [ 3356214.724678742699325, 8449338.375046502798796 ], [ 3356372.267185209784657, 8449512.267300298437476 ], [ 3356454.392779477871954, 8449584.127195283770561 ], [ 3357088.265816626604646, 8450009.678684189915657 ], [ 3357184.079009939450771, 8450057.585280844941735 ], [ 3357354.914166283328086, 8450125.334607310593128 ], [ 3357390.120922202244401, 8450241.176191302016377 ], [ 3357506.325837273616344, 8450623.968852713704109 ], [ 3357562.51068904157728, 8450791.192651638761163 ], [ 3357668.589581638108939, 8451078.632231578230858 ], [ 3357799.764886798802763, 8451381.604408282786608 ], [ 3357895.578080110717565, 8451573.230794906616211 ], [ 3357932.804884327575564, 8451645.235706804320216 ], [ 3358066.258975013624877, 8451895.034389369189739 ], [ 3358089.841915431898087, 8451938.317484505474567 ], [ 3358260.936903490684927, 8452246.28846301138401 ], [ 3358575.541843364015222, 8452706.062678553164005 ], [ 3358743.214931661263108, 8452907.95476446300745 ], [ 3359348.413150750566274, 8453420.714771142229438 ], [ 3359341.247866034507751, 8453429.671377036720514 ], [ 3359504.345015899743885, 8453560.149096928536892 ], [ 3359746.872677931562066, 8453781.58739704452455 ], [ 3359969.680770007427782, 8453966.130915271118283 ], [ 3360257.120349945966154, 8454181.710600223392248 ], [ 3360606.062014855444431, 8454407.435206526890397 ], [ 3360866.126396704465151, 8454551.154996497556567 ], [ 3360992.661778130102903, 8454617.202844396233559 ], [ 3361208.241463083773851, 8454723.281736992299557 ], [ 3361418.592387679964304, 8454816.939355438575149 ], [ 3361589.687375738751143, 8454885.37735066190362 ], [ 3362464.597368270158768, 8455090.391003923490644 ], [ 3363360.974431716836989, 8455027.096034286543727 ], [ 3363528.647520014084876, 8454989.4551369138062 ], [ 3364229.734983819536865, 8454737.243014311417937 ], [ 3364275.555044026114047, 8454706.275772660970688 ], [ 3364324.986922712996602, 8454724.533599516376853 ], [ 3364516.61330933868885, 8454769.018296411260962 ], [ 3365195.002430931665003, 8454846.72669567912817 ], [ 3365407.160216123796999, 8454846.72669567912817 ], [ 3366490.142523791640997, 8454644.430990504100919 ], [ 3366702.300308984238654, 8454562.305396236479282 ], [ 3367455.8375802943483, 8454136.772224251180887 ], [ 3367667.995365487411618, 8453972.521035714074969 ], [ 3368304.559399043209851, 8453298.542318174615502 ], [ 3368704.954642174299806, 8452462.393569570034742 ], [ 3368768.37302337680012, 8452250.998965559527278 ], [ 3368778.933959022164345, 8452246.472850283607841 ], [ 3369484.770749298855662, 8451820.772372338920832 ], [ 3369628.490539268124849, 8451704.427780456840992 ], [ 3370318.774506471119821, 8450907.144747655838728 ], [ 3370404.32200050028041, 8450763.424957687035203 ], [ 3370561.863912144675851, 8450328.848302535712719 ], [ 3370903.172983809839934, 8450287.225245015695691 ], [ 3371306.183226398192346, 8450209.80107886902988 ], [ 3371668.904601082671434, 8450113.987885555252433 ], [ 3371899.509500567801297, 8450043.038534674793482 ], [ 3372200.636679550632834, 8449936.959642078727484 ], [ 3372514.570299746468663, 8449805.920002188533545 ], [ 3372754.103283028118312, 8449689.575410310178995 ], [ 3373010.32763210311532, 8449549.314179107546806 ], [ 3373284.079612996894866, 8449381.64109081029892 ], [ 3373455.714734809473157, 8449268.243819979950786 ], [ 3373700.820461687166244, 8449093.946414198726416 ], [ 3373799.967670619953424, 8449030.852735787630081 ], [ 3373915.06789842620492, 8448969.705739766359329 ], [ 3374417.297330086585134, 8448634.027656389400363 ], [ 3374632.877015040256083, 8448456.08886880800128 ], [ 3374968.946446035057306, 8448131.525529684498906 ], [ 3375150.142561766784638, 8447926.94926998578012 ], [ 3375313.694562310352921, 8447753.485026985406876 ], [ 3375498.815050256438553, 8447568.364539038389921 ], [ 3375689.857804540544748, 8447385.509331367909908 ], [ 3375904.09162342408672, 8447189.638411244377494 ], [ 3375941.383586407639086, 8447154.957226110622287 ], [ 3376194.604168734047562, 8446915.42424282990396 ], [ 3376226.59878784045577, 8446884.707756398245692 ], [ 3376483.320125320926309, 8446634.569017315283418 ], [ 3376706.541078720707446, 8446421.15997395478189 ], [ 3376747.668202644214034, 8446432.023742537945509 ], [ 3377283.752074491232634, 8446522.673732534050941 ], [ 3377595.144952757749707, 8446546.627030862495303 ], [ 3378368.721737830433995, 8446505.823140127584338 ], [ 3378528.268851678352803, 8446476.432882314547896 ], [ 3378790.724640781525522, 8446602.575655924156308 ], [ 3378886.537834093905985, 8446629.950854014605284 ], [ 3379702.651311916299164, 8446745.368210919201374 ], [ 3380519.37243453739211, 8446634.332258084788918 ], [ 3380569.133891446515918, 8446612.660509889945388 ], [ 3380664.186265123542398, 8446622.617888828739524 ], [ 3381096.451376665383577, 8446801.667960569262505 ], [ 3381271.401619391515851, 8446874.134723845869303 ], [ 3382047.858754699118435, 8446976.357244979590178 ], [ 3382095.765351355541497, 8446976.357244979590178 ], [ 3382327.32633538544178, 8446957.192672023549676 ], [ 3382353.665607504080981, 8446963.777490053325891 ], [ 3383081.272482573054731, 8447053.349989607930183 ], [ 3383112.949125340674073, 8447053.349989607930183 ], [ 3383643.460006641689688, 8447006.070464834570885 ], [ 3383682.852831514552236, 8446998.992814777418971 ], [ 3384133.303389482200146, 8446881.358697082847357 ], [ 3384187.145166494417936, 8446862.729032794013619 ], [ 3384801.565525206271559, 8446568.264039942994714 ], [ 3384826.622618545778096, 8446552.529451869428158 ], [ 3385250.077020994853228, 8446230.984560823068023 ], [ 3385648.478833060711622, 8445868.532878750935197 ], [ 3386173.827575742732733, 8445239.149134935811162 ], [ 3386292.179591088090092, 8444975.128913220018148 ], [ 3386766.185365590732545, 8444888.921615190804005 ], [ 3387540.911071279086173, 8444494.729154335334897 ], [ 3388170.104358632583171, 8443894.976353257894516 ], [ 3388600.941821482032537, 8443140.014966260641813 ], [ 3388763.277315824758261, 8442725.407023442909122 ], [ 3388850.113011142238975, 8442587.334919769316912 ], [ 3389107.021056686062366, 8442543.139959776774049 ], [ 3390021.207707779947668, 8442014.609011713415384 ], [ 3390073.806567664723843, 8441970.205648642033339 ], [ 3390450.171470378059894, 8441879.308640971779823 ], [ 3391156.428634059615433, 8441610.858806367963552 ], [ 3392681.528911885805428, 8440798.372736481949687 ], [ 3393397.233420521486551, 8440267.042477399110794 ], [ 3394067.678525326307863, 8439593.469400161877275 ], [ 3394215.396862684283406, 8439463.90818658284843 ], [ 3394710.121953063644469, 8439325.77023677714169 ], [ 3396993.643608947750181, 8438370.1345503795892 ], [ 3397090.277717345394194, 8438356.245591219514608 ], [ 3397858.308919895906001, 8438138.557096851989627 ], [ 3398109.701597454957664, 8437986.810540998354554 ], [ 3398713.074132125359029, 8438024.79878393933177 ], [ 3399115.061182350851595, 8437988.720789326354861 ], [ 3400125.503028464037925, 8437714.612159872427583 ], [ 3400524.647138024214655, 8437432.252553580328822 ], [ 3400962.930017706938088, 8437382.122086919844151 ], [ 3401978.335170068778098, 8436824.04038467630744 ], [ 3402194.789710837416351, 8436642.875053275376558 ], [ 3402503.877045014873147, 8436344.001661645248532 ], [ 3402582.373785585165024, 8436256.371781885623932 ], [ 3403141.483748461585492, 8435854.609121948480606 ], [ 3403654.117588138207793, 8435210.940772894769907 ], [ 3403836.549354457296431, 8434903.10481177456677 ], [ 3404300.860546307172626, 8434667.834345487877727 ], [ 3404909.136333613656461, 8434105.742795282974839 ], [ 3404941.368890672456473, 8434066.398120526224375 ], [ 3405123.89971257885918, 8433818.692684253677726 ], [ 3405236.103174802847207, 8433648.827053831890225 ], [ 3405588.278892479836941, 8432915.576395656913519 ], [ 3405730.525758006609976, 8432114.670600270852447 ], [ 3405683.718131269793957, 8431629.655466480180621 ], [ 3405959.893677711021155, 8431118.018956994637847 ], [ 3406028.256089022848755, 8430795.588501568883657 ], [ 3406299.942679442465305, 8430683.052330667153001 ], [ 3407112.518153162673116, 8430182.085077822208405 ], [ 3407726.580989540554583, 8429451.213049422949553 ], [ 3408012.605289008934051, 8428972.953916750848293 ], [ 3408350.214546479750425, 8428153.241872992366552 ], [ 3408433.513019655831158, 8427270.649549333378673 ], [ 3408427.33356551034376, 8427156.738100865855813 ], [ 3408446.003597562201321, 8427077.550043137744069 ], [ 3408525.067565110046417, 8426311.918999532237649 ], [ 3408493.104599206708372, 8426106.518590431660414 ], [ 3408513.961972805671394, 8425992.972856763750315 ], [ 3408743.929716435726732, 8425312.379321748390794 ], [ 3409605.038583132438362, 8424224.481286324560642 ], [ 3409981.94043006375432, 8423605.305827055126429 ], [ 3410200.604518892243505, 8422892.182508286088705 ], [ 3410268.547362959012389, 8422503.12006613984704 ], [ 3410366.796434628311545, 8422403.258415168151259 ], [ 3411122.865359080024064, 8421882.994380690157413 ], [ 3411339.846523170825094, 8421718.699844708666205 ], [ 3412700.418077779468149, 8420587.836386723443866 ], [ 3413254.307477548718452, 8419981.224443688988686 ], [ 3413408.795704213902354, 8419756.693449279293418 ], [ 3413631.718413712456822, 8419796.496829368174076 ], [ 3413648.76166933728382, 8419807.560577694326639 ], [ 3414895.142785734497011, 8420266.182621011510491 ], [ 3416062.402625814080238, 8420418.064739037305117 ], [ 3417127.756121348589659, 8420365.464299339801073 ], [ 3418107.366496675182134, 8419943.435403106734157 ], [ 3418595.966174445580691, 8419619.459112549200654 ], [ 3419386.223248770460486, 8419302.028273018077016 ], [ 3420467.632979064714164, 8418558.23892379924655 ], [ 3421527.134936182294041, 8417415.853329004719853 ], [ 3422354.14348279312253, 8416929.122789982706308 ], [ 3423088.825809360481799, 8416320.775851178914309 ], [ 3423595.406702069565654, 8415512.555634861811996 ], [ 3423822.673978031612933, 8414586.168186653405428 ], [ 3423946.363074173685163, 8413060.999123226851225 ], [ 3423860.621082831174135, 8412067.351722154766321 ], [ 3423598.698444813955575, 8411480.950479874387383 ], [ 3424347.386600043158978, 8410292.578769309446216 ], [ 3425507.942187439650297, 8408652.166068933904171 ], [ 3425932.478090730495751, 8407781.158550377935171 ], [ 3426057.238789992406964, 8406820.263343561440706 ], [ 3426015.738045439124107, 8405566.471230989322066 ], [ 3426004.952582511585206, 8405392.933921672403812 ], [ 3425860.920842345338315, 8403815.473167000338435 ], [ 3425626.049254406709224, 8402895.512790476903319 ], [ 3425115.451317552942783, 8402095.024499448016286 ], [ 3424380.271457484457642, 8401494.189804591238499 ], [ 3423062.184145864564925, 8400728.49782951362431 ], [ 3422044.828727608080953, 8400362.780318029224873 ], [ 3421540.874647165648639, 8400279.423024324700236 ], [ 3421193.816552414558828, 8399699.696973603218794 ], [ 3420928.531073998194188, 8399367.978750007227063 ], [ 3420050.339353398885578, 8398623.552858190611005 ], [ 3420009.288193953223526, 8398600.586624745279551 ], [ 3419998.32717144722119, 8398568.515745639801025 ], [ 3419256.549955744296312, 8397706.677622176706791 ], [ 3418705.225175665691495, 8397270.37477065436542 ], [ 3418668.575118819717318, 8397241.829628201201558 ], [ 3418211.130154201295227, 8396891.201858310028911 ], [ 3418104.03042392898351, 8396751.267604121938348 ], [ 3418093.344409875106066, 8396759.446225071325898 ], [ 3417801.189521536696702, 8396367.646822724491358 ], [ 3417265.891723005566746, 8395959.46664965339005 ], [ 3417361.282507730647922, 8395882.200405759736896 ], [ 3417678.39367372635752, 8395435.526303725317121 ], [ 3418591.681123332586139, 8394801.21843221783638 ], [ 3419218.924052252899855, 8393843.218183422461152 ], [ 3419651.833183264825493, 8392783.057059263810515 ], [ 3419871.728151900693774, 8391777.047653501853347 ], [ 3419837.067798296920955, 8391511.447393892332911 ], [ 3419895.867394109256566, 8391447.166330253705382 ], [ 3420250.723414705134928, 8390953.871018728241324 ], [ 3420595.697907300665975, 8390328.853392958641052 ], [ 3420922.588494133669883, 8389522.31638659350574 ], [ 3421136.148349216673523, 8388587.002518249675632 ], [ 3421043.527646868489683, 8387632.098727537319064 ], [ 3420850.138749228790402, 8386897.08788538351655 ], [ 3420706.585237175691873, 8386479.308552962727845 ], [ 3420442.486069053877145, 8385862.68941355496645 ], [ 3419936.308877918869257, 8385157.025458024814725 ], [ 3419936.308877918869257, 8384901.776704997755587 ], [ 3419805.823554002679884, 8384026.627846951596439 ], [ 3419709.259922593832016, 8383823.641260465607047 ], [ 3419839.25186762213707, 8383249.689650014042854 ], [ 3419894.939613486174494, 8382209.598258863203228 ], [ 3419779.249649671372026, 8381569.592588891275227 ], [ 3419880.982357415370643, 8381331.265066491439939 ], [ 3420118.379150419496, 8380297.583350013010204 ], [ 3419981.256954783573747, 8379245.892981238663197 ], [ 3419486.753837726078928, 8378307.638327357359231 ], [ 3419255.378327789716423, 8378011.200003074482083 ], [ 3419720.607268188148737, 8377869.922581629827619 ], [ 3421250.831244277302176, 8377685.836065386421978 ], [ 3422257.516504455823451, 8377670.954641687683761 ], [ 3422424.603762038517743, 8377718.808591119013727 ], [ 3423315.98855648515746, 8377834.047706041485071 ], [ 3424201.503834759350866, 8377680.068495363928378 ], [ 3425001.665066059678793, 8377270.692251180298626 ], [ 3425552.077986102551222, 8376875.028466743417084 ], [ 3426113.733368391636759, 8376349.937938124872744 ], [ 3426308.912033855449408, 8376040.023900191299617 ], [ 3427154.417013698257506, 8375463.428485994227231 ], [ 3427532.723664273042232, 8375157.715580865740776 ], [ 3428716.376638502348214, 8374030.862047801725566 ], [ 3429851.726528201717883, 8373256.295499411411583 ], [ 3430171.709313347935677, 8373004.550102696754038 ], [ 3430913.839252225589007, 8372334.344296926632524 ], [ 3431519.673052082303911, 8371575.472380483523011 ], [ 3431851.376730354037136, 8370662.842198844999075 ], [ 3431874.198017789516598, 8369692.06912162527442 ], [ 3431767.688660119194537, 8368931.039638921618462 ], [ 3431457.429991776123643, 8367961.129259954206645 ], [ 3431361.090574979782104, 8367776.143584137782454 ], [ 3430710.197066624648869, 8366934.683330422267318 ], [ 3429806.566886451095343, 8366373.283103059977293 ], [ 3429768.40346878580749, 8366358.143246472813189 ], [ 3429336.738192823249847, 8365917.409372275695205 ], [ 3428883.112991489004344, 8365537.62409701757133 ], [ 3426521.12386024557054, 8363927.707294156774879 ], [ 3426520.582696797791868, 8363925.867458576336503 ], [ 3426418.736494701821357, 8363729.376152043230832 ], [ 3426054.649401423987001, 8363183.053128825500607 ], [ 3425986.388289693277329, 8363101.595089513808489 ], [ 3425882.623311380390078, 8362990.271904689259827 ], [ 3425868.299562023952603, 8362943.25114100985229 ], [ 3425318.153725600335747, 8361915.044957853853703 ], [ 3425289.177379345986992, 8361879.713634808547795 ], [ 3425295.249175609089434, 8361347.790463024750352 ], [ 3425268.464186049532145, 8361193.574489236809313 ], [ 3425267.481747826561332, 8361187.949803207069635 ], [ 3425226.407935746014118, 8360954.10588392522186 ], [ 3425307.283736679702997, 8360688.695366837084293 ], [ 3425353.297353927511722, 8360476.762059161439538 ], [ 3425418.308926822151989, 8359980.721130222082138 ], [ 3425419.120931832119823, 8359963.398356670513749 ], [ 3425366.883184792008251, 8359248.396519531495869 ], [ 3425364.717838097829372, 8359237.29911772441119 ], [ 3425335.67040230287239, 8359109.079423044808209 ], [ 3425769.465439656749368, 8358817.882719934917986 ], [ 3425786.788213208783418, 8358800.800540460273623 ], [ 3426258.384507170412689, 8358198.894087236374617 ], [ 3426316.577504700049758, 8358064.64453830011189 ], [ 3426420.768909328617156, 8357987.851562290452421 ], [ 3426430.633266490418464, 8357976.303046589717269 ], [ 3426905.139900006819516, 8357213.811834285035729 ], [ 3426913.320098628755659, 8357194.804902193136513 ], [ 3427000.753334687557071, 8356824.991727167740464 ], [ 3427387.158836034592241, 8356283.201484804041684 ], [ 3427397.263787273317575, 8356264.194552712142467 ], [ 3427699.869707933161408, 8355393.067838254384696 ], [ 3427701.291459989733994, 8355337.786983223631978 ], [ 3427770.704633875284344, 8355240.185016840696335 ], [ 3427976.066407162230462, 8354999.498546840623021 ], [ 3428316.598250205162913, 8354272.084514985792339 ], [ 3428322.853696209844202, 8354252.115206585265696 ], [ 3428459.575859828386456, 8353407.419255857355893 ], [ 3428401.905524007510394, 8352951.18294969201088 ], [ 3428396.192453557625413, 8352448.35719274636358 ], [ 3428299.192164641804993, 8352138.763364279642701 ], [ 3428216.77745572803542, 8351706.261660990305245 ], [ 3428199.09379106014967, 8351654.413637372665107 ], [ 3427863.261990045662969, 8350969.907221023924649 ], [ 3427842.691196452826262, 8350938.750288038514555 ], [ 3427583.675531025975943, 8350646.993604202754796 ], [ 3427565.890026467386633, 8350615.343261395581067 ], [ 3427549.52962922398001, 8350594.892764841206372 ], [ 3427486.058631359599531, 8350535.382937437854707 ], [ 3427440.071488584857434, 8350449.328198299743235 ], [ 3427425.635843958240002, 8350431.043048438616097 ], [ 3426998.824333221651614, 8349991.401284727267921 ], [ 3426976.449084050487727, 8349972.634946713224053 ], [ 3426846.717133067082614, 8349892.341764805838466 ], [ 3426755.972417983226478, 8349808.424027579836547 ], [ 3426660.546398573555052, 8349661.730803677812219 ], [ 3426649.719665103591979, 8349647.295159051194787 ], [ 3426369.101432968396693, 8349386.479968037456274 ], [ 3426362.405017370358109, 8349373.852512128651142 ], [ 3426307.19872279651463, 8349315.756911352276802 ], [ 3426526.319969857111573, 8348827.819494449533522 ], [ 3426682.35371695458889, 8348393.834887962788343 ], [ 3426812.956366444937885, 8347918.619282244704664 ], [ 3426878.257691189646721, 8347681.011479387059808 ], [ 3426940.006692554336041, 8346365.45068487804383 ], [ 3426931.074213963933289, 8346314.752833420410752 ], [ 3427009.475200485438108, 8346105.403856224380434 ], [ 3427059.518768524285406, 8345903.304831450805068 ], [ 3427145.614264452364296, 8345076.802082605659962 ], [ 3427001.678848226554692, 8344258.387869493104517 ], [ 3426743.516919183079153, 8343726.636864187195897 ], [ 3426789.635973611846566, 8343564.955121650360525 ], [ 3426855.374942777212709, 8343435.985710546374321 ], [ 3426965.085841939784586, 8343205.015396519564092 ], [ 3427246.791175762191415, 8342143.014468176290393 ], [ 3427260.264444080647081, 8341964.012474805116653 ], [ 3427222.596395334228873, 8341214.769285581074655 ], [ 3427199.491875099018216, 8341084.543807891197503 ], [ 3427328.378797695972025, 8340875.45905939117074 ], [ 3427449.638212560676038, 8340607.918445643037558 ], [ 3427581.966026625130326, 8339945.43876173440367 ], [ 3427691.969760621432215, 8339759.398054528981447 ], [ 3428153.910388675518334, 8338900.958387395367026 ], [ 3428382.625327305868268, 8338351.248853186145425 ], [ 3428632.843167501501739, 8337527.454733155667782 ], [ 3428656.406287843827158, 8337445.729021176695824 ], [ 3428815.590529974084347, 8336862.692760843783617 ], [ 3428905.084989820607007, 8336317.519588931463659 ], [ 3428942.86912673804909, 8336268.603632684797049 ], [ 3429500.153598625678569, 8335072.212409922853112 ], [ 3429519.378474667668343, 8334983.809932175092399 ], [ 3429575.20984551962465, 8334621.915256804786623 ], [ 3429586.920655933674425, 8334494.984742418862879 ], [ 3429575.356709093786776, 8334493.917834357358515 ], [ 3429609.030694867949933, 8334034.246369851753116 ], [ 3429606.436950727365911, 8333970.605938402935863 ], [ 3429516.252245162148029, 8333399.107087591663003 ], [ 3429458.783617263194174, 8332848.797209605574608 ], [ 3429330.939682381693274, 8332513.073582215234637 ], [ 3429432.063680988736451, 8332277.417214906774461 ], [ 3429442.50544921355322, 8332238.792236316017807 ], [ 3429474.825123611837626, 8332107.575931350700557 ], [ 3429483.975585747510195, 8332066.458528998307884 ], [ 3429536.317913342267275, 8331075.050393292680383 ], [ 3429529.640916577074677, 8331016.465862285345793 ], [ 3429545.72061355272308, 8330986.975474837236106 ], [ 3429567.773004665970802, 8330944.456968975253403 ], [ 3429631.105947755277157, 8330735.093234494328499 ], [ 3429695.035477967467159, 8330593.626283078454435 ], [ 3429741.575356587767601, 8330525.155715075321496 ], [ 3429890.697581101208925, 8330093.666190395131707 ], [ 3429988.367687076795846, 8329852.587598407641053 ], [ 3429979.488175314385444, 8329848.990170499309897 ], [ 3430155.709155371412635, 8329408.855384328402579 ], [ 3430176.209288340527564, 8329262.834329371340573 ], [ 3430524.479087891988456, 8328605.153406841680408 ], [ 3430550.561428245622665, 8328461.835794581100345 ], [ 3430656.801780539099127, 8328349.974282898940146 ], [ 3430959.273487865924835, 8327940.573421991430223 ], [ 3431260.744754735380411, 8327674.513964747078717 ], [ 3431319.855404308997095, 8327597.389329337514937 ], [ 3431545.055940668098629, 8327258.129243683069944 ], [ 3431572.6854382683523, 8327209.659500318579376 ], [ 3431806.047652863897383, 8326545.679520728997886 ], [ 3432244.030086824670434, 8326222.341454386711121 ], [ 3432291.841808095574379, 8326172.890781207941473 ], [ 3432569.180912486743182, 8325802.73537639901042 ], [ 3432671.278831548523158, 8325706.816444485448301 ], [ 3432749.322656068019569, 8325559.442821991629899 ], [ 3433305.329006035812199, 8324916.661653770133853 ], [ 3433665.23530441429466, 8324096.114756396971643 ], [ 3433766.76514358446002, 8323205.878020375967026 ], [ 3433764.928371982648969, 8323155.353166813030839 ], [ 3433665.727819212712348, 8322491.783030259422958 ], [ 3433653.137584805488586, 8322444.541613089852035 ], [ 3433244.408229683991522, 8321543.944472041912377 ], [ 3433101.523628083523363, 8321331.295257953926921 ], [ 3433064.214245942421257, 8321274.809141080826521 ], [ 3432796.163408254738897, 8320927.24197446834296 ], [ 3432714.543957634363323, 8320836.068694176152349 ], [ 3431764.541655550245196, 8320126.272804226726294 ], [ 3431026.221773587167263, 8319887.309585662558675 ], [ 3430990.646724646911025, 8319880.714050305075943 ], [ 3430269.948887648526579, 8319639.230411754921079 ], [ 3429725.888366050086915, 8319511.81547464709729 ], [ 3429248.049924155697227, 8319444.584634265862405 ], [ 3427322.738755296450108, 8319181.044132850132883 ], [ 3426869.750950128305703, 8319026.969482499174774 ], [ 3426314.239597420673817, 8318895.396862935274839 ], [ 3423672.02465381519869, 8318530.396123193204403 ], [ 3423469.324256631545722, 8318509.381931932643056 ], [ 3422029.824536410626024, 8318409.419525982812047 ], [ 3421125.763694029301405, 8318484.120649544522166 ], [ 3420988.385697037447244, 8318516.897971169091761 ], [ 3420507.970596649684012, 8318459.968362739309669 ], [ 3419947.155346889980137, 8318381.945271759293973 ], [ 3419667.742713431362063, 8318394.575433555059135 ], [ 3419650.011396238580346, 8318382.78002692386508 ], [ 3418642.523233492393047, 8317952.767922042869031 ], [ 3417547.822228921111673, 8317913.112922253087163 ], [ 3416885.719190291594714, 8318011.413759468123317 ], [ 3415097.815308434888721, 8318072.082760253921151 ], [ 3413655.958583987783641, 8318006.964426641352475 ], [ 3413452.43710176134482, 8318004.684223321266472 ], [ 3411052.096292268484831, 8318059.242816150188446 ], [ 3409414.196546392515302, 8317752.858141713775694 ], [ 3408851.294468743726611, 8317478.264718692749739 ], [ 3408162.301667700055987, 8317240.661464530043304 ], [ 3407868.898224190808833, 8317214.61359871737659 ], [ 3407800.066560232080519, 8317134.622286469675601 ], [ 3407038.105145804118365, 8316500.294320958666503 ], [ 3406111.002113569993526, 8316148.958110854960978 ], [ 3405120.013304435182363, 8316118.985705605708063 ], [ 3404661.230693879537284, 8316181.658306236378849 ], [ 3403571.814674504101276, 8316553.362235804088414 ], [ 3403192.568298258818686, 8316882.57861465960741 ], [ 3403161.566872638650239, 8316850.705104103311896 ], [ 3403116.248707956168801, 8316814.060334868729115 ], [ 3403053.837506021838635, 8316764.945853481069207 ], [ 3402934.655641170218587, 8316673.684110810980201 ], [ 3402838.638630761299282, 8316595.949766304343939 ], [ 3402627.486404165159911, 8316445.518967765383422 ], [ 3402480.546505690552294, 8316307.554186773486435 ], [ 3401778.54847598541528, 8315816.275132899172604 ], [ 3401525.007203860674053, 8315688.339462585747242 ], [ 3401515.513364252634346, 8315707.154232271946967 ], [ 3401039.89881811151281, 8315469.170310657471418 ], [ 3400959.425958251114935, 8315442.878976824693382 ], [ 3400696.453413183335215, 8315370.019144243560731 ], [ 3400606.796695340424776, 8315349.519014989957213 ], [ 3400016.900886857416481, 8315275.078860522247851 ], [ 3399845.982846693601459, 8315270.587823238223791 ], [ 3399661.905238516628742, 8315265.746669978834689 ], [ 3399614.786254765000194, 8315258.323130313307047 ], [ 3399316.754069782327861, 8315226.525573574006557 ], [ 3399074.979267837945372, 8315212.895647704601288 ], [ 3399028.807402790989727, 8315210.649446610361338 ], [ 3398955.102767972741276, 8315207.632810531184077 ], [ 3397794.851275830063969, 8315390.260433544404805 ], [ 3397724.71999666467309, 8315416.111063059419394 ], [ 3397116.77843750314787, 8315722.528497573919594 ], [ 3397103.39822500012815, 8315731.305772728286684 ], [ 3397018.862203736323863, 8315786.772697558626533 ], [ 3396529.610818570479751, 8316197.848968209698796 ], [ 3396526.111389292404056, 8316194.255639326758683 ], [ 3396500.734393939841539, 8316218.96949197165668 ], [ 3396360.198166908230633, 8316316.548160375095904 ], [ 3395875.837225222960114, 8316871.265851514413953 ], [ 3395821.646897136233747, 8316951.37603067047894 ], [ 3395701.133201360236853, 8317205.462074629031122 ], [ 3395690.126921745482832, 8317216.068504255264997 ], [ 3395694.131537820678204, 8317220.224089671857655 ], [ 3395688.693688815459609, 8317231.689023450016975 ], [ 3395411.538853251840919, 8317466.424464665353298 ], [ 3395383.156415410805494, 8317430.909002016298473 ], [ 3395325.726690132636577, 8317375.828732220456004 ], [ 3394823.826035894453526, 8316987.464145609177649 ], [ 3394761.720892006997019, 8316949.165871251374483 ], [ 3394152.820941460784525, 8316662.379109616391361 ], [ 3394060.848778206389397, 8316631.106370299123228 ], [ 3393552.591912789735943, 8316506.495354405604303 ], [ 3393476.950318831019104, 8316494.823168711736798 ], [ 3393185.574259734712541, 8316464.335419394075871 ], [ 3393135.146530429832637, 8316461.538502161391079 ], [ 3392905.73826260631904, 8316486.579789218492806 ], [ 3392667.318859821651131, 8316240.58904742822051 ], [ 3392620.595125332009047, 8316138.29469514451921 ], [ 3392597.184636427089572, 8316105.223367117345333 ], [ 3391822.122012859210372, 8315348.699100537225604 ], [ 3391794.114028987009078, 8315329.873610384762287 ], [ 3391675.391902623698115, 8315272.528038065880537 ], [ 3391202.73322884272784, 8314878.882220963947475 ], [ 3391181.148379588499665, 8314866.486616113223135 ], [ 3390705.652507963124663, 8314646.202616188675165 ], [ 3390689.121563587803394, 8314640.236000311560929 ], [ 3389752.247879656031728, 8314463.165949271060526 ], [ 3389735.260525370016694, 8314462.703591782599688 ], [ 3389353.362085967790335, 8314494.066128633916378 ], [ 3388936.472829018719494, 8314441.843757488764822 ], [ 3388911.225568520370871, 8314441.843757488764822 ], [ 3387775.349701118189842, 8314665.193614987656474 ], [ 3387738.213519006036222, 8314680.385335551574826 ], [ 3387716.800716118421406, 8314692.303960837423801 ], [ 3387561.898669046349823, 8314635.966374424286187 ], [ 3387234.191804736386985, 8314478.48660177923739 ], [ 3387008.481903069652617, 8314074.346788931638002 ], [ 3386990.258902432862669, 8314049.62708823569119 ], [ 3386874.865906310267746, 8313932.544606601819396 ], [ 3386826.412392737343907, 8313847.600644305348396 ], [ 3386797.068574976641685, 8313808.508103804662824 ], [ 3386234.331888478714973, 8313237.314606734551489 ], [ 3385960.271593954414129, 8313078.655127458274364 ], [ 3385872.680878130253404, 8312940.778105047531426 ], [ 3385775.244316191412508, 8312843.344163633882999 ], [ 3385770.526200205087662, 8312837.920639946125448 ], [ 3385339.200217418372631, 8312260.420894561335444 ], [ 3385262.45656049484387, 8312181.237423100508749 ], [ 3385078.735310336109251, 8312047.3605627855286 ], [ 3384621.35279339319095, 8311550.544175109826028 ], [ 3384577.270275055896491, 8311513.925791931338608 ], [ 3384447.600000470411032, 8311430.20861803367734 ], [ 3384177.505848691333085, 8311129.595050339587033 ], [ 3383443.948182732332498, 8310678.978080589324236 ], [ 3383394.466669094283134, 8310657.655235306359828 ], [ 3383378.837166565936059, 8310653.608277906663716 ], [ 3383279.264908978249878, 8310558.624352399259806 ], [ 3382954.652209050953388, 8310416.817130000330508 ], [ 3382902.71195956133306, 8310378.350532910786569 ], [ 3382853.408557110000402, 8310344.179523933678865 ], [ 3382649.788431989960372, 8310214.854445472359657 ], [ 3382586.859523870050907, 8310178.351269067265093 ], [ 3381901.337962484918535, 8309887.542086845263839 ], [ 3381357.716637703124434, 8309804.076471207663417 ], [ 3381132.55220856750384, 8309736.336788795888424 ], [ 3381075.445309815462679, 8309725.489416899159551 ], [ 3380740.564220695290715, 8309726.296780720353127 ], [ 3380354.778769687749445, 8309735.122115976177156 ], [ 3379956.897327006794512, 8309210.397975036874413 ], [ 3379892.748931196983904, 8309157.617649370804429 ], [ 3379048.987252805382013, 8308689.033129381015897 ], [ 3378712.390804254915565, 8308372.091658188030124 ], [ 3378518.20218652067706, 8308171.994992571882904 ], [ 3378194.674539472907782, 8307986.207833204418421 ], [ 3378198.605951515957713, 8307980.170307566411793 ], [ 3378128.773520634509623, 8307934.698026992380619 ], [ 3378044.965079746209085, 8307900.23652439378202 ], [ 3377794.442731054965407, 8307756.372975339181721 ], [ 3377679.138019599020481, 8307710.088689754717052 ], [ 3377665.45218868739903, 8307744.183215885423124 ], [ 3377096.712768364232033, 8307510.321151350624859 ], [ 3377069.104598015546799, 8307504.637116278521717 ], [ 3376817.522867769002914, 8307490.535172500647604 ], [ 3376031.051407338585705, 8307419.44908488355577 ], [ 3375749.212218710687011, 8307491.801739925518632 ], [ 3375201.551525725517422, 8307446.30062940903008 ], [ 3375090.500148482155055, 8307392.44629055634141 ], [ 3374767.130621051881462, 8307248.726500587537885 ], [ 3374435.766407100018114, 8307124.303474373184144 ], [ 3374112.39687966927886, 8307024.212906359694898 ], [ 3373741.3487659082748, 8306934.780265912413597 ], [ 3373417.979238477069885, 8306878.318919852375984 ], [ 3373395.173129939474165, 8306874.427460878156126 ], [ 3373179.593444985803217, 8306838.497513386420906 ], [ 3373110.660551841370761, 8306827.830803907476366 ], [ 3373002.870709364768118, 8306812.432254980318248 ], [ 3371964.365651317406446, 8306845.835945554077625 ], [ 3370999.542796741239727, 8307231.48529589921236 ], [ 3370837.858033025637269, 8307331.575863914564252 ], [ 3370295.601533323060721, 8307761.050960414111614 ], [ 3370080.021848369389772, 8307976.630645368248224 ], [ 3369943.612107815220952, 8308122.437165315262973 ], [ 3369745.997396607417613, 8308348.282549551688135 ], [ 3369616.24139835499227, 8308507.230875720269978 ], [ 3369436.591660893522203, 8308743.341959242708981 ], [ 3369095.400241259485483, 8309313.184115255251527 ], [ 3368959.379725753329694, 8309610.889394477009773 ], [ 3368782.578429966699332, 8310110.489616469480097 ], [ 3368690.187136414926499, 8310469.789091390557587 ], [ 3368680.820519460830837, 8310507.210718544200063 ], [ 3368623.234609926119447, 8310743.724275562912226 ], [ 3368521.436415540985763, 8310828.008398728445172 ], [ 3368272.493207915686071, 8311055.136995376087725 ], [ 3368207.696939094457775, 8311121.04324825014919 ], [ 3367717.704715637024492, 8311290.514242828823626 ], [ 3366832.974058522377163, 8311562.739060402847826 ], [ 3366409.127483177930117, 8311729.318410865962505 ], [ 3365782.91982688382268, 8312032.15653972979635 ], [ 3364967.703605184797198, 8312611.593871870078146 ], [ 3364649.466927395667881, 8312929.830549658276141 ], [ 3363996.752975527662784, 8313908.90147745795548 ], [ 3363709.313395589124411, 8314606.969028737396002 ], [ 3363564.929046957287937, 8315054.356862581335008 ], [ 3363361.998705361038446, 8315906.664297284558415 ], [ 3363334.530752071645111, 8315973.862683010287583 ], [ 3362840.188511529471725, 8316733.241374062374234 ], [ 3362665.671623709611595, 8317164.400743969716132 ], [ 3362451.492238351609558, 8318117.189411879517138 ], [ 3362420.695140501018614, 8318651.005774621851742 ], [ 3362415.714965527877212, 8318823.795379912480712 ], [ 3362415.714965527877212, 8319306.283246237784624 ], [ 3362423.338866035919636, 8319520.024396201595664 ], [ 3362446.512063378468156, 8319844.449158996343613 ], [ 3362446.512063378468156, 8320248.065553606487811 ], [ 3362418.466278074774891, 8320902.467210691422224 ], [ 3362454.916323200799525, 8321514.31642257515341 ], [ 3362578.104714603163302, 8322268.845319913700223 ], [ 3362707.901954665780067, 8322778.138426597230136 ], [ 3362910.967578212730587, 8323357.251501157879829 ], [ 3362921.894837665837258, 8323414.619613285176456 ], [ 3362921.813593626488, 8323415.946599260903895 ], [ 3362866.074062849394977, 8323796.286926915869117 ], [ 3362762.736164144705981, 8324290.832585002295673 ], [ 3362676.963661805260926, 8324592.419770647771657 ], [ 3362563.014630872756243, 8324873.940905893221498 ], [ 3362345.296252395957708, 8326092.49774709623307 ], [ 3362365.827650963328779, 8326754.63535088300705 ], [ 3362448.139843390788883, 8327365.57838218845427 ], [ 3362631.726638504303992, 8328126.152247657999396 ], [ 3362673.233435158617795, 8328408.398464907892048 ], [ 3362624.60882657719776, 8328528.52985081449151 ], [ 3362433.319109700620174, 8329246.134678113274276 ], [ 3362424.170922051649541, 8329988.741407552734017 ], [ 3362459.109321247320622, 8330300.010782203637064 ], [ 3362285.782240524888039, 8330305.788351560942829 ], [ 3362207.486641672439873, 8330307.308654451742768 ], [ 3361750.965618875809014, 8329295.652091631665826 ], [ 3361599.971064685378224, 8329095.125506730750203 ], [ 3361542.600333231966943, 8329026.913192126899958 ], [ 3361435.43091959413141, 8328702.833601378835738 ], [ 3360688.999344096053392, 8327826.447081172838807 ], [ 3360462.877288770861924, 8327646.472384077496827 ], [ 3359803.042063773609698, 8327247.881948991678655 ], [ 3359299.540723961777985, 8327026.300572006031871 ], [ 3358130.350862963590771, 8326772.419944611378014 ], [ 3357345.024867774918675, 8326762.15424532815814 ], [ 3356648.697504634503275, 8326834.749210215173662 ], [ 3356145.678239741828293, 8326947.671902333386242 ], [ 3356039.313368820119649, 8326973.597046826966107 ], [ 3355356.64436646644026, 8327153.246784288436174 ], [ 3355295.960880608763546, 8327169.898553155362606 ], [ 3354504.769070696551353, 8327395.953355988487601 ], [ 3354021.457919135224074, 8327508.604827404953539 ], [ 3353647.853188539389521, 8327561.97693177498877 ], [ 3353105.526434584055096, 8327691.807423107326031 ], [ 3352578.116064278874546, 8327871.309815546497703 ], [ 3352159.858642318286002, 8328050.088368512690067 ], [ 3351525.077952485065907, 8328380.413746949285269 ], [ 3351385.894790747668594, 8328428.879312197677791 ], [ 3350333.14373643649742, 8329061.73738157376647 ], [ 3350080.871511447709054, 8329295.550663270056248 ], [ 3349849.187462629750371, 8329629.477560703642666 ], [ 3349378.730861062183976, 8330277.426154975779355 ], [ 3349218.753352533094585, 8330637.375549167394638 ], [ 3348988.853716838173568, 8331442.060857481323183 ], [ 3348932.029722100123763, 8331850.160456047393382 ], [ 3348854.310082242824137, 8332252.473885897547007 ], [ 3348732.135735445655882, 8332767.730913695879281 ], [ 3348645.47165411291644, 8333111.838295459747314 ], [ 3348614.88223204575479, 8333217.51084441691637 ], [ 3348569.600264623295516, 8333347.319151028990746 ], [ 3348475.481295185629278, 8333585.093389608897269 ], [ 3348393.266852505505085, 8333821.07023879699409 ], [ 3348313.278098240494728, 8334085.648425981402397 ], [ 3348234.552814369555563, 8334410.329641378484666 ], [ 3348227.127667, 8334450.637584241107106 ], [ 3348215.465232571586967, 8334486.653925859369338 ], [ 3348127.536026433575898, 8334704.848622570745647 ], [ 3348076.872841976583004, 8334809.042718906886876 ], [ 3348000.020498676225543, 8334933.188811930827796 ], [ 3347795.290902357548475, 8335261.358311912976205 ], [ 3347538.591007912531495, 8335670.855762575753033 ], [ 3347360.95188819989562, 8335997.644714182242751 ], [ 3347151.750530892051756, 8336446.812334284186363 ], [ 3347021.614459897391498, 8336775.573915801011026 ], [ 3346861.636951368302107, 8337261.659422485157847 ], [ 3346765.815746024250984, 8337630.059310773387551 ], [ 3346676.597520113456994, 8338091.532893070019782 ], [ 3346624.729640874546021, 8338534.340482871979475 ], [ 3346606.270697582513094, 8338971.202140780165792 ], [ 3346603.654104596935213, 8339116.482879784889519 ], [ 3346606.730595145374537, 8339611.797858116216958 ], [ 3346609.631309283431619, 8339726.366518029943109 ], [ 3346634.243233673274517, 8340280.134816785342991 ], [ 3346667.850277296733111, 8340613.898392707109451 ], [ 3346747.839031561277807, 8341121.519333233125508 ], [ 3346832.566462385933846, 8341498.974620297551155 ], [ 3346966.988982332870364, 8341957.233211025595665 ], [ 3347112.943816978018731, 8342458.952955120243132 ], [ 3347265.125303958076984, 8342985.735025436617434 ], [ 3346732.518042847048491, 8342963.995953554287553 ], [ 3346720.04481366975233, 8342963.512832923792303 ], [ 3346132.435118878725916, 8342941.977399083785713 ], [ 3346119.285121548455209, 8342941.524335997179151 ], [ 3345823.96861401386559, 8342931.997997044585645 ], [ 3345804.006829408463091, 8342921.625697200186551 ], [ 3345719.970620216801763, 8342864.127238279208541 ], [ 3345294.575269434135407, 8342621.499602043069899 ], [ 3344925.396403596736491, 8342449.21613131929189 ], [ 3344687.484601395204663, 8342350.396994944661856 ], [ 3344203.098837030585855, 8342173.182690909132361 ], [ 3343761.815096386708319, 8342004.539223146624863 ], [ 3343321.88498826045543, 8341828.567179895937443 ], [ 3343310.237077167723328, 8341823.936219295486808 ], [ 3342928.752249135635793, 8341673.188182412646711 ], [ 3342910.811694639734924, 8341666.165288819000125 ], [ 3342609.315620872657746, 8341549.258647969923913 ], [ 3342524.467769316397607, 8341517.822024015709758 ], [ 3342167.594865673687309, 8341391.685911521315575 ], [ 3342103.77048615179956, 8341369.931040914729238 ], [ 3341883.332293667364866, 8341297.548350845463574 ], [ 3340640.698540195357054, 8340809.921289674006402 ], [ 3340351.508428622968495, 8340766.8504219930619 ], [ 3339280.987253174185753, 8340800.713713404722512 ], [ 3338971.130329842213541, 8340867.111625546589494 ], [ 3338681.970419941470027, 8340921.952298114076257 ], [ 3338471.122066262178123, 8340957.093690394423902 ], [ 3338336.699284194037318, 8340967.934237334877253 ], [ 3338156.511571208015084, 8340967.934237334877253 ], [ 3338021.400048039387912, 8340959.564496961422265 ], [ 3337925.699831491801888, 8340945.893037455156446 ], [ 3337670.303462185896933, 8340894.015649939887226 ], [ 3337311.38059922773391, 8340807.692429733462632 ], [ 3337038.572866169735789, 8340727.002818548120558 ], [ 3336738.984842158854008, 8340617.629412957467139 ], [ 3336315.626131064724177, 8340497.433732730336487 ], [ 3335808.005190538708121, 8340392.833054075948894 ], [ 3335524.208297959994525, 8340348.395199335180223 ], [ 3334896.604226036462933, 8340280.712407264858484 ], [ 3334847.836615069303662, 8340276.259345958940685 ], [ 3334850.686115478631109, 8340212.891952464357018 ], [ 3334859.915587124414742, 8339926.778331440873444 ], [ 3334861.475244105327874, 8339830.054449409246445 ], [ 3334861.475244105327874, 8339577.782224420458078 ], [ 3334847.361361123155802, 8339287.120744002051651 ], [ 3334813.519965087994933, 8338939.477312005124986 ], [ 3334793.223496085032821, 8338777.062596198171377 ], [ 3334745.513252883218229, 8338464.777367969974875 ], [ 3334726.109659965150058, 8338159.61177025269717 ], [ 3334726.109659965150058, 8337633.440197678282857 ], [ 3334720.704612356610596, 8337453.437222395092249 ], [ 3334686.863216320984066, 8336890.439451992511749 ], [ 3334665.634331308305264, 8336671.57624750956893 ], [ 3334597.951539238914847, 8336167.031797531992197 ], [ 3334523.636165635660291, 8335794.208224275149405 ], [ 3334409.806015335489064, 8335366.576038014143705 ], [ 3334240.212466438766569, 8334893.250251267105341 ], [ 3334080.234957909211516, 8334542.530328721739352 ], [ 3333994.812390628270805, 8334370.125270198099315 ], [ 3333834.834882099181414, 8334071.7056869789958 ], [ 3333706.131153399124742, 8333854.161233480088413 ], [ 3333546.153644869104028, 8333608.041989589110017 ], [ 3332956.6211096518673, 8332942.724264194257557 ], [ 3332198.004277247935534, 8332479.370417336001992 ], [ 3331336.909392470028251, 8332258.662725549191236 ], [ 3331096.943129675928503, 8332234.050801159814 ], [ 3330122.344215127639472, 8332293.828263487666845 ], [ 3329449.241722891107202, 8332569.086891233921051 ], [ 3329326.643211874645203, 8332583.510245470330119 ], [ 3328856.968996264506131, 8332694.458683958277106 ], [ 3328645.380548857152462, 8332507.322948053479195 ], [ 3327916.632660555187613, 8332031.362876940518618 ], [ 3327081.924944596830755, 8331784.635288459248841 ], [ 3326211.522305764723569, 8331787.909477273933589 ], [ 3324991.504883936606348, 8331971.477933804504573 ], [ 3324769.606655172072351, 8332048.665793770924211 ], [ 3323917.621386499144137, 8332351.805934677831829 ], [ 3323062.970697904005647, 8333105.096950687468052 ], [ 3322333.733585933223367, 8334049.929183971136808 ], [ 3321946.697841120883822, 8334711.719105331227183 ], [ 3321740.035775318741798, 8335449.996396283619106 ], [ 3321710.329857032746077, 8335653.694121673703194 ], [ 3321677.265606728382409, 8335811.500770852901042 ], [ 3321629.979205464478582, 8335991.189095658250153 ], [ 3321576.390826068818569, 8336150.544013333506882 ], [ 3321472.101681079249829, 8336404.465409828349948 ], [ 3321411.254491629078984, 8336565.634467650204897 ], [ 3321260.506454745773226, 8337002.496125557459891 ], [ 3321224.778817432001233, 8337112.915125846862793 ], [ 3321064.801308902446181, 8337642.071500215679407 ], [ 3321000.194184161256999, 8337895.027518841437995 ], [ 3320864.828600021079183, 8338541.090534055605531 ], [ 3320832.186796439345926, 8338725.336101642809808 ], [ 3320788.787651677615941, 8339024.307987779378891 ], [ 3320714.136810386553407, 8339117.206812497228384 ], [ 3320685.617412733845413, 8339142.801143723540008 ], [ 3320466.388408660888672, 8339291.998660383746028 ], [ 3320458.605734826996922, 8339296.782505768351257 ], [ 3320364.753137079067528, 8339307.933309460990131 ], [ 3320125.756222390104085, 8339326.31768751423806 ], [ 3319826.627851478755474, 8339345.527766379527748 ], [ 3319532.216908498201519, 8339361.023079168982804 ], [ 3319263.424830346833915, 8339368.159152039326727 ], [ 3319153.738057643175125, 8339368.159152039326727 ], [ 3318811.741047383286059, 8339260.286635340191424 ], [ 3318534.856898005586118, 8339204.909805464558303 ], [ 3318063.936402638442814, 8339158.279487072490156 ], [ 3317867.101552912034094, 8338349.971588229760528 ], [ 3317774.806836444884539, 8338165.382155293598771 ], [ 3317694.818082179874182, 8338005.40464676450938 ], [ 3317627.135290113277733, 8337870.039062631316483 ], [ 3316968.358881599735469, 8336997.774060944095254 ], [ 3316040.810834385920316, 8336419.425368811003864 ], [ 3315868.527363662142307, 8336351.742576740682125 ], [ 3314771.57024638960138, 8336143.997057060711086 ], [ 3314494.686097010970116, 8336143.997057060711086 ], [ 3313793.170880563091487, 8336227.170630772598088 ], [ 3313550.128127220552415, 8336285.623951196670532 ], [ 3312788.179270676802844, 8336583.619931071065366 ], [ 3312578.97791336895898, 8336700.526571919210255 ], [ 3312001.088688262738287, 8337120.976543450728059 ], [ 3311828.805217538494617, 8337280.95405197981745 ], [ 3311374.007632620166987, 8337815.233938190154731 ], [ 3311238.642048479989171, 8338018.282314401119947 ], [ 3311004.733290837612003, 8338438.689066774211824 ], [ 3310878.59717834321782, 8338715.573216152377427 ], [ 3310762.606924851424992, 8339010.583754396997392 ], [ 3310645.700284002814442, 8339361.303676941432059 ], [ 3310607.94056494673714, 8339483.160442536696792 ], [ 3310481.804452452342957, 8339923.098590992391109 ], [ 3310459.205952225252986, 8340006.425373506732285 ], [ 3310366.622196547687054, 8340368.343691156245768 ], [ 3310364.921193379443139, 8340370.641855011694133 ], [ 3309970.187180443666875, 8340855.315263301134109 ], [ 3309721.546252966392785, 8341131.151292220689356 ], [ 3309611.771580376662314, 8341231.9647670481354 ], [ 3309494.680764442775398, 8341323.550652778707445 ], [ 3309437.801166176330298, 8341360.741159337572753 ], [ 3309326.400455206632614, 8341415.165934162214398 ], [ 3308968.741977248806506, 8341550.98560933675617 ], [ 3308785.652823945973068, 8341627.534009851515293 ], [ 3308314.949770003091544, 8341842.888348256237805 ], [ 3308136.520644439850003, 8341931.80684413947165 ], [ 3307745.384374490473419, 8342143.231854923069477 ], [ 3307629.287422262132168, 8342198.872790552675724 ], [ 3307576.112199109978974, 8342217.368520345538855 ], [ 3307284.142242298927158, 8342363.944983795285225 ], [ 3307115.362529343459755, 8342282.332638111896813 ], [ 3306938.821099887602031, 8342227.262591995298862 ], [ 3306290.537174155004323, 8342101.18716942332685 ], [ 3306072.819899383932352, 8342083.341793651692569 ], [ 3305248.126065619289875, 8342129.840100188739598 ], [ 3304467.372576324269176, 8342399.480603292584419 ], [ 3304292.012615051586181, 8342488.698829202912748 ], [ 3303667.590108377858996, 8342912.95699845906347 ], [ 3303435.671413120813668, 8343176.479809878394008 ], [ 3303431.97802859544754, 8343177.681507306173444 ], [ 3303164.323350863065571, 8343269.976223765872419 ], [ 3303084.106430881656706, 8343299.622771873138845 ], [ 3303018.464458795264363, 8343307.594946418888867 ], [ 3302800.033629841636866, 8343341.436342453584075 ], [ 3302625.344235773198307, 8343373.824557987041771 ], [ 3302578.756941071245819, 8343383.897486571222544 ], [ 3302455.433152004610747, 8343314.981251505203545 ], [ 3301967.208384536206722, 8343096.751900001429021 ], [ 3301770.312989423051476, 8343029.069107932038605 ], [ 3301093.58484097244218, 8342881.017335220240057 ], [ 3300908.995408053509891, 8342862.558391927741468 ], [ 3300610.484250980895013, 8342847.669962557032704 ], [ 3300333.60010160272941, 8342847.669962557032704 ], [ 3300183.78725076559931, 8342851.412945923395455 ], [ 3300164.556287871208042, 8342852.374494068324566 ], [ 3299539.698280402459204, 8342643.730979668907821 ], [ 3298617.191763845272362, 8342631.266951092518866 ], [ 3297734.520723063498735, 8342899.717056073248386 ], [ 3297007.30552462534979, 8343401.513950811699033 ], [ 3296950.217139833141118, 8343386.604058677330613 ], [ 3296639.491594420280308, 8343374.298096482641995 ], [ 3295407.783267837483436, 8343586.045361849479377 ], [ 3295086.48094468889758, 8343714.408102127723396 ], [ 3294804.457257828209549, 8343844.385783367790282 ], [ 3294638.481887489091605, 8343931.563630290329456 ], [ 3294587.612513008993119, 8343936.052104509435594 ], [ 3293742.91522511234507, 8344136.701240611262619 ], [ 3293569.227761786896735, 8344205.757701933383942 ], [ 3293223.820529364049435, 8344175.273547671735287 ], [ 3293025.8377830744721, 8344164.378558192402124 ], [ 3292676.770573973190039, 8344156.725262735038996 ], [ 3292578.943741884548217, 8344156.175858796574175 ], [ 3292339.285452232230455, 8344158.737765523605049 ], [ 3292276.675481351092458, 8344162.136871228925884 ], [ 3292167.668890685774386, 8344144.734123276546597 ], [ 3291249.557752290740609, 8344285.909075011499226 ], [ 3290418.643239085562527, 8344701.16742975730449 ], [ 3289754.587750166188926, 8345350.697057317011058 ], [ 3289381.299137881956995, 8346058.067355461418629 ], [ 3289349.48519179597497, 8346074.293066484853625 ], [ 3289126.35315327020362, 8346203.2137998547405 ], [ 3288475.676747431978583, 8346710.113402183167636 ], [ 3287987.636984019074589, 8347375.05263345502317 ], [ 3287699.125710165128112, 8348147.767481775023043 ], [ 3287631.952037767972797, 8348969.846972878091037 ], [ 3287977.358662261161953, 8355090.209968286566436 ], [ 3287760.225732033606619, 8355819.319491892121732 ], [ 3286551.005050953477621, 8359736.209891421720386 ], [ 3285412.580976331606507, 8362146.901822225190699 ], [ 3285184.237980168778449, 8362836.264460776001215 ], [ 3285129.021639472339302, 8363110.72215424105525 ], [ 3285104.977331991773099, 8363246.245315707288682 ], [ 3285062.753071458544582, 8363520.703009172342718 ], [ 3285028.978755613323301, 8364058.497559957206249 ], [ 3285116.675296720582992, 8367280.533440638333559 ], [ 3285117.148291856981814, 8367296.37330883461982 ], [ 3285212.512228571344167, 8370230.216773644089699 ], [ 3285080.728973433375359, 8370822.528131785802543 ], [ 3285055.983280348125845, 8371156.58353678137064 ], [ 3285018.778855658136308, 8371495.599528222344816 ], [ 3285005.495561043266207, 8371656.428466283716261 ], [ 3285001.536848282907158, 8371727.675249855034053 ], [ 3284995.71402732282877, 8371746.91570645570755 ], [ 3284928.28864071238786, 8372013.092790040187538 ], [ 3284853.061386028304696, 8372379.844035276211798 ], [ 3284852.810979860369116, 8372381.040510512888432 ], [ 3284618.914624767843634, 8372530.452552789822221 ], [ 3284543.473405899479985, 8372593.224909509532154 ], [ 3283906.730284221470356, 8373328.006181944161654 ], [ 3283538.420707155484706, 8374227.835819579660892 ], [ 3283477.231311975978315, 8375198.197184867225587 ], [ 3283487.673080216627568, 8375302.486127601005137 ], [ 3283557.018354277126491, 8375709.669468964450061 ], [ 3283593.497751406393945, 8375860.314122701063752 ], [ 3283642.520887974184006, 8376007.286916233599186 ], [ 3283653.018345869611949, 8376049.437033898197114 ], [ 3283645.2857456644997, 8376141.282339581288397 ], [ 3283895.125431601889431, 8377009.097287552431226 ], [ 3283899.002394649200141, 8377030.717768349684775 ], [ 3283972.840886288322508, 8377320.638680035248399 ], [ 3283864.384461848530918, 8377509.492806049063802 ], [ 3283670.787078864406794, 8378422.301252554170787 ], [ 3283653.254259102512151, 8378753.800039323978126 ], [ 3283761.13573931157589, 8379724.560293219983578 ], [ 3284175.142397466581315, 8380609.214107612147927 ], [ 3284320.714895527344197, 8380821.437102859839797 ], [ 3284484.865620993543416, 8381038.874618518166244 ], [ 3284736.739281302317977, 8381342.766115970909595 ], [ 3284735.717990042176098, 8381381.087399384006858 ], [ 3284693.882201534695923, 8381869.727642180398107 ], [ 3284814.483398984186351, 8382320.594103721901774 ], [ 3284811.086964832618833, 8382390.132921942509711 ], [ 3284878.523106246720999, 8382646.492632169276476 ], [ 3284872.825355303939432, 8382797.160826173610985 ], [ 3284881.730914570856839, 8382870.615206959657371 ], [ 3284947.375174829736352, 8383112.664254820905626 ], [ 3284948.849619687534869, 8383171.391253312118351 ], [ 3284952.875027441419661, 8383196.08233573846519 ], [ 3284961.223989250138402, 8383247.215711430646479 ], [ 3285093.438747491221875, 8383651.242167808115482 ], [ 3285107.382060613948852, 8383702.65512687060982 ], [ 3285113.511496326420456, 8383712.581171786412597 ], [ 3285248.220338411163539, 8384124.229136311449111 ], [ 3285788.193301188293844, 8384872.526304101571441 ], [ 3286177.610073883086443, 8385160.592331038787961 ], [ 3286190.134361611213535, 8385175.556221261620522 ], [ 3286248.588226206135005, 8385235.688764957711101 ], [ 3286294.372974859550595, 8385272.552392385900021 ], [ 3286458.392832270357758, 8385496.908559148199856 ], [ 3286539.391872431151569, 8385561.05682222917676 ], [ 3286594.148108850233257, 8385726.455207044258714 ], [ 3286720.761252015829086, 8385904.401121759787202 ], [ 3286805.442258589435369, 8386147.620221618562937 ], [ 3286825.847121241502464, 8386180.947510159574449 ], [ 3287051.239296888932586, 8386457.708191826939583 ], [ 3287173.640817082021385, 8386716.958114138804376 ], [ 3287805.699513231869787, 8387305.137269580736756 ], [ 3287992.76341901300475, 8387484.941942892037332 ], [ 3288018.878971540834755, 8387501.495308268815279 ], [ 3288529.743383079767227, 8387678.32485378999263 ], [ 3288549.799883997999132, 8387694.640398353338242 ], [ 3288614.22047329461202, 8387728.591914629563689 ], [ 3288763.492264300119132, 8387783.620541048236191 ], [ 3288767.313921436667442, 8387873.340613443404436 ], [ 3289073.677870885469019, 8388724.843145731836557 ], [ 3289208.070076424628496, 8388902.299256136640906 ], [ 3289230.836585558950901, 8388935.645368294790387 ], [ 3289225.838085481896996, 8388938.874697053804994 ], [ 3289249.114990999456495, 8388974.903736744076014 ], [ 3289255.030388289596885, 8388971.082037774845958 ], [ 3289520.031406833324581, 8389359.229102151468396 ], [ 3289857.644445224665105, 8389666.848900400102139 ], [ 3290221.754416304640472, 8390118.975324891507626 ] ] ] } }
]
}
