{
"type": "FeatureCollection",
"name": "golf_clubs",
"crs": { "type": "name", "properties": { "name": "urn:ogc:def:crs:EPSG::3857" } },
"features": [
{ "type": "Feature", "properties": { "fid": 3, "Наименование": "111", "Описание": "гольф-симулятор", "Рубрики": "Гольф-клубы", "Адрес": "6-й Верхний переулок, 12 лит А", "Комментарий к адресу": null, "Почтовый индекс": 194292, "Микрорайон": "Сергиевское", "Район": "Выборгский район", "Город": "Санкт-Петербург", "Округ": null, "Регион": "Санкт-Петербург", "Страна": "Россия", "Часы работы": "Пн: 08:00-22:00; Вт: 08:00-22:00; Ср: 08:00-22:00; Чт: 08:00-22:00; Пт: 08:00-22:00; Сб: 08:00-22:00; Вс: 08:00-22:00", "Часовой пояс": "+03:00", "Рейтинг": null, "Количество отзывов": null, "Телефон 1": "89313339088", "Телефон 2": null, "Телефон 3": null, "Веб-сайт 1": "http://golf-lounge.ru", "Веб-сайт 2": "http://t.me/golfstudio111", "Веб-сайт 3": null, "ВКонтакте": null, "WhatsApp": "https://wa.me/79313339088", "Telegram": null, "YouTube": null, "Широта": 60.076325, "Долгота": 30.35452, "2GIS URL": "https://2gis.com/firm/70000001087340227" }, "geometry": { "type": "Point", "coordinates": [ 3379049.709674238227308, 8416750.449251316487789 ] } },
{ "type": "Feature", "properties": { "fid": 4, "Наименование": "MillCreek", "Описание": "гольф-клуб", "Рубрики": "Гольф-клубы", "Адрес": "Клубная улица, 1", "Комментарий к адресу": null, "Почтовый индекс": 188643, "Микрорайон": null, "Район": null, "Город": "Всеволожск", "Округ": "Всеволожский муниципальный район", "Регион": "Ленинградская область", "Страна": "Россия", "Часы работы": "Пн: 10:00-21:00; Вт: 10:00-21:00; Ср: 10:00-21:00; Чт: 10:00-21:00; Пт: 10:00-21:00; Сб: 10:00-21:00; Вс: 10:00-21:00", "Часовой пояс": "+03:00", "Рейтинг": null, "Количество отзывов": null, "Телефон 1": "88125078311", "Телефон 2": null, "Телефон 3": null, "Веб-сайт 1": "http://millcreek.ru", "Веб-сайт 2": null, "Веб-сайт 3": null, "ВКонтакте": "https://vk.com/millcreek.russia", "WhatsApp": "https://wa.me/79523668619", "Telegram": "https://t.me/+79523668619", "YouTube": "https://youtube.com/channel/UCm24dIiBHRrB41Dd76lj7qw", "Широта": 59.99921, "Долгота": 30.73112, "2GIS URL": "https://2gis.com/firm/70000001094689629" }, "geometry": { "type": "Point", "coordinates": [ 3420972.629906985908747, 8399562.007123079150915 ] } },
{ "type": "Feature", "properties": { "fid": 7, "Наименование": "Петергоф", "Описание": "гольф-клуб", "Рубрики": "Гольф-клубы", "Адрес": "Гофмейстерская улица, 1", "Комментарий к адресу": null, "Почтовый индекс": 198510, "Микрорайон": "Петергоф г.", "Район": "Петродворцовый район", "Город": "Санкт-Петербург", "Округ": null, "Регион": "Санкт-Петербург", "Страна": "Россия", "Часы работы": "Пн: 09:00-21:00; Вт: 09:00-21:00; Ср: 09:00-21:00; Чт: 09:00-21:00; Пт: 09:00-21:00; Сб: 09:00-21:00; Вс: 09:00-21:00", "Часовой пояс": "+03:00", "Рейтинг": 4.9, "Количество отзывов": 6, "Телефон 1": "89313850459", "Телефон 2": null, "Телефон 3": null, "Веб-сайт 1": "http://peterhofgolf.ru", "Веб-сайт 2": null, "Веб-сайт 3": null, "ВКонтакте": "https://vk.com/peterhofgolfclub", "WhatsApp": "https://wa.me/79313850459", "Telegram": "https://t.me/peterhofgolfcenter", "YouTube": null, "Широта": 59.859186, "Долгота": 29.99042, "2GIS URL": "https://2gis.com/firm/70000001038073285" }, "geometry": { "type": "Point", "coordinates": [ 3338518.283076407387853, 8368453.71100110001862 ] } },
{ "type": "Feature", "properties": { "fid": 9, "Наименование": "Strawberry fields", "Описание": "гольф-клуб", "Рубрики": "Гольф-клубы", "Адрес": "Клубная улица, 1", "Комментарий к адресу": null, "Почтовый индекс": 188530, "Микрорайон": null, "Район": null, "Город": null, "Округ": "Ломоносовский муниципальный район", "Регион": "Ленинградская область", "Страна": "Россия", "Часы работы": "Пн: 10:00-20:00; Вт: 10:00-20:00; Ср: 10:00-20:00; Чт: 10:00-20:00; Пт: 10:00-20:00; Сб: 10:00-21:00; Вс: 10:00-21:00", "Часовой пояс": "+03:00", "Рейтинг": 4.9, "Количество отзывов": 11, "Телефон 1": "89219423661 (администратор)", "Телефон 2": null, "Телефон 3": null, "Веб-сайт 1": "http://sf-golfclub.ru", "Веб-сайт 2": "http://sf-golfclub.ru/katok", "Веб-сайт 3": "http://sf-golfclub.ru/arenda", "ВКонтакте": "https://vk.com/sfgolfclub", "WhatsApp": "https://wa.me/79219423661", "Telegram": null, "YouTube": null, "Широта": 59.890825, "Долгота": 29.689329, "2GIS URL": "https://2gis.com/firm/70000001024468564" }, "geometry": { "type": "Point", "coordinates": [ 3305000.986273970454931, 8375471.286593074910343 ] } }
]
}
