{
"type": "FeatureCollection",
"name": "historical_zones_2",
"crs": { "type": "name", "properties": { "name": "urn:ogc:def:crs:EPSG::3857" } },
"features": [
{ "type": "Feature", "properties": { "fid": 2, "historical_zones": 2 }, "geometry": { "type": "Polygon", "coordinates": [ [ [ 3287558.77395200682804, 8317792.417379022575915 ], [ 3287558.77395200682804, 8361826.688751571811736 ], [ 3370972.280896450858563, 8361826.688751571811736 ], [ 3370972.280896450858563, 8317792.417379022575915 ], [ 3287558.77395200682804, 8317792.417379022575915 ] ] ] } }
]
}
