{
"type": "FeatureCollection",
"name": "horse_riding_clubs",
"crs": { "type": "name", "properties": { "name": "urn:ogc:def:crs:EPSG::3857" } },
"features": [
{ "type": "Feature", "properties": { "name": "Western Horse", "description": "конный клуб", "type": "Брусничная улица, 0" }, "geometry": { "type": "Point", "coordinates": [ 3335533.584889258258045, 8354230.783033619634807 ] } },
{ "type": "Feature", "properties": { "name": "Скандинавия", "description": "конноспортивный клуб", "type": "Максима Горького, 32" }, "geometry": { "type": "Point", "coordinates": [ 3335255.954079219605774, 8422295.015076905488968 ] } },
{ "type": "Feature", "properties": { "name": "Кентавр", "description": "конноспортивный клуб", "type": "Свободы, 48а" }, "geometry": { "type": "Point", "coordinates": [ 3341073.844626548234373, 8365777.218265600502491 ] } },
{ "type": "Feature", "properties": { "name": "Вента-Арена", "description": "конноспортивный клуб", "type": "Центральная улица, 64" }, "geometry": { "type": "Point", "coordinates": [ 3409278.18344067921862, 8388351.808597137220204 ] } },
{ "type": "Feature", "properties": { "name": "Приор", "description": "конно-спортивный клуб", "type": "Шоссейная улица, 1/21/2" }, "geometry": { "type": "Point", "coordinates": [ 3385821.051660211756825, 8423786.065680675208569 ] } },
{ "type": "Feature", "properties": { "name": "Виннер", "description": "конноспортивный клуб", "type": "Институтский проезд, 3" }, "geometry": { "type": "Point", "coordinates": [ 3393113.03490462526679, 8408151.769104780629277 ] } },
{ "type": "Feature", "properties": { "name": "Дерби", "description": "конноспортивный клуб", "type": "Шоссейная улица, 19" }, "geometry": { "type": "Point", "coordinates": [ 3388073.156278450507671, 8424546.894869169220328 ] } },
{ "type": "Feature", "properties": { "name": "Заповедный", "description": "конноспортивный клуб", "type": "Заповедная улица, 49 к2 лит В" }, "geometry": { "type": "Point", "coordinates": [ 3370033.387517437338829, 8410187.96014647744596 ] } },
{ "type": "Feature", "properties": { "name": "Райдер", "description": "конный клуб", "type": "территория Пулковское, 41 лит А" }, "geometry": { "type": "Point", "coordinates": [ 3379626.010678075253963, 8346216.348683278076351 ] } },
{ "type": "Feature", "properties": { "name": "Дар", "description": "конный реабилитационный центр", "type": "Соболевская дорога, 80 лит Д" }, "geometry": { "type": "Point", "coordinates": [ 3373998.699098984245211, 8333770.100030743516982 ] } },
{ "type": "Feature", "properties": { "name": "Конно-спортивный клуб им. Юлии Русаковой", "description": null, "type": "Совхозный проспект, 15а" }, "geometry": { "type": "Point", "coordinates": [ 3394335.656872007530183, 8358564.280066963285208 ] } },
{ "type": "Feature", "properties": { "name": "ИппоФэмили", "description": null, "type": "Красная (Старо-Паново), 15" }, "geometry": { "type": "Point", "coordinates": [ 3360310.854511043522507, 8359473.178668814711273 ] } },
{ "type": "Feature", "properties": { "name": "Берегиня", "description": "конно-спортивный оздоровительный центр", "type": "Чкалова, 15а" }, "geometry": { "type": "Point", "coordinates": [ 3404359.531739978585392, 8356095.652139590121806 ] } },
{ "type": "Feature", "properties": { "name": "Виктори хорс", "description": null, "type": "Совхозный проспект, 15а" }, "geometry": { "type": "Point", "coordinates": [ 3394384.860086937900633, 8358562.508875703439116 ] } },
{ "type": "Feature", "properties": { "name": "Легенда", "description": "конный клуб", "type": "Восточная, 22" }, "geometry": { "type": "Point", "coordinates": [ 3360804.667772202752531, 8359785.839099199511111 ] } },
{ "type": "Feature", "properties": { "name": "Стиль", "description": "конноспортивный клуб", "type": "Марьино деревня, 2" }, "geometry": { "type": "Point", "coordinates": [ 3382042.200225743465126, 8319847.214128752239048 ] } },
{ "type": "Feature", "properties": { "name": "Туутари", "description": "конный клуб", "type": "Ретселя деревня, 25" }, "geometry": { "type": "Point", "coordinates": [ 3359368.868979950901121, 8330379.606150611303747 ] } },
{ "type": "Feature", "properties": { "name": "Дудергоф", "description": "конно-спортивный комплекс", "type": "Пикколово деревня, 37а" }, "geometry": { "type": "Point", "coordinates": [ 3355923.530739898793399, 8332811.629730626009405 ] } },
{ "type": "Feature", "properties": { "name": "Новополье", "description": "конноспортивный клуб", "type": "деревня Новополье, 3а" }, "geometry": { "type": "Point", "coordinates": [ 3339001.632305432576686, 8361388.76401924341917 ] } },
{ "type": "Feature", "properties": { "name": "Grand Stable", "description": "конно-спортивный комплекс", "type": "посёлок Вариксолово, 41" }, "geometry": { "type": "Point", "coordinates": [ 3355179.916541400365531, 8330689.051862668246031 ] } },
{ "type": "Feature", "properties": { "name": "Алеос", "description": null, "type": null }, "geometry": { "type": "Point", "coordinates": [ 3409621.270111304707825, 8350148.835960843600333 ] } },
{ "type": "Feature", "properties": { "name": "Реприз", "description": "частная конюшня", "type": "Андреевская улица, 12" }, "geometry": { "type": "Point", "coordinates": [ 3394923.535102886613458, 8393081.098973462358117 ] } },
{ "type": "Feature", "properties": { "name": "Исток", "description": "конноспортивный клуб", "type": "Ясная улица, 13а" }, "geometry": { "type": "Point", "coordinates": [ 3407789.173931828700006, 8390777.447732198983431 ] } },
{ "type": "Feature", "properties": { "name": "ПолиЭко", "description": "конный центр", "type": "Токкари деревня, 10Б" }, "geometry": { "type": "Point", "coordinates": [ 3410645.854704565368593, 8387687.620668201707304 ] } },
{ "type": "Feature", "properties": { "name": "Перемена", "description": "конный клуб", "type": "Баррикадная 2-я улица, 11а" }, "geometry": { "type": "Point", "coordinates": [ 3409443.381565016694367, 8382871.159921105019748 ] } },
{ "type": "Feature", "properties": { "name": "Drive park", "description": null, "type": "Центральная улица, 70" }, "geometry": { "type": "Point", "coordinates": [ 3410611.011703947558999, 8389149.669031079858541 ] } },
{ "type": "Feature", "properties": { "name": "Бэст", "description": "конноспортивный клуб", "type": "Пушкинское шоссе, 19а" }, "geometry": { "type": "Point", "coordinates": [ 3368279.214981516823173, 8337196.809866545721889 ] } },
{ "type": "Feature", "properties": { "name": "Western city", "description": "конный клуб", "type": "Колтушское шоссе, 14" }, "geometry": { "type": "Point", "coordinates": [ 3413570.551686177030206, 8379708.264904388226569 ] } },
{ "type": "Feature", "properties": { "name": "Western city", "description": null, "type": "Колтушское шоссе, 14 ст1" }, "geometry": { "type": "Point", "coordinates": [ 3413594.596696188673377, 8379781.758717742748559 ] } },
{ "type": "Feature", "properties": { "name": "Конно-фермерское хозяйство", "description": null, "type": "Ёксолово деревня, 13" }, "geometry": { "type": "Point", "coordinates": [ 3427092.641552326735109, 8375115.134440815076232 ] } },
{ "type": "Feature", "properties": { "name": "Sablino Eventing", "description": "конный клуб", "type": "Парковая улица, 25к" }, "geometry": { "type": "Point", "coordinates": [ 3426205.759169177617878, 8324578.850489522330463 ] } },
{ "type": "Feature", "properties": { "name": "Песочный", "description": "пони-клуб", "type": "Речная улица, 14Б" }, "geometry": { "type": "Point", "coordinates": [ 3355554.729266900569201, 8427088.178950197994709 ] } },
{ "type": "Feature", "properties": { "name": "Велес", "description": "конноспортивный клуб", "type": null }, "geometry": { "type": "Point", "coordinates": [ 3419780.954758042935282, 8414616.290104614570737 ] } },
{ "type": "Feature", "properties": { "name": "Факт", "description": "конноспортивный клуб", "type": "Приморское шоссе, 4 к2 лит Ф" }, "geometry": { "type": "Point", "coordinates": [ 3352055.623712796252221, 8398644.368325799703598 ] } },
{ "type": "Feature", "properties": { "name": "КониПони Gilicob", "description": null, "type": null }, "geometry": { "type": "Point", "coordinates": [ 3418866.465141176711768, 8414708.649679837748408 ] } },
{ "type": "Feature", "properties": { "name": "Школа свободных лошадей", "description": null, "type": "Дачная, 47" }, "geometry": { "type": "Point", "coordinates": [ 3421895.02320769848302, 8410947.161703636869788 ] } },
{ "type": "Feature", "properties": { "name": "Пегас", "description": "конно-спортивный клуб", "type": "Хуторская, 13" }, "geometry": { "type": "Point", "coordinates": [ 3387481.38186539337039, 8425134.212315326556563 ] } },
{ "type": "Feature", "properties": { "name": "Осиновая роща", "description": "конноспортивный клуб", "type": "Межозёрная улица, 7в" }, "geometry": { "type": "Point", "coordinates": [ 3367625.992209542077035, 8424710.418637746945024 ] } },
{ "type": "Feature", "properties": { "name": "Гермес", "description": "конноспортивный клуб", "type": "Учительская, 14а" }, "geometry": { "type": "Point", "coordinates": [ 3376541.013629721011966, 8437264.790391031652689 ] } },
{ "type": "Feature", "properties": { "name": "Киннар", "description": null, "type": "Приозерское шоссе, 105 лит А" }, "geometry": { "type": "Point", "coordinates": [ 3374495.517986394930631, 8439924.416805388405919 ] } },
{ "type": "Feature", "properties": { "name": "Перспектива", "description": "конноспортивный комплекс", "type": "Высокая, 7" }, "geometry": { "type": "Point", "coordinates": [ 3378890.300163422245532, 8425125.946206245571375 ] } },
{ "type": "Feature", "properties": { "name": "Приневское", "description": "конно-спортивный комплекс", "type": null }, "geometry": { "type": "Point", "coordinates": [ 3401191.712990474421531, 8364345.277888297103345 ] } },
{ "type": "Feature", "properties": { "name": "Кентаврик", "description": "Санкт-Петербургская региональная общественная организация инвалидов", "type": "улица Дорога в Каменку, 3" }, "geometry": { "type": "Point", "coordinates": [ 3371727.67016731062904, 8415959.856871109455824 ] } },
{ "type": "Feature", "properties": { "name": "Гнедой", "description": "конный клуб", "type": "улица Некрасова, 14" }, "geometry": { "type": "Point", "coordinates": [ 3349177.903556299395859, 8359477.164341639727354 ] } },
{ "type": "Feature", "properties": { "name": "Булава", "description": "конный клуб", "type": "Конное территория, 34" }, "geometry": { "type": "Point", "coordinates": [ 3327620.438886218238622, 8365829.962943655438721 ] } },
{ "type": "Feature", "properties": { "name": "Вива", "description": "конный клуб", "type": null }, "geometry": { "type": "Point", "coordinates": [ 3381155.540481575299054, 8318421.729715450666845 ] } },
{ "type": "Feature", "properties": { "name": "Рыжий Конь", "description": "конный клуб", "type": null }, "geometry": { "type": "Point", "coordinates": [ 3424008.312420917209238, 8405928.74182747118175 ] } },
{ "type": "Feature", "properties": { "name": "Viera", "description": "конно-спортивная тренировочная база", "type": "Ропшинское шоссе, 8д" }, "geometry": { "type": "Point", "coordinates": [ 3334578.797616724390537, 8367152.91396754141897 ] } },
{ "type": "Feature", "properties": { "name": "Парадиз", "description": "конный центр", "type": "Заречная дорога, 7а" }, "geometry": { "type": "Point", "coordinates": [ 3335835.928626252803952, 8427062.703661687672138 ] } },
{ "type": "Feature", "properties": { "name": "Триумф", "description": "конный клуб", "type": null }, "geometry": { "type": "Point", "coordinates": [ 3391241.197666936088353, 8421716.186504496261477 ] } },
{ "type": "Feature", "properties": { "name": "Детскосельский", "description": "конно-спортивный клуб", "type": null }, "geometry": { "type": "Point", "coordinates": [ 3393262.425661270041019, 8340413.527943724766374 ] } },
{ "type": "Feature", "properties": { "name": "Дубки", "description": "конно-спортивный комплекс", "type": "Дубковское шоссе, 79" }, "geometry": { "type": "Point", "coordinates": [ 3333204.558502881322056, 8419548.217213315889239 ] } },
{ "type": "Feature", "properties": { "name": "Селена", "description": null, "type": "Приозерское шоссе, 146а" }, "geometry": { "type": "Point", "coordinates": [ 3374967.178668885491788, 8441044.017150977626443 ] } },
{ "type": "Feature", "properties": { "name": "Комарово", "description": "конноспортивный клуб", "type": "Отдыха, 4" }, "geometry": { "type": "Point", "coordinates": [ 3319676.346064737532288, 8439928.446254942566156 ] } },
{ "type": "Feature", "properties": { "name": "Территория лошади", "description": null, "type": null }, "geometry": { "type": "Point", "coordinates": [ 3367780.503662763163447, 8337159.722441205754876 ] } },
{ "type": "Feature", "properties": { "name": "Невский стиль", "description": "конноспортивный клуб", "type": "Пушкинское шоссе, 19а" }, "geometry": { "type": "Point", "coordinates": [ 3368279.214981516823173, 8337196.809866545721889 ] } },
{ "type": "Feature", "properties": { "name": "Конный клуб в Орловском парке", "description": null, "type": "Фронтовая улица, 2" }, "geometry": { "type": "Point", "coordinates": [ 3343689.18474324606359, 8366371.614990584552288 ] } },
{ "type": "Feature", "properties": { "name": "Школа джигитовки", "description": null, "type": "дорога Красная 2-я, 6" }, "geometry": { "type": "Point", "coordinates": [ 3415270.622949572745711, 8331318.79075303953141 ] } },
{ "type": "Feature", "properties": { "name": "Хуторок", "description": "конный клуб", "type": "Деревенская улица, 11" }, "geometry": { "type": "Point", "coordinates": [ 3365263.458656435832381, 8435249.952076220884919 ] } },
{ "type": "Feature", "properties": { "name": "Ропшинский ипподром", "description": null, "type": null }, "geometry": { "type": "Point", "coordinates": [ 3321629.669169687200338, 8343073.324497366324067 ] } },
{ "type": "Feature", "properties": { "name": "Лизар", "description": "конный клуб", "type": "Красносельское шоссе, 1а" }, "geometry": { "type": "Point", "coordinates": [ 3318963.67868467932567, 8337464.374667499214411 ] } },
{ "type": "Feature", "properties": { "name": "Светозар", "description": "конноспортивный клуб", "type": "Владимировка деревня, 9а" }, "geometry": { "type": "Point", "coordinates": [ 3329674.617449827026576, 8359792.039298366755247 ] } },
{ "type": "Feature", "properties": { "name": "Гардарика", "description": "пони-клуб", "type": "Родниковая улица, 13" }, "geometry": { "type": "Point", "coordinates": [ 3314233.824840364512056, 8336759.499157921411097 ] } },
{ "type": "Feature", "properties": { "name": "Солнечный остров", "description": "оздоровительный конный центр", "type": "Грибоедова проспект, 110Б к1" }, "geometry": { "type": "Point", "coordinates": [ 3417362.761459541507065, 8396589.111966211348772 ] } },
{ "type": "Feature", "properties": { "name": "Лунная поляна", "description": "конный клуб", "type": null }, "geometry": { "type": "Point", "coordinates": [ 3340833.28320694481954, 8349212.339437840506434 ] } },
{ "type": "Feature", "properties": { "name": "Эфа", "description": "конноспортивный клуб", "type": "Центральная улица, 21а" }, "geometry": { "type": "Point", "coordinates": [ 3326058.292471916414797, 8362037.518315371125937 ] } },
{ "type": "Feature", "properties": { "name": "Петергоф", "description": "конно-туристический клуб", "type": null }, "geometry": null },
{ "type": "Feature", "properties": { "name": "Fellclub", "description": "конный клуб", "type": "Долинная улица, 1 ст1" }, "geometry": { "type": "Point", "coordinates": [ 3334920.214494986925274, 8352829.619741440750659 ] } },
{ "type": "Feature", "properties": { "name": "Шаг", "description": "конноспортивная школа Анны Громзиной", "type": "деревня Корпикюля, 1" }, "geometry": { "type": "Point", "coordinates": [ 3370318.142774886451662, 8316116.827594524249434 ] } },
{ "type": "Feature", "properties": { "name": "Баланс ", "description": "конный клуб", "type": null }, "geometry": { "type": "Point", "coordinates": [ 3336750.863521082792431, 8344497.828401213511825 ] } },
{ "type": "Feature", "properties": { "name": "Gappo Team", "description": null, "type": "Сиреневая улица, 40" }, "geometry": { "type": "Point", "coordinates": [ 3336584.10692387400195, 8344088.368624620139599 ] } },
{ "type": "Feature", "properties": { "name": "Ораниенбаум", "description": "конно-спортивный клуб", "type": null }, "geometry": { "type": "Point", "coordinates": [ 3305239.54394274065271, 8378014.557655800133944 ] } },
{ "type": "Feature", "properties": { "name": "Ковчег", "description": "конный клуб", "type": "Михайловская деревня, 7 ст1" }, "geometry": { "type": "Point", "coordinates": [ 3322994.446126813068986, 8341571.120832 ] } },
{ "type": "Feature", "properties": { "name": "Канди-клуб", "description": "конноспортивная школа", "type": null }, "geometry": null },
{ "type": "Feature", "properties": { "name": "Лебер", "description": "конный клуб", "type": "Садовая, 86" }, "geometry": { "type": "Point", "coordinates": [ 3408719.693555369973183, 8385990.745670758187771 ] } },
{ "type": "Feature", "properties": { "name": "Школа верховой езды", "description": null, "type": "Отдыха, 4" }, "geometry": { "type": "Point", "coordinates": [ 3319676.346064737532288, 8439928.446254942566156 ] } },
{ "type": "Feature", "properties": { "name": "Верхом по лесам", "description": "конный клуб", "type": null }, "geometry": { "type": "Point", "coordinates": [ 3407595.36669835774228, 8391160.820702154189348 ] } },
{ "type": "Feature", "properties": { "name": "Илиада", "description": null, "type": "Александровское шоссе, 150" }, "geometry": { "type": "Point", "coordinates": [ 3342086.740673277061433, 8440461.024607637897134 ] } },
{ "type": "Feature", "properties": { "name": "Верево", "description": "конно-спортивный клуб", "type": "территория конно-спортивного клуба Верево, 1" }, "geometry": { "type": "Point", "coordinates": [ 3367325.763542872387916, 8312217.809452345594764 ] } }
]
}
