{
"type": "FeatureCollection",
"name": "motocross",
"crs": { "type": "name", "properties": { "name": "urn:ogc:def:crs:EPSG::3857" } },
"features": [
{ "type": "Feature", "properties": { "fid": 1, "id": "39102521", "name": "Комплекс «Кросс Парголово» (ru)", "url": "http://wikimapia.org/39102521/ru/%D0%9A%D0%BE%D0%BC%D0%BF%D0%BB%D0%B5%D0%BA%D1%81-%C2%AB%D0%9A%D1%80%D0%BE%D1%81%D1%81-%D0%9F%D0%B0%D1%80%D0%B3%D0%BE%D0%BB%D0%BE%D0%B2%D0%BE%C2%BB", "lat": 60.08275, "lon": 30.2140921 }, "geometry": { "type": "Point", "coordinates": [ 3363339.518394622020423, 8418188.414485676214099 ] } },
{ "type": "Feature", "properties": { "fid": 2, "id": "27890699", "name": "DrivePark (ru)", "url": "http://wikimapia.org/27890699/ru/DrivePark", "lat": 59.9530748, "lon": 30.635467 }, "geometry": { "type": "Point", "coordinates": [ 3410326.846017267554998, 8389260.580428503453732 ] } },
{ "type": "Feature", "properties": { "fid": 3, "id": "35565531", "name": "Helidrive X Park", "url": "http://wikimapia.org/35565531/Helidrive-X-Park", "lat": 59.8268276, "lon": 30.2469706 }, "geometry": { "type": "Point", "coordinates": [ 3367071.080793850589544, 8361316.486281096935272 ] } },
{ "type": "Feature", "properties": { "fid": 4, "id": "12629714", "name": "Мототрасса (ru)", "url": "http://wikimapia.org/12629714/ru/%D0%9C%D0%BE%D1%82%D0%BE%D1%82%D1%80%D0%B0%D1%81%D1%81%D0%B0", "lat": 59.7007238, "lon": 30.1929294 }, "geometry": { "type": "Point", "coordinates": [ 3360952.473747963551432, 8333461.882040931843221 ] } },
{ "type": "Feature", "properties": { "fid": 5, "id": "21102867", "name": "Мотокроссовая трасса (ru)", "url": "http://wikimapia.org/21102867/ru/%D0%9C%D0%BE%D1%82%D0%BE%D0%BA%D1%80%D0%BE%D1%81%D1%81%D0%BE%D0%B2%D0%B0%D1%8F-%D1%82%D1%80%D0%B0%D1%81%D1%81%D0%B0", "lat": 60.1154059, "lon": 30.3938939 }, "geometry": { "type": "Point", "coordinates": [ 3383430.385098806582391, 8425491.613499594852328 ] } },
{ "type": "Feature", "properties": { "fid": 6, "id": "25517936", "name": "Мототрек (ru)", "url": "http://wikimapia.org/25517936/ru/%D0%9C%D0%BE%D1%82%D0%BE%D1%82%D1%80%D0%B5%D0%BA", "lat": 60.0069787, "lon": 30.1344723 }, "geometry": { "type": "Point", "coordinates": [ 3354623.548371117562056, 8401316.038375224918127 ] } },
{ "type": "Feature", "properties": { "fid": 7, "id": "28027145", "name": "Трасса для мотокроса (ru)", "url": "http://wikimapia.org/28027145/ru/%D0%A2%D1%80%D0%B0%D1%81%D1%81%D0%B0-%D0%B4%D0%BB%D1%8F-%D0%BC%D0%BE%D1%82%D0%BE%D0%BA%D1%80%D0%BE%D1%81%D0%B0", "lat": 59.7059767, "lon": 30.2083522 }, "geometry": { "type": "Point", "coordinates": [ 3362768.296776596922427, 8334575.922740241512656 ] } },
{ "type": "Feature", "properties": { "fid": 8, "id": "37141576", "name": "Трасса для мотокросса (ru)", "url": "http://wikimapia.org/37141576/ru/%D0%A2%D1%80%D0%B0%D1%81%D1%81%D0%B0-%D0%B4%D0%BB%D1%8F-%D0%BC%D0%BE%D1%82%D0%BE%D0%BA%D1%80%D0%BE%D1%81%D1%81%D0%B0", "lat": 59.9497213, "lon": 30.6512331 }, "geometry": { "type": "Point", "coordinates": [ 3412067.379100570455194, 8388564.899415147490799 ] } },
{ "type": "Feature", "properties": { "fid": 9, "id": "30247761", "name": "Мототрасса (ru)", "url": "http://wikimapia.org/30247761/ru/%D0%9C%D0%BE%D1%82%D0%BE%D1%82%D1%80%D0%B0%D1%81%D1%81%D0%B0", "lat": 59.6344724, "lon": 30.3942453 }, "geometry": { "type": "Point", "coordinates": [ 3383416.045223219785839, 8318814.6981499530375 ] } },
{ "type": "Feature", "properties": { "fid": 10, "id": "24204563", "name": "Трасса для мотокросса (ru)", "url": "http://wikimapia.org/24204563/ru/%D0%A2%D1%80%D0%B0%D1%81%D1%81%D0%B0-%D0%B4%D0%BB%D1%8F-%D0%BC%D0%BE%D1%82%D0%BE%D0%BA%D1%80%D0%BE%D1%81%D1%81%D0%B0", "lat": 59.9568024, "lon": 30.6314383 }, "geometry": { "type": "Point", "coordinates": [ 3409864.607389341574162, 8390140.649070175364614 ] } },
{ "type": "Feature", "properties": { "fid": 11, "id": "24364028", "name": "Трасса для мотокросса «BRP Центр СЕВЕР» (ru)", "url": "http://wikimapia.org/24364028/ru/%D0%A2%D1%80%D0%B0%D1%81%D1%81%D0%B0-%D0%B4%D0%BB%D1%8F-%D0%BC%D0%BE%D1%82%D0%BE%D0%BA%D1%80%D0%BE%D1%81%D1%81%D0%B0-%C2%ABBRP-%D0%A6%D0%B5%D0%BD%D1%82%D1%80-%D0%A1%D0%95%D0%92%D0%95%D0%A0%C2%BB", "lat": 60.0521238, "lon": 30.3940206 }, "geometry": { "type": "Point", "coordinates": [ 3383448.356110680382699, 8411341.459129145368934 ] } },
{ "type": "Feature", "properties": { "fid": 12, "id": "38085150", "name": "Строящаяся трасса для мотокросса (ru)", "url": "http://wikimapia.org/38085150/ru/%D0%A1%D1%82%D1%80%D0%BE%D1%8F%D1%89%D0%B0%D1%8F%D1%81%D1%8F-%D1%82%D1%80%D0%B0%D1%81%D1%81%D0%B0-%D0%B4%D0%BB%D1%8F-%D0%BC%D0%BE%D1%82%D0%BE%D0%BA%D1%80%D0%BE%D1%81%D1%81%D0%B0", "lat": 60.0495823, "lon": 30.4110111 }, "geometry": { "type": "Point", "coordinates": [ 3385334.41610647039488, 8410781.503633730113506 ] } },
{ "type": "Feature", "properties": { "fid": 13, "id": null, "name": "Трасса мотокросса", "url": null, "lat": null, "lon": null }, "geometry": { "type": "Point", "coordinates": [ 3426192.116343342233449, 8333962.903357980772853 ] } }
]
}
