{
"type": "FeatureCollection",
"name": "mount",
"crs": { "type": "name", "properties": { "name": "urn:ogc:def:crs:EPSG::3857" } },
"features": [
{ "type": "Feature", "properties": { "fid": 1, "type": "возвышенность", "name": "Орлиная", "height_value": 97.96, "hight": "97.96 метров", "description ": null, "type_gis": 1 }, "geometry": { "type": "Point", "coordinates": [ 3400293.331728257704526, 8433989.27087682671845 ] } },
{ "type": "Feature", "properties": { "fid": 2, "type": "возвышенность", "name": "Красная горка", "height_value": 70.98, "hight": "70.98 метров", "description ": null, "type_gis": 1 }, "geometry": { "type": "Point", "coordinates": [ 3413282.777921732515097, 8389821.747495697811246 ] } },
{ "type": "Feature", "properties": { "fid": 3, "type": "гора", "name": "Вершина кама", "height_value": 64.13, "hight": "64.13 метров", "description ": null, "type_gis": 0 }, "geometry": { "type": "Point", "coordinates": [ 3411336.177698475308716, 8391013.506475130096078 ] } },
{ "type": "Feature", "properties": { "fid": 4, "type": "гора", "name": "Румболовская", "height_value": 61.25, "hight": "61.25 метров", "description ": null, "type_gis": 0 }, "geometry": { "type": "Point", "coordinates": [ 3411002.967631030362099, 8407878.060941837728024 ] } },
{ "type": "Feature", "properties": { "fid": 5, "type": "возвышенность", "name": "Останец Красная горка", "height_value": 13.85, "hight": "13.85 метров", "description ": null, "type_gis": 1 }, "geometry": { "type": "Point", "coordinates": [ 3428190.36305103963241, 8328164.900190986692905 ] } },
{ "type": "Feature", "properties": { "fid": 6, "type": "холм", "name": "Охтинская", "height_value": 26.02, "hight": "26.02 метров", "description ": null, "type_gis": 2 }, "geometry": { "type": "Point", "coordinates": [ 3389687.622853425331414, 8420093.163601806387305 ] } },
{ "type": "Feature", "properties": { "fid": 7, "type": "возвышенность", "name": " Адольфа", "height_value": 44.76, "hight": "44.76 метров", "description ": null, "type_gis": 1 }, "geometry": { "type": "Point", "coordinates": [ 3371752.494413758162409, 8418093.066567707806826 ] } },
{ "type": "Feature", "properties": { "fid": 8, "type": "холм", "name": "Филева ", "height_value": 33.07, "hight": "33.07 метров", "description ": null, "type_gis": 2 }, "geometry": { "type": "Point", "coordinates": [ 3410740.142313267569989, 8380684.393558397889137 ] } },
{ "type": "Feature", "properties": { "fid": 9, "type": "гора", "name": "Колтушская возвышенность ", "height_value": 52.75, "hight": "52.75 метров", "description ": null, "type_gis": 0 }, "geometry": { "type": "Point", "coordinates": [ 3409743.498912195209414, 8390999.37466499209404 ] } },
{ "type": "Feature", "properties": { "fid": 10, "type": "холм", "name": "Шведская горка", "height_value": 13.89, "hight": "13.89 метров", "description ": null, "type_gis": 2 }, "geometry": { "type": "Point", "coordinates": [ 3427408.009669744409621, 8327493.099823594093323 ] } },
{ "type": "Feature", "properties": { "fid": 11, "type": "возвышенность", "name": "Ласточкина ", "height_value": 15.29, "hight": "15.29 метров", "description ": null, "type_gis": 1 }, "geometry": { "type": "Point", "coordinates": [ 3427172.680266208015382, 8326668.37035530526191 ] } },
{ "type": "Feature", "properties": { "fid": 12, "type": "гора", "name": "Федоровский холм", "height_value": 63.55, "hight": "63.55 метров", "description ": null, "type_gis": 0 }, "geometry": { "type": "Point", "coordinates": [ 3398875.265706557780504, 8324986.789441199041903 ] } },
{ "type": "Feature", "properties": { "fid": 13, "type": "гора", "name": "Кирхгоф", "height_value": 169.03, "hight": "169.03 метров", "description ": "Кирхгоф — гора высотой 170 м в Ломоносовском районе Ленинградской области, к востоку от Дудергофа. Считается, что ранее её высота была больше, однако в результате добычи щебня она уменьшилась.\n\nНазвание горы связано с кирхой Святой Троицы, построенной в 1660-х годах и перестроенной в камне в 1832 году. Во время Великой Отечественной войны церковь была сильно разрушена, а впоследствии разобрана. До наших дней сохранились фрагменты её фундамента, отдельные надгробные плиты и старое финское кладбище.\n\nВ 1998 году на восточном склоне Кирхгофа был открыт горнолыжный подъёмник комплекса «Туутари-парк». Летом 1941 года у подножия горы размещались орудия артиллерийской батареи специального назначения «Аврора», принявшие последний бой 11 сентября 1941 года.", "type_gis": 0 }, "geometry": { "type": "Point", "coordinates": [ 3358611.785123065579683, 8332080.284042225219309 ] } },
{ "type": "Feature", "properties": { "fid": 14, "type": "возвышенность", "name": "Святая (Керина) ", "height_value": 52.98, "hight": "52.98 метров", "description ": null, "type_gis": 1 }, "geometry": { "type": "Point", "coordinates": [ 3374389.430511669255793, 8437042.806680781766772 ] } },
{ "type": "Feature", "properties": { "fid": 15, "type": "холм", "name": "Парнас ", "height_value": 71.61, "hight": "71.61 метров", "description ": null, "type_gis": 2 }, "geometry": { "type": "Point", "coordinates": [ 3382837.80062644276768, 8337553.785858226940036 ] } },
{ "type": "Feature", "properties": { "fid": 16, "type": "холм", "name": " Колокольня", "height_value": 100.68, "hight": "100.68 метров", "description ": null, "type_gis": 2 }, "geometry": { "type": "Point", "coordinates": [ 3295218.118103566579521, 8349214.108386567793787 ] } },
{ "type": "Feature", "properties": { "fid": 17, "type": "холм", "name": "Красносельский холм", "height_value": 87.16, "hight": "87.16 метров", "description ": null, "type_gis": 2 }, "geometry": { "type": "Point", "coordinates": [ 3349514.533696457743645, 8339232.488716528750956 ] } },
{ "type": "Feature", "properties": { "fid": 18, "type": "гора", "name": "Воронья", "height_value": 143.99, "hight": "143.99 метров", "description ": "Воронья гора — вершина высотой 146,9 м над уровнем моря, расположенная в Красносельском районе Санкт-Петербурга, недалеко от платформы Дудергоф.\n\nОна входит в состав Дудерфских высот вместе с Ореховой и Кирхгофом. Формирование горы связано с последним валдайским оледенением: у края ледника накопился моренный материал, частично переработанный наступающим льдом, что позволяет рассматривать её как морену напора.\n\nС вершины открывается обзор до 30–40 км, в том числе на южные районы Санкт-Петербурга. Благодаря этому в годы Великой Отечественной войны гора имела стратегическое значение как наблюдательный и артиллерийский пункт.", "type_gis": 0 }, "geometry": { "type": "Point", "coordinates": [ 3353735.768787338864058, 8333786.207983667030931 ] } },
{ "type": "Feature", "properties": { "fid": 19, "type": "гора", "name": "Ореховая", "height_value": 169.0, "hight": "169.00 метров", "description ": "Ореховая гора — ледникового происхождения, расположена в Красносельском районе Санкт-Петербурга и является одной из самых высоких точек города и юго-запада Ленинградской области. Её высота составляет 175,9 м над уровнем моря.\n\nВходит в состав Дудергофских высот вместе с Вороньей горой и Кирхгофом, образуя возвышенность у края Балтийско-Ладожского уступа. В XVIII веке Ореховую и Воронью горы считали одной горой — Дудоровой.\n\nРасположена вблизи платформы Дудергоф, примерно в 12 км от КАД. В годы Великой Отечественной войны имела стратегическое значение: здесь размещались артиллерийские позиции и командные пункты.", "type_gis": 0 }, "geometry": { "type": "Point", "coordinates": [ 3354353.925919714383781, 8332643.954337402246892 ] } },
{ "type": "Feature", "properties": { "fid": 20, "type": "холм", "name": "Золотая", "height_value": 14.35, "hight": "14.35 метров", "description ": null, "type_gis": 2 }, "geometry": { "type": "Point", "coordinates": [ 3328108.890425321180373, 8374535.661340371705592 ] } },
{ "type": "Feature", "properties": { "fid": 21, "type": "холм", "name": "Шахматная", "height_value": 15.57, "hight": "15.57 метров", "description ": null, "type_gis": 2 }, "geometry": { "type": "Point", "coordinates": [ 3330295.635033199563622, 8373730.894923768006265 ] } },
{ "type": "Feature", "properties": { "fid": 22, "type": "холм", "name": "Келломяки (Колокольный холм)", "height_value": 27.52, "hight": "27.52 метров", "description ": null, "type_gis": 2 }, "geometry": { "type": "Point", "coordinates": [ 3317223.268367140553892, 8440263.802143091335893 ] } },
{ "type": "Feature", "properties": { "fid": 23, "type": "возвышенность", "name": "Серенада", "height_value": 53.28, "hight": "53.28 метров", "description ": null, "type_gis": 1 }, "geometry": { "type": "Point", "coordinates": [ 3311683.829264762811363, 8446549.352084748446941 ] } },
{ "type": "Feature", "properties": { "fid": 24, "type": "возвышенность", "name": "Брусничная", "height_value": 51.74, "hight": "51.74 метров", "description ": null, "type_gis": 1 }, "geometry": { "type": "Point", "coordinates": [ 3313531.064894986338913, 8445799.237148854881525 ] } },
{ "type": "Feature", "properties": { "fid": 25, "type": "холм", "name": "Марьина ", "height_value": 27.05, "hight": "27.05 метров", "description ": null, "type_gis": 2 }, "geometry": { "type": "Point", "coordinates": [ 3288435.755488004535437, 8444704.448730640113354 ] } },
{ "type": "Feature", "properties": { "fid": 26, "type": "холм", "name": "Стеклянная горка", "height_value": 11.86, "hight": "11.86 метров", "description ": null, "type_gis": 2 }, "geometry": { "type": "Point", "coordinates": [ 3372281.624847922474146, 8403309.606639744713902 ] } },
{ "type": "Feature", "properties": { "fid": 27, "type": "возвышенность", "name": "Поклонная", "height_value": 34.83, "hight": "34.83 метров", "description ": null, "type_gis": 1 }, "geometry": { "type": "Point", "coordinates": [ 3375315.68674041563645, 8406580.473362868651748 ] } },
{ "type": "Feature", "properties": { "fid": 28, "type": "холм", "name": "Яковлевка", "height_value": 52.22, "hight": "52.22 метров", "description ": null, "type_gis": 2 }, "geometry": { "type": "Point", "coordinates": [ 3282642.911826103925705, 8463533.45318141579628 ] } },
{ "type": "Feature", "properties": { "fid": 29, "type": "возвышенность", "name": "Высокая", "height_value": 88.5, "hight": "88.50 метров", "description ": null, "type_gis": 1 }, "geometry": { "type": "Point", "coordinates": [ 3311635.182647285982966, 8464539.410029601305723 ] } },
{ "type": "Feature", "properties": { "fid": 30, "type": "гора", "name": "Рощинская", "height_value": 60.55, "hight": "60.55 метров", "description ": null, "type_gis": 0 }, "geometry": { "type": "Point", "coordinates": [ 3294304.29640364414081, 8461989.861497631296515 ] } },
{ "type": "Feature", "properties": { "fid": 31, "type": "холм", "name": "Крестовая", "height_value": 93.37, "hight": "93.37 метров", "description ": null, "type_gis": 2 }, "geometry": { "type": "Point", "coordinates": [ 3397132.893036661203951, 8437266.133054830133915 ] } },
{ "type": "Feature", "properties": { "fid": 32, "type": "возвышенность", "name": "Ненаглядная", "height_value": 68.5, "hight": "68.50 метров", "description ": null, "type_gis": 1 }, "geometry": { "type": "Point", "coordinates": [ 3395731.046689101029187, 8430576.444924123585224 ] } },
{ "type": "Feature", "properties": { "fid": 33, "type": "возвышенность", "name": "Осельская", "height_value": 139.66, "hight": "139.66 метров", "description ": "Название связано с финским словом uusiselkä, означающим «новая гряда». Оно отражает геологическое происхождение местности Карельского перешейка, сформированной древним ледником. Его движение оставило после себя гряды, озы и камы, многие из которых сохранились до сих пор.\n\nНа вершине гряды расположены Верхние Осельки, а Нижние Осельки находятся ниже по склону.", "type_gis": 1 }, "geometry": { "type": "Point", "coordinates": [ 3389113.102961441036314, 8453162.996482128277421 ] } },
{ "type": "Feature", "properties": { "fid": 34, "type": "гора", "name": "Малиновая ", "height_value": 76.45, "hight": "76.45 метров", "description ": null, "type_gis": 0 }, "geometry": { "type": "Point", "coordinates": [ 3392928.133230417966843, 8437494.389464773237705 ] } },
{ "type": "Feature", "properties": { "fid": 35, "type": "гора", "name": "Троицкая", "height_value": 53.72, "hight": "53.72 метров", "description ": null, "type_gis": 0 }, "geometry": { "type": "Point", "coordinates": [ 3321997.802725741174072, 8370189.57274666428566 ] } },
{ "type": "Feature", "properties": { "fid": 36, "type": "гора", "name": "Токсовские высоты", "height_value": 81.29, "hight": "81.29 метров", "description ": null, "type_gis": 0 }, "geometry": { "type": "Point", "coordinates": [ 3398256.218018255662173, 8436895.343384625390172 ] } },
{ "type": "Feature", "properties": { "fid": 37, "type": "гора", "name": "Старый Парнас", "height_value": 49.44, "hight": "49.44 метров", "description ": "Парнас — насыпная гора в Шуваловском парке на севере Санкт-Петербурга (район Парголово). Высота около 60–63 м над уровнем моря. Холм был создан в XVIII веке при формировании паркового ансамбля: грунт использовали при рытье прудов, после чего его собрали в искусственный холм с видовой вершиной и прогулочной дорожкой.\n\nНазвание связано с античной горой Парнас в Греции, символом искусства и вдохновения, что было типично для парков эпохи классицизма. Вершина использовалась как смотровая площадка с видом на парк и окрестности.\n\nСегодня Парнас — популярная прогулочная точка в Шуваловском парке, сохранившаяся как часть исторического ландшафта северных пригородов Петербурга.", "type_gis": 0 }, "geometry": { "type": "Point", "coordinates": [ 3373156.789790115319192, 8416643.336080268025398 ] } },
{ "type": "Feature", "properties": { "fid": 38, "type": "гора", "name": "Ропшинские высоты", "height_value": 132.76, "hight": "132.76 метров", "description ": "Ропшинские высоты были заселены ещё в эпоху неолита, около 5–6 тысяч лет назад. Изначально здесь жили прибалтийско-финские племена — чудь, водь и ижора, занимавшиеся охотой и рыболовством по берегам рек. В VIII–IX веках сюда пришли ильменские словене, которые принесли подсечно-огневое земледелие и заметно изменили ландшафт региона.\n\nВ 1710 году территория была отвоёвана Петром I в ходе Северной войны и вошла в состав России под названием Ропша. Здесь возникла одна из первых пригородных усадеб Северо-Запада. Царь обратил внимание на минеральные источники этих мест, что повлияло на развитие территории.\n\nВо время Великой Отечественной войны, с 1941 по 1944 год, Ропша была оккупирована немецкими войсками. Ропшинский дворец использовался как госпиталь вермахта, а сама местность имела стратегическое значение как господствующая высота с обзором на подступы к Ленинграду.", "type_gis": 0 }, "geometry": { "type": "Point", "coordinates": [ 3319539.852284909691662, 8341012.767982835881412 ] } },
{ "type": "Feature", "properties": { "fid": 39, "type": "гора", "name": "Сторожевая ", "height_value": 69.89, "hight": "69.89 метров", "description ": null, "type_gis": 0 }, "geometry": { "type": "Point", "coordinates": [ 3376984.527049736119807, 8438412.876417882740498 ] } },
{ "type": "Feature", "properties": { "fid": 40, "type": "гора", "name": "Юковская камовая гряда", "height_value": 74.56, "hight": "74.56 метров", "description ": "Юковская камовая гряда — ледниковое геологическое образование во Всеволожском районе Ленинградской области, в районе посёлка Юкки. Это система камовых холмов, сформированных в конце последнего оледенения при отступании ледника, когда талые воды и ледниковые отложения создали вытянутую гряду возвышенностей.\n\nГряда имеет протяжённость порядка 10–16 км, с отдельными холмами и увалами, местами достигающими высот до ~80–90 м над уровнем моря. Рельеф отличается чередованием песчаных и суглинистых отложений, небольших понижений, заболоченных участков и лесных массивов.\n\nСегодня территория используется как природно-экологическая зона и туристический маршрут: здесь проложены тропы, смотровые точки и участки с хорошо сохранившимся ледниковым ландшафтом", "type_gis": 0 }, "geometry": { "type": "Point", "coordinates": [ 3374114.585338240023702, 8424330.7019556555897 ] } },
{ "type": "Feature", "properties": { "fid": 41, "type": "гора", "name": "Каллеловские высоты", "height_value": 109.92, "hight": "109.92 метров", "description ": "Каллеловские высоты — цепь из трёх возвышенностей на Карельском перешейке, расположенных примерно в 10 км к северо-западу от деревни Медный Завод (ныне урочище Каллелово, Всеволожский район Ленинградской области). Их высота достигает около 102 м над уровнем моря.\n\nРанее гряды тянулись ближе к реке, однако в 1990-х годах часть рельефа была частично уничтожена карьерными разработками. Местность представляет собой систему стратегических возвышенностей, игравших важную роль в природном и военном ландшафте региона.\n\nВ годы Великой Отечественной войны здесь проходили ожесточённые бои, и высоты использовались как тактически важные позиции из-за господствующего положения над окружающей территорией.", "type_gis": 0 }, "geometry": { "type": "Point", "coordinates": [ 3337578.832304431125522, 8456743.388890899717808 ] } },
{ "type": "Feature", "properties": { "fid": 42, "type": "возвышенность", "name": "Большеижорская", "height_value": 17.72, "hight": "17.72 метров", "description ": null, "type_gis": 1 }, "geometry": { "type": "Point", "coordinates": [ 3290490.673869893420488, 8386706.482396326027811 ] } },
{ "type": "Feature", "properties": { "fid": 43, "type": "холм", "name": "Белая горка", "height_value": 12.24, "hight": "12.24 метров", "description ": null, "type_gis": 2 }, "geometry": { "type": "Point", "coordinates": [ 3336956.833579607773572, 8416619.798957960680127 ] } },
{ "type": "Feature", "properties": { "fid": 44, "type": "гора", "name": "Смерть", "height_value": 16.63, "hight": "16.63 метров", "description ": null, "type_gis": 0 }, "geometry": { "type": "Point", "coordinates": [ 3291811.63036580150947, 8444351.42711815983057 ] } },
{ "type": "Feature", "properties": { "fid": 45, "type": "холм", "name": "Парнас", "height_value": 13.88, "hight": "13.88 метров", "description ": null, "type_gis": 2 }, "geometry": { "type": "Point", "coordinates": [ 3339621.369516684208065, 8369162.262111931107938 ] } },
{ "type": "Feature", "properties": { "fid": 46, "type": "возвышенность", "name": "Лазурка", "height_value": 62.07, "hight": "62.07 метров", "description ": null, "type_gis": 1 }, "geometry": { "type": "Point", "coordinates": [ 3429679.662389704026282, 8371378.571938242763281 ] } },
{ "type": "Feature", "properties": { "fid": 47, "type": "возвышенность", "name": "Катальная горка", "height_value": 21.09, "hight": "21.09 метров", "description ": null, "type_gis": 1 }, "geometry": { "type": "Point", "coordinates": [ 3311132.944129280280322, 8381142.146107500419021 ] } },
{ "type": "Feature", "properties": { "fid": 48, "type": "холм", "name": "Гайдабуровская ", "height_value": 14.85, "hight": "14.85 метров", "description ": null, "type_gis": 2 }, "geometry": { "type": "Point", "coordinates": [ 3336744.425417229533195, 8414388.263793217018247 ] } },
{ "type": "Feature", "properties": { "fid": 49, "type": "гора", "name": "Бабигонские высоты", "height_value": 54.54, "hight": "54.54 метров", "description ": null, "type_gis": 0 }, "geometry": { "type": "Point", "coordinates": [ 3326096.049364946316928, 8366076.363777339458466 ] } },
{ "type": "Feature", "properties": { "fid": 50, "type": "гора", "name": "Колтушская возвышенность ", "height_value": 48.51, "hight": "48.51 метров", "description ": null, "type_gis": 0 }, "geometry": { "type": "Point", "coordinates": [ 3408116.644438108429313, 8385676.001874478533864 ] } },
{ "type": "Feature", "properties": { "fid": 51, "type": "гора", "name": "Пулковские высоты ", "height_value": 57.21, "hight": "57.21 метров", "description ": null, "type_gis": 0 }, "geometry": { "type": "Point", "coordinates": [ 3376658.567011998966336, 8348966.680800407193601 ] } },
{ "type": "Feature", "properties": { "fid": 52, "type": "возвышенность", "name": "Бронная", "height_value": 65.46, "hight": "65.46 метров", "description ": null, "type_gis": 1 }, "geometry": { "type": "Point", "coordinates": [ 3298233.555991838686168, 8381817.409882353618741 ] } },
{ "type": "Feature", "properties": { "fid": 53, "type": "гора", "name": "Дудергофские высоты", "height_value": 109.21, "hight": "109.21 метров", "description ": "Дудергофские высоты — группа ледниковых холмов к юго-западу от Санкт-Петербурга, к югу от Красного Села, считающаяся одной из самых высоких точек окрестностей города. В XVIII веке они назывались Дудоровы горы.\n\nВ состав массива входят несколько гряд: Дудергофская с Вороньей горой (147 м), Ореховая гора (175,9 м) и Кирхгоф (около 180 м). Также выделяются Лагерная и Кавелахтинская гряды. Относительные превышения достигают 30–70 м над окружающей местностью.\n\nВысоты сложены кембрийскими и ордовикскими породами, перекрыты четвертичными отложениями ледникового происхождения. Территория частично окружена моренными грядами и покрыта лесами с участками широколиственных пород — клёна, ясеня, дуба, липы и лещины.\n\nСегодня Дудергофские высоты являются природным памятником и зоной отдыха, сохраняя уникальный ландшафт и редкие для северо-запада лесные сообщества.", "type_gis": 0 }, "geometry": { "type": "Point", "coordinates": [ 3359637.693180417641997, 8334946.430331478826702 ] } },
{ "type": "Feature", "properties": { "fid": 54, "type": "возвышенность", "name": "Пухтолова", "height_value": 83.48, "hight": "83.48 метров", "description ": null, "type_gis": 1 }, "geometry": { "type": "Point", "coordinates": [ 3303900.370468496810645, 8451094.24790839292109 ] } },
{ "type": "Feature", "properties": { "fid": 55, "type": "возвышенность", "name": "Аннинские высоты", "height_value": 100.14, "hight": "100.14 метров", "description ": null, "type_gis": 1 }, "geometry": { "type": "Point", "coordinates": [ 3344454.95151421520859, 8345040.06626979727298 ] } },
{ "type": "Feature", "properties": { "fid": 56, "type": "гора", "name": "Лемболовская возвышенность", "height_value": 94.51, "hight": "94.51 метров", "description ": null, "type_gis": 0 }, "geometry": { "type": "Point", "coordinates": [ 3355075.928537284955382, 8449325.800970051437616 ] } },
{ "type": "Feature", "properties": { "fid": 57, "type": "возвышенность", "name": "Кудыкина", "height_value": 42.52, "hight": "42.52 метров", "description ": null, "type_gis": 1 }, "geometry": { "type": "Point", "coordinates": [ 3352200.242879632394761, 8437218.39286945015192 ] } },
{ "type": "Feature", "properties": { "fid": 58, "type": "холм", "name": "Ленинские (Сомерикомяки)", "height_value": 52.76, "hight": "52.76 метров", "description ": null, "type_gis": 2 }, "geometry": { "type": "Point", "coordinates": [ 3320169.348989161197096, 8454643.33284953981638 ] } },
{ "type": "Feature", "properties": { "fid": 59, "type": "возвышенность", "name": "Чертова ", "height_value": 45.62, "hight": "45.62 метров", "description ": null, "type_gis": 1 }, "geometry": { "type": "Point", "coordinates": [ 3373746.914766749367118, 8423564.646317759528756 ] } },
{ "type": "Feature", "properties": { "fid": 60, "type": "холм", "name": "Золотая ", "height_value": 62.56, "hight": "62.56 метров", "description ": null, "type_gis": 2 }, "geometry": { "type": "Point", "coordinates": [ 3377601.760180407669395, 8438146.741485023871064 ] } },
{ "type": "Feature", "properties": { "fid": 61, "type": "гора", "name": "Старая крепость (Линнамяки)", "height_value": 119.16, "hight": "119.16 метров", "description ": "Линнамяки (фин. Linnamäki, «крепостная гора») — исторический холм на Карельском перешейке, известный как место древнего шведского укреплённого пункта XV века. Позднее здесь располагалось имение настоятелей Кивеннапского прихода (Паппила), а в 1943–1944 годах на вершине была построена временная кирха — церковь Паяри. Холм также входил в систему обороны Карельского вала.\n\nВ настоящее время он известен как гора Старая Крепость. На территории сохранились фундаменты построек, остатки финского ДОТа времён Великой Отечественной войны, а также следы хозяйственных сооружений.\n\nЗдесь находилась крепость Кивинебб (Kivinebb), упоминаемая с 1445 года; вероятно, она была построена не ранее 1540-х годов. Укрепление представляло собой земляно-деревянную крепость на господствующем холме. До наших дней дошли высокие бастионы, ров и остатки древней дороги. Крепость была уничтожена при штурме и не восстановлена.", "type_gis": 0 }, "geometry": { "type": "Point", "coordinates": [ 3312487.413273735437542, 8479527.599895473569632 ] } },
{ "type": "Feature", "properties": { "fid": 62, "type": "гора", "name": "Лысая", "height_value": 66.73, "hight": "66.73 метров", "description ": null, "type_gis": 0 }, "geometry": { "type": "Point", "coordinates": [ 3418686.496623326092958, 8390256.197627583518624 ] } },
{ "type": "Feature", "properties": { "fid": 63, "type": "холм", "name": "Крутая (Куйппамяки)", "height_value": 59.09, "hight": "59.09 метров", "description ": null, "type_gis": 2 }, "geometry": { "type": "Point", "coordinates": [ 3322090.761132749263197, 8454980.713083317503333 ] } },
{ "type": "Feature", "properties": { "fid": 64, "type": "возвышенность", "name": " Решетниковская (Кулёмяки)", "height_value": 62.65, "hight": "62.65 метров", "description ": null, "type_gis": 1 }, "geometry": { "type": "Point", "coordinates": [ 3308141.792163447942585, 8453396.398083940148354 ] } },
{ "type": "Feature", "properties": { "fid": 65, "type": "холм", "name": "Школьная ", "height_value": 87.69, "hight": "87.69 метров", "description ": null, "type_gis": 2 }, "geometry": { "type": "Point", "coordinates": [ 3350259.831843336112797, 8341958.329882292076945 ] } },
{ "type": "Feature", "properties": { "fid": 66, "type": "возвышенность", "name": "Дедова ", "height_value": 105.38, "hight": "105.38 метров", "description ": "Дедова гора — лесной массив и холмистая местность в Ломоносовском районе Ленинградской области, недалеко от посёлка Лопухинка. Это популярный природный участок среди любителей пеших походов, краеведения и внедорожного туризма благодаря сложному рельефу и живописным ландшафтам.\n\nТерритория представляет собой пересечённую местность с оврагами, болотистыми понижениями и грунтовыми дорогами, местами с глубокой колеёй. Она постепенно переходит в район геологического памятника природы «Радоновые источники и озёра».\n\nДедова гора часто используется как часть туристических маршрутов, включая исторические «партизанские» тропы через старые урочища. Весной и осенью дороги становятся труднопроходимыми, что делает местность популярной среди любителей внедорожной езды.", "type_gis": 1 }, "geometry": { "type": "Point", "coordinates": [ 3273865.362054636701941, 8346566.337546117603779 ] } },
{ "type": "Feature", "properties": { "fid": 67, "type": "холм", "name": "Старая Пустошь", "height_value": 64.44, "hight": "64.44 метров", "description ": null, "type_gis": 2 }, "geometry": { "type": "Point", "coordinates": [ 3414701.969389082398266, 8392853.824507480487227 ] } },
{ "type": "Feature", "properties": { "fid": 68, "type": "возвышенность", "name": "Кузьмоловские горы", "height_value": 35.43, "hight": "35.43 метров", "description ": null, "type_gis": 1 }, "geometry": { "type": "Point", "coordinates": [ 3394939.65372067084536, 8426179.773173255845904 ] } },
{ "type": "Feature", "properties": { "fid": 69, "type": "холм", "name": "Чугуева", "height_value": 8.53, "hight": "8.53 метров", "description ": null, "type_gis": 2 }, "geometry": { "type": "Point", "coordinates": [ 3328355.481483926530927, 8434752.648297941312194 ] } },
{ "type": "Feature", "properties": { "fid": 70, "type": "возвышенность", "name": "Гумбург-гора", "height_value": 66.11, "hight": "66.11 метров", "description ": null, "type_gis": 1 }, "geometry": { "type": "Point", "coordinates": [ 3416753.582345716189593, 8378899.857699070125818 ] } },
{ "type": "Feature", "properties": { "fid": 71, "type": "холм", "name": "Хепоярви ", "height_value": 88.51, "hight": "88.51 метров", "description ": null, "type_gis": 2 }, "geometry": { "type": "Point", "coordinates": [ 3398692.281213846523315, 8427892.628288690000772 ] } },
{ "type": "Feature", "properties": { "fid": 72, "type": "возвышенность", "name": "Мистоловские холмы", "height_value": 82.4, "hight": "82.40 метров", "description ": null, "type_gis": 1 }, "geometry": { "type": "Point", "coordinates": [ 3386652.083005475345999, 8426264.694698473438621 ] } },
{ "type": "Feature", "properties": { "fid": 73, "type": "гора", "name": "Охтинские высоты", "height_value": 80.35, "hight": "80.35 метров", "description ": null, "type_gis": 0 }, "geometry": { "type": "Point", "coordinates": [ 3388520.783300869632512, 8428156.586243389174342 ] } },
{ "type": "Feature", "properties": { "fid": 74, "type": "гора", "name": "Белоостровская высота", "height_value": 54.91, "hight": "54.91 метров", "description ": null, "type_gis": 0 }, "geometry": { "type": "Point", "coordinates": [ 3343370.490108650177717, 8441986.409638177603483 ] } },
{ "type": "Feature", "properties": { "fid": 75, "type": "возвышенность", "name": "Корабсельская", "height_value": 68.3, "hight": "68.30 метров", "description ": null, "type_gis": 1 }, "geometry": { "type": "Point", "coordinates": [ 3385559.545031685847789, 8422774.695094119757414 ] } },
{ "type": "Feature", "properties": { "fid": 76, "type": "холм", "name": "Киурумяки", "height_value": 65.46, "hight": "65.46 метров", "description ": null, "type_gis": 2 }, "geometry": { "type": "Point", "coordinates": [ 3405048.50100953085348, 8429547.081243371590972 ] } },
{ "type": "Feature", "properties": { "fid": 77, "type": "холм", "name": "Таскунмяки", "height_value": 83.98, "hight": "83.98 метров", "description ": null, "type_gis": 2 }, "geometry": { "type": "Point", "coordinates": [ 3404885.866420701146126, 8434203.373180026188493 ] } },
{ "type": "Feature", "properties": { "fid": 78, "type": "гора", "name": "Каменная ", "height_value": 45.08, "hight": "45.08 метров", "description ": null, "type_gis": 0 }, "geometry": { "type": "Point", "coordinates": [ 3296839.324387351516634, 8448923.027762314304709 ] } },
{ "type": "Feature", "properties": { "fid": 79, "type": "холм", "name": "Семейная", "height_value": 98.54, "hight": "98.54 метров", "description ": null, "type_gis": 2 }, "geometry": { "type": "Point", "coordinates": [ 3400318.525961806066334, 8436240.623287156224251 ] } },
{ "type": "Feature", "properties": { "fid": 80, "type": "холм", "name": "Понтуксен мяки", "height_value": 100.29, "hight": "100.29 метров", "description ": null, "type_gis": 2 }, "geometry": { "type": "Point", "coordinates": [ 3399060.611518265213817, 8438370.03363617695868 ] } },
{ "type": "Feature", "properties": { "fid": 81, "type": "возвышенность", "name": "Комендантская ", "height_value": 106.49, "hight": "106.49 метров", "description ": null, "type_gis": 1 }, "geometry": { "type": "Point", "coordinates": [ 3397981.073355755768716, 8434935.391570560634136 ] } },
{ "type": "Feature", "properties": { "fid": 82, "type": "холм", "name": "Сосновая ", "height_value": 67.31, "hight": "67.31 метров", "description ": null, "type_gis": 2 }, "geometry": { "type": "Point", "coordinates": [ 3401210.151249091606587, 8437286.897632736712694 ] } },
{ "type": "Feature", "properties": { "fid": 83, "type": "холм", "name": "Чайная ", "height_value": 89.83, "hight": "89.83 метров", "description ": null, "type_gis": 2 }, "geometry": { "type": "Point", "coordinates": [ 3401213.497704301960766, 8438585.322254782542586 ] } },
{ "type": "Feature", "properties": { "fid": 84, "type": "холм", "name": "Пелёвина ", "height_value": 45.23, "hight": "45.23 метров", "description ": null, "type_gis": 2 }, "geometry": { "type": "Point", "coordinates": [ 3369912.584702343214303, 8417278.26426131464541 ] } },
{ "type": "Feature", "properties": { "fid": 85, "type": "холм", "name": "Майоровка", "height_value": 35.84, "hight": "35.84 метров", "description ": null, "type_gis": 2 }, "geometry": { "type": "Point", "coordinates": [ 3372663.89513502176851, 8415716.439537957310677 ] } },
{ "type": "Feature", "properties": { "fid": 86, "type": "холм", "name": "Туккова ", "height_value": 39.21, "hight": "39.21 метров", "description ": null, "type_gis": 2 }, "geometry": { "type": "Point", "coordinates": [ 3368873.034166472498327, 8417735.566540319472551 ] } },
{ "type": "Feature", "properties": { "fid": 87, "type": "холм", "name": "Вокзальная ", "height_value": 48.32, "hight": "48.32 метров", "description ": null, "type_gis": 2 }, "geometry": { "type": "Point", "coordinates": [ 3368880.530925144907087, 8418297.823440730571747 ] } },
{ "type": "Feature", "properties": { "fid": 88, "type": "холм", "name": "Малые горки", "height_value": 86.07, "hight": "86.07 метров", "description ": null, "type_gis": 2 }, "geometry": { "type": "Point", "coordinates": [ 3325217.057789025828242, 8336309.316766790114343 ] } },
{ "type": "Feature", "properties": { "fid": 89, "type": "холм", "name": "Холм Славы", "height_value": 11.27, "hight": "11.27 метров", "description ": null, "type_gis": 2 }, "geometry": { "type": "Point", "coordinates": [ 3423567.375917884986848, 8349221.184185717254877 ] } },
{ "type": "Feature", "properties": { "fid": 90, "type": "возвышенность", "name": "Глиняная горка", "height_value": 52.23, "hight": "52.23 метров", "description ": null, "type_gis": 1 }, "geometry": { "type": "Point", "coordinates": [ 3371160.052083756309003, 8351422.529224545694888 ] } },
{ "type": "Feature", "properties": { "fid": 91, "type": "холм", "name": "Коркинские холмы", "height_value": 85.87, "hight": "85.87 метров", "description ": null, "type_gis": 2 }, "geometry": { "type": "Point", "coordinates": [ 3418279.627118234056979, 8385160.534688608720899 ] } },
{ "type": "Feature", "properties": { "fid": 92, "type": "возвышенность", "name": "Сухая", "height_value": 77.77, "hight": "77.77 метров", "description ": null, "type_gis": 1 }, "geometry": { "type": "Point", "coordinates": [ 3309710.21261664154008, 8471693.875500150024891 ] } },
{ "type": "Feature", "properties": { "fid": 93, "type": "гора", "name": "Трифонова горка", "height_value": 69.81, "hight": "69.81 метров", "description ": null, "type_gis": 0 }, "geometry": { "type": "Point", "coordinates": [ 3384403.43134080665186, 8335708.183009842410684 ] } },
{ "type": "Feature", "properties": { "fid": 94, "type": "возвышенность", "name": "Офицерская", "height_value": 110.22, "hight": "110.22 метров", "description ": null, "type_gis": 1 }, "geometry": { "type": "Point", "coordinates": [ 3356410.553512119688094, 8343114.418480092659593 ] } },
{ "type": "Feature", "properties": { "fid": 95, "type": "гора", "name": "Лебяжья ", "height_value": 95.27, "hight": "95.27 метров", "description ": null, "type_gis": 0 }, "geometry": { "type": "Point", "coordinates": [ 3291582.657305188942701, 8470836.429963773116469 ] } },
{ "type": "Feature", "properties": { "fid": 96, "type": "холм", "name": "Холм Кавигонт", "height_value": 73.42, "hight": "73.42 метров", "description ": null, "type_gis": 2 }, "geometry": { "type": "Point", "coordinates": [ 3336892.793474498670548, 8348433.943481932394207 ] } },
{ "type": "Feature", "properties": { "fid": 97, "type": "возвышенность", "name": "Бугры", "height_value": 35.52, "hight": "35.52 метров", "description ": "Бугры (район Мурино–Кудрово–КАД, север Петербурга) — территория ледниково-аккумулятивного рельефа, сформированного моренами и камовыми холмами Карельского перешейка. Местность представляет собой систему невысоких возвышенностей и плавных гряд с перепадами высот до нескольких десятков метров, разделённых понижениями, болотцами и застроенными долинами.\n\nРельеф здесь неоднородный: чередуются бугры, пологие склоны и впадины, что связано с отложениями последнего оледенения. В некоторых местах естественные формы рельефа частично изменены застройкой и выемкой грунта при развитии карьеров и жилых районов.\n\nСегодня Бугры известны как активно застраиваемая пригородная зона Петербурга, но природная основа местности сохраняет характерный «холмистый» ледниковый ландшафт северо-запада региона.", "type_gis": 1 }, "geometry": { "type": "Point", "coordinates": [ 3383533.635758657939732, 8415492.374155083671212 ] } },
{ "type": "Feature", "properties": { "fid": 98, "type": "холм", "name": "Мустосенмяки ", "height_value": 89.34, "hight": "89.34 метров", "description ": null, "type_gis": 2 }, "geometry": { "type": "Point", "coordinates": [ 3404653.072134962305427, 8431457.206367898732424 ] } },
{ "type": "Feature", "properties": { "fid": 99, "type": "гора", "name": "Копорская", "height_value": 125.11, "hight": "125.11 метров", "description ": "Радиолокационная рота в районе деревни Капорское располагалась на месте, где ранее стоял дом, связанный с визитами Николая II. По данным местных преданий, император останавливался здесь во время приездов на полевые учения к военным частям.\n\nПозднее территория была занята военным подразделением радиолокационной роты. От прежней застройки до настоящего времени ничего не сохранилось.", "type_gis": 0 }, "geometry": { "type": "Point", "coordinates": [ 3336772.492523089982569, 8342635.82610603608191 ] } },
{ "type": "Feature", "properties": { "fid": 100, "type": "холм", "name": "Сювемяки", "height_value": 50.85, "hight": "50.85 метров", "description ": null, "type_gis": 2 }, "geometry": { "type": "Point", "coordinates": [ 3403832.780924972612411, 8427417.727699225768447 ] } },
{ "type": "Feature", "properties": { "fid": 101, "type": "холм", "name": "Царский валик", "height_value": 101.44, "hight": "101.44 метров", "description ": null, "type_gis": 2 }, "geometry": { "type": "Point", "coordinates": [ 3347449.286411481443793, 8333646.481716829352081 ] } },
{ "type": "Feature", "properties": { "fid": 102, "type": "возвышенность", "name": "Райволовская гряда (Райволанселька)", "height_value": 88.62, "hight": "88.62 метров", "description ": null, "type_gis": 1 }, "geometry": { "type": "Point", "coordinates": [ 3297384.565210666041821, 8454093.756792344152927 ] } },
{ "type": "Feature", "properties": { "fid": 103, "type": "холм", "name": "Катальная горка", "height_value": 8.42, "hight": "8.42 метров", "description ": null, "type_gis": 2 }, "geometry": { "type": "Point", "coordinates": [ 3395243.545083424542099, 8389643.291278153657913 ] } },
{ "type": "Feature", "properties": { "fid": 104, "type": "гора", "name": "Недоступная", "height_value": 76.95, "hight": "76.95 метров", "description ": null, "type_gis": 0 }, "geometry": { "type": "Point", "coordinates": [ 3267936.934805653989315, 8476902.801285341382027 ] } },
{ "type": "Feature", "properties": { "fid": 105, "type": "холм", "name": "Таммиселька ", "height_value": 92.3, "hight": "92.30 метров", "description ": null, "type_gis": 2 }, "geometry": { "type": "Point", "coordinates": [ 3324932.555366756394506, 8459477.424551580101252 ] } },
{ "type": "Feature", "properties": { "fid": 106, "type": "холм", "name": "Pohjalaisen mäellä", "height_value": 94.02, "hight": "94.02 метров", "description ": null, "type_gis": 2 }, "geometry": { "type": "Point", "coordinates": [ 3324761.809553778730333, 8459680.798732340335846 ] } },
{ "type": "Feature", "properties": { "fid": 107, "type": "холм", "name": "Куккамяки (Цветочный холм)", "height_value": 26.06, "hight": "26.06 метров", "description ": null, "type_gis": 2 }, "geometry": { "type": "Point", "coordinates": [ 3308280.704315060283989, 8443030.767321102321148 ] } },
{ "type": "Feature", "properties": { "fid": 108, "type": "холм", "name": "Кютелямяки", "height_value": 53.29, "hight": "53.29 метров", "description ": null, "type_gis": 2 }, "geometry": { "type": "Point", "coordinates": [ 3379363.953260097187012, 8431387.696454744786024 ] } },
{ "type": "Feature", "properties": { "fid": 109, "type": "холм", "name": "Нокеломяки", "height_value": 60.0, "hight": "60.00 метров", "description ": null, "type_gis": 2 }, "geometry": { "type": "Point", "coordinates": [ 3380199.532931223046035, 8430452.915544124320149 ] } },
{ "type": "Feature", "properties": { "fid": 110, "type": "холм", "name": "Пёкколомяки", "height_value": 48.11, "hight": "48.11 метров", "description ": null, "type_gis": 2 }, "geometry": { "type": "Point", "coordinates": [ 3378570.343344142194837, 8430208.727877676486969 ] } },
{ "type": "Feature", "properties": { "fid": 111, "type": "холм", "name": "Больничная горка", "height_value": 8.2, "hight": "8.20 метров", "description ": null, "type_gis": 2 }, "geometry": { "type": "Point", "coordinates": [ 3344700.750921383500099, 8367242.012919373810291 ] } },
{ "type": "Feature", "properties": { "fid": 112, "type": "холм", "name": "Чертова горка", "height_value": 22.39, "hight": "22.39 метров", "description ": null, "type_gis": 2 }, "geometry": { "type": "Point", "coordinates": [ 3329483.535145101603121, 8372123.2226267978549 ] } },
{ "type": "Feature", "properties": { "fid": 113, "type": "холм", "name": "Илимовская гора", "height_value": 13.37, "hight": "13.37 метров", "description ": null, "type_gis": 2 }, "geometry": { "type": "Point", "coordinates": [ 3315692.019233858212829, 8380149.62035050522536 ] } },
{ "type": "Feature", "properties": { "fid": 114, "type": "холм", "name": "Ряйконемяки", "height_value": 76.17, "hight": "76.17 метров", "description ": null, "type_gis": 2 }, "geometry": { "type": "Point", "coordinates": [ 3404095.196384143549949, 8441801.959822587668896 ] } },
{ "type": "Feature", "properties": { "fid": 115, "type": "холм", "name": "Кякесенмяки", "height_value": 104.89, "hight": "104.89 метров", "description ": null, "type_gis": 2 }, "geometry": { "type": "Point", "coordinates": [ 3401589.370151422917843, 8443383.043701194226742 ] } },
{ "type": "Feature", "properties": { "fid": 116, "type": "холм", "name": "Ленжуомяки ", "height_value": 74.52, "hight": "74.52 метров", "description ": null, "type_gis": 2 }, "geometry": { "type": "Point", "coordinates": [ 3399245.937697960529476, 8443748.429704524576664 ] } },
{ "type": "Feature", "properties": { "fid": 117, "type": "холм", "name": "Иткомяки", "height_value": 93.63, "hight": "93.63 метров", "description ": null, "type_gis": 2 }, "geometry": { "type": "Point", "coordinates": [ 3399394.798662279266864, 8445128.776828216388822 ] } },
{ "type": "Feature", "properties": { "fid": 118, "type": "холм", "name": "Тарымяки", "height_value": 70.74, "hight": "70.74 метров", "description ": null, "type_gis": 2 }, "geometry": { "type": "Point", "coordinates": [ 3399340.667402526829392, 8443110.131933270022273 ] } },
{ "type": "Feature", "properties": { "fid": 119, "type": "холм", "name": "Рандиямяки", "height_value": 85.8, "hight": "85.80 метров", "description ": null, "type_gis": 2 }, "geometry": { "type": "Point", "coordinates": [ 3398842.208718970883638, 8445776.096476091071963 ] } },
{ "type": "Feature", "properties": { "fid": 120, "type": "холм", "name": "Раколайнемяки ", "height_value": 86.12, "hight": "86.12 метров", "description ": null, "type_gis": 2 }, "geometry": { "type": "Point", "coordinates": [ 3404029.787778607103974, 8445712.943339716643095 ] } },
{ "type": "Feature", "properties": { "fid": 121, "type": "холм", "name": "Вилкимяки", "height_value": 93.54, "hight": "93.54 метров", "description ": null, "type_gis": 2 }, "geometry": { "type": "Point", "coordinates": [ 3404237.290940992068499, 8434823.538252791389823 ] } },
{ "type": "Feature", "properties": { "fid": 122, "type": "холм", "name": "Луискиринмяки ", "height_value": 57.29, "hight": "57.29 метров", "description ": null, "type_gis": 2 }, "geometry": { "type": "Point", "coordinates": [ 3406131.885032340418547, 8430278.767902720719576 ] } },
{ "type": "Feature", "properties": { "fid": 123, "type": "холм", "name": "Кеземяки", "height_value": 80.22, "hight": "80.22 метров", "description ": null, "type_gis": 2 }, "geometry": { "type": "Point", "coordinates": [ 3410587.854414379224181, 8435339.97517410852015 ] } },
{ "type": "Feature", "properties": { "fid": 124, "type": "возвышенность", "name": "Ногелайсен-Мяки", "height_value": 92.54, "hight": "92.54 метров", "description ": null, "type_gis": 1 }, "geometry": { "type": "Point", "coordinates": [ 3411653.254089692141861, 8439255.244946366176009 ] } },
{ "type": "Feature", "properties": { "fid": 125, "type": "холм", "name": "Мойсионмяки", "height_value": 57.35, "hight": "57.35 метров", "description ": null, "type_gis": 2 }, "geometry": { "type": "Point", "coordinates": [ 3409450.118832860141993, 8433658.640348482877016 ] } },
{ "type": "Feature", "properties": { "fid": 126, "type": "холм", "name": "Кемпи-Мяки", "height_value": 84.66, "hight": "84.66 метров", "description ": null, "type_gis": 2 }, "geometry": { "type": "Point", "coordinates": [ 3412186.362989611458033, 8438752.155688092112541 ] } },
{ "type": "Feature", "properties": { "fid": 127, "type": "холм", "name": "Кивиккомяки", "height_value": 33.91, "hight": "33.91 метров", "description ": null, "type_gis": 2 }, "geometry": { "type": "Point", "coordinates": [ 3289130.272900174837559, 8447936.610546594485641 ] } },
{ "type": "Feature", "properties": { "fid": 128, "type": "холм", "name": "Пугелан-Мяки", "height_value": 92.74, "hight": "92.74 метров", "description ": null, "type_gis": 2 }, "geometry": { "type": "Point", "coordinates": [ 3412387.51408130954951, 8439925.511116124689579 ] } },
{ "type": "Feature", "properties": { "fid": 129, "type": "холм", "name": "Пурнунмяки", "height_value": 44.15, "hight": "44.15 метров", "description ": null, "type_gis": 2 }, "geometry": { "type": "Point", "coordinates": [ 3419085.941529064439237, 8444443.85440419614315 ] } },
{ "type": "Feature", "properties": { "fid": 130, "type": "холм", "name": "Путронмяки", "height_value": 18.18, "hight": "18.18 метров", "description ": null, "type_gis": 2 }, "geometry": { "type": "Point", "coordinates": [ 3403730.538455215748399, 8332214.334962722845376 ] } },
{ "type": "Feature", "properties": { "fid": 131, "type": "холм", "name": "Ревонмяки", "height_value": 10.9, "hight": "10.90 метров", "description ": null, "type_gis": 2 }, "geometry": { "type": "Point", "coordinates": [ 3337502.6407091319561, 8408667.505549030378461 ] } },
{ "type": "Feature", "properties": { "fid": 132, "type": "холм", "name": "Питке-Мяки", "height_value": 54.8, "hight": "54.80 метров", "description ": null, "type_gis": 2 }, "geometry": { "type": "Point", "coordinates": [ 3416042.057243184652179, 8376552.428190901875496 ] } },
{ "type": "Feature", "properties": { "fid": 133, "type": "холм", "name": "Торккелин-мяки", "height_value": 21.5, "hight": "21.50 метров", "description ": null, "type_gis": 2 }, "geometry": { "type": "Point", "coordinates": [ 3297871.691747051198035, 8443646.195161985233426 ] } },
{ "type": "Feature", "properties": { "fid": 134, "type": "холм", "name": "Лассымяки", "height_value": 96.07, "hight": "96.07 метров", "description ": null, "type_gis": 2 }, "geometry": { "type": "Point", "coordinates": [ 3404011.644433772191405, 8447885.867057202383876 ] } },
{ "type": "Feature", "properties": { "fid": 135, "type": "гора", "name": "Хумоземяки", "height_value": 94.06, "hight": "94.06 метров", "description ": null, "type_gis": 0 }, "geometry": { "type": "Point", "coordinates": [ 3404757.129390466026962, 8454532.391758721321821 ] } },
{ "type": "Feature", "properties": { "fid": 136, "type": "холм", "name": "Поккизенмяки", "height_value": 92.5, "hight": "92.50 метров", "description ": null, "type_gis": 2 }, "geometry": { "type": "Point", "coordinates": [ 3400866.372768292669207, 8432164.884149238467216 ] } },
{ "type": "Feature", "properties": { "fid": 137, "type": "холм", "name": "Киурумяки", "height_value": 94.19, "hight": "94.19 метров", "description ": null, "type_gis": 2 }, "geometry": { "type": "Point", "coordinates": [ 3402453.08255813177675, 8431342.66846027597785 ] } },
{ "type": "Feature", "properties": { "fid": 138, "type": "холм", "name": "Пуккеланмяки", "height_value": 92.79, "hight": "92.79 метров", "description ": null, "type_gis": 2 }, "geometry": { "type": "Point", "coordinates": [ 3402129.665263267699629, 8432327.87519515119493 ] } },
{ "type": "Feature", "properties": { "fid": 139, "type": "холм", "name": "Кярпянмяки", "height_value": 78.22, "hight": "78.22 метров", "description ": null, "type_gis": 2 }, "geometry": { "type": "Point", "coordinates": [ 3412739.93127339752391, 8438647.213110027834773 ] } },
{ "type": "Feature", "properties": { "fid": 140, "type": "холм", "name": "Систаканмяки", "height_value": 41.05, "hight": "41.05 метров", "description ": null, "type_gis": 2 }, "geometry": { "type": "Point", "coordinates": [ 3421770.884488835465163, 8375931.055754945613444 ] } },
{ "type": "Feature", "properties": { "fid": 141, "type": "холм", "name": "Каарленмяки", "height_value": 12.93, "hight": "12.93 метров", "description ": null, "type_gis": 2 }, "geometry": { "type": "Point", "coordinates": [ 3284283.154065855313092, 8440307.852114921435714 ] } },
{ "type": "Feature", "properties": { "fid": 142, "type": "холм", "name": "Суденмяки", "height_value": 15.62, "hight": "15.62 метров", "description ": null, "type_gis": 2 }, "geometry": { "type": "Point", "coordinates": [ 3287858.474112806841731, 8443310.134853569790721 ] } },
{ "type": "Feature", "properties": { "fid": 143, "type": "холм", "name": "Лаволанмяки", "height_value": 89.94, "hight": "89.94 метров", "description ": null, "type_gis": 2 }, "geometry": { "type": "Point", "coordinates": [ 3316833.106876636389643, 8462459.814337879419327 ] } },
{ "type": "Feature", "properties": { "fid": 144, "type": "холм", "name": "Вехнамяки", "height_value": 95.64, "hight": "95.64 метров", "description ": null, "type_gis": 2 }, "geometry": { "type": "Point", "coordinates": [ 3320062.816112048458308, 8462207.574039686471224 ] } },
{ "type": "Feature", "properties": { "fid": 145, "type": "холм", "name": "Ракколанмяки", "height_value": 104.24, "hight": "104.24 метров", "description ": null, "type_gis": 2 }, "geometry": { "type": "Point", "coordinates": [ 3319091.624624247662723, 8461999.900981577113271 ] } },
{ "type": "Feature", "properties": { "fid": 146, "type": "холм", "name": "Унимяки", "height_value": 24.49, "hight": "24.49 метров", "description ": null, "type_gis": 2 }, "geometry": { "type": "Point", "coordinates": [ 3286499.255603493656963, 8446261.712723888456821 ] } },
{ "type": "Feature", "properties": { "fid": 147, "type": "холм", "name": "Тееренмяки", "height_value": 28.8, "hight": "28.80 метров", "description ": null, "type_gis": 2 }, "geometry": { "type": "Point", "coordinates": [ 3290268.04766466608271, 8446912.243302926421165 ] } },
{ "type": "Feature", "properties": { "fid": 148, "type": "холм", "name": "Юхимяки", "height_value": 19.0, "hight": "19.00 метров", "description ": null, "type_gis": 2 }, "geometry": { "type": "Point", "coordinates": [ 3269997.364219451788813, 8392698.128579201176763 ] } },
{ "type": "Feature", "properties": { "fid": 149, "type": "холм", "name": "Канкуринмяки", "height_value": 43.94, "hight": "43.94 метров", "description ": null, "type_gis": 2 }, "geometry": { "type": "Point", "coordinates": [ 3420279.462735164910555, 8376270.933637030422688 ] } },
{ "type": "Feature", "properties": { "fid": 150, "type": "холм", "name": "Ленимяки", "height_value": 128.7, "hight": "128.70 метров", "description ": null, "type_gis": 2 }, "geometry": { "type": "Point", "coordinates": [ 3362629.453017671592534, 8335807.606508927419782 ] } },
{ "type": "Feature", "properties": { "fid": 151, "type": "холм", "name": "Янисьмяки", "height_value": 132.38, "hight": "132.38 метров", "description ": null, "type_gis": 2 }, "geometry": { "type": "Point", "coordinates": [ 3362443.725190918426961, 8334670.037145524285734 ] } },
{ "type": "Feature", "properties": { "fid": 152, "type": "холм", "name": "Лемедимяки", "height_value": 124.13, "hight": "124.13 метров", "description ": null, "type_gis": 2 }, "geometry": { "type": "Point", "coordinates": [ 3362903.925946769770235, 8335242.135755716823041 ] } },
{ "type": "Feature", "properties": { "fid": 153, "type": "холм", "name": "Пулькизимяки", "height_value": 119.47, "hight": "119.47 метров", "description ": null, "type_gis": 2 }, "geometry": { "type": "Point", "coordinates": [ 3363578.088230445515364, 8334364.673188854008913 ] } },
{ "type": "Feature", "properties": { "fid": 154, "type": "холм", "name": "Ховинмяки", "height_value": 28.48, "hight": "28.48 метров", "description ": null, "type_gis": 2 }, "geometry": { "type": "Point", "coordinates": [ 3403482.566519336774945, 8328868.165719232521951 ] } },
{ "type": "Feature", "properties": { "fid": 155, "type": "холм", "name": "Иоут-селькя", "height_value": 79.53, "hight": "79.53 метров", "description ": null, "type_gis": 2 }, "geometry": { "type": "Point", "coordinates": [ 3320094.544588172342628, 8460483.911250725388527 ] } },
{ "type": "Feature", "properties": { "fid": 156, "type": "холм", "name": "Олликайсмяки", "height_value": 49.22, "hight": "49.22 метров", "description ": null, "type_gis": 2 }, "geometry": { "type": "Point", "coordinates": [ 3413312.926686143502593, 8393087.998816262930632 ] } },
{ "type": "Feature", "properties": { "fid": 157, "type": "холм", "name": "Коломяги", "height_value": 17.66, "hight": "17.66 метров", "description ": null, "type_gis": 2 }, "geometry": { "type": "Point", "coordinates": [ 3371757.838955611456186, 8404351.280876791104674 ] } },
{ "type": "Feature", "properties": { "fid": 158, "type": "возвышенность", "name": "Пудомяги", "height_value": 66.21, "hight": "66.21 метров", "description ": null, "type_gis": 1 }, "geometry": { "type": "Point", "coordinates": [ 3376579.832403003238142, 8312357.749210133217275 ] } },
{ "type": "Feature", "properties": { "fid": 159, "type": "возвышенность", "name": "Саарселькя", "height_value": 76.23, "hight": "76.23 метров", "description ": null, "type_gis": 1 }, "geometry": { "type": "Point", "coordinates": [ 3367674.484667833894491, 8443277.092530805617571 ] } },
{ "type": "Feature", "properties": { "fid": 160, "type": "холм", "name": "Петаямяки", "height_value": 75.94, "hight": "75.94 метров", "description ": null, "type_gis": 2 }, "geometry": { "type": "Point", "coordinates": [ 3374274.322950326837599, 8444479.427961573004723 ] } },
{ "type": "Feature", "properties": { "fid": 161, "type": "холм", "name": "Коннунселькя", "height_value": 71.33, "hight": "71.33 метров", "description ": null, "type_gis": 2 }, "geometry": { "type": "Point", "coordinates": [ 3338299.756132597569376, 8447368.834810964763165 ] } },
{ "type": "Feature", "properties": { "fid": 162, "type": "холм", "name": "Корканмяки ", "height_value": 78.67, "hight": "78.67 метров", "description ": null, "type_gis": 2 }, "geometry": { "type": "Point", "coordinates": [ 3364629.6034368830733, 8314488.021633822470903 ] } },
{ "type": "Feature", "properties": { "fid": 163, "type": "холм", "name": "Никкозимяки", "height_value": 116.02, "hight": "116.02 метров", "description ": null, "type_gis": 2 }, "geometry": { "type": "Point", "coordinates": [ 3322841.849780065473169, 8328799.220037874765694 ] } },
{ "type": "Feature", "properties": { "fid": 164, "type": "холм", "name": "Кивисенмяки", "height_value": 123.4, "hight": "123.40 метров", "description ": null, "type_gis": 2 }, "geometry": { "type": "Point", "coordinates": [ 3322276.900649001821876, 8327315.393791921436787 ] } },
{ "type": "Feature", "properties": { "fid": 165, "type": "холм", "name": "Олосинмяки", "height_value": 29.33, "hight": "29.33 метров", "description ": null, "type_gis": 2 }, "geometry": { "type": "Point", "coordinates": [ 3404148.592139692977071, 8327033.096217054873705 ] } },
{ "type": "Feature", "properties": { "fid": 166, "type": "возвышенность", "name": "Райволанселькя", "height_value": 83.01, "hight": "83.01 метров", "description ": null, "type_gis": 1 }, "geometry": { "type": "Point", "coordinates": [ 3295911.777672264259309, 8455385.457952866330743 ] } },
{ "type": "Feature", "properties": { "fid": 167, "type": "холм", "name": "Вуоримяки", "height_value": 98.59, "hight": "98.59 метров", "description ": null, "type_gis": 2 }, "geometry": { "type": "Point", "coordinates": [ 3311313.896839952562004, 8464948.073525266721845 ] } },
{ "type": "Feature", "properties": { "fid": 168, "type": "холм", "name": "Холмамяки", "height_value": 111.75, "hight": "111.75 метров", "description ": null, "type_gis": 2 }, "geometry": { "type": "Point", "coordinates": [ 3318564.772784230764955, 8463321.725655402988195 ] } },
{ "type": "Feature", "properties": { "fid": 169, "type": "холм", "name": "Карьяланмяки", "height_value": 14.68, "hight": "14.68 метров", "description ": null, "type_gis": 2 }, "geometry": { "type": "Point", "coordinates": [ 3405382.889194395858794, 8380314.935328741557896 ] } },
{ "type": "Feature", "properties": { "fid": 170, "type": "холм", "name": "Койвумяки ", "height_value": 69.56, "hight": "69.56 метров", "description ": null, "type_gis": 2 }, "geometry": { "type": "Point", "coordinates": [ 3405776.862423018552363, 8430575.038803959265351 ] } },
{ "type": "Feature", "properties": { "fid": 171, "type": "холм", "name": "Ниверинмяки ", "height_value": 90.17, "hight": "90.17 метров", "description ": null, "type_gis": 2 }, "geometry": { "type": "Point", "coordinates": [ 3403734.251287593971938, 8430625.39593518525362 ] } },
{ "type": "Feature", "properties": { "fid": 172, "type": "гора", "name": "Куутерселька", "height_value": 95.47, "hight": "95.47 метров", "description ": null, "type_gis": 0 }, "geometry": { "type": "Point", "coordinates": [ 3291709.76226630108431, 8470807.74823765642941 ] } },
{ "type": "Feature", "properties": { "fid": 173, "type": "холм", "name": "Лемписенмяки", "height_value": 77.72, "hight": "77.72 метров", "description ": null, "type_gis": 2 }, "geometry": { "type": "Point", "coordinates": [ 3310640.361212289892137, 8470683.253762511536479 ] } },
{ "type": "Feature", "properties": { "fid": 174, "type": "возвышенность", "name": "Сеппясенмяки", "height_value": 72.62, "hight": "72.62 метров", "description ": null, "type_gis": 1 }, "geometry": { "type": "Point", "coordinates": [ 3309791.64017691463232, 8470173.823914645239711 ] } },
{ "type": "Feature", "properties": { "fid": 175, "type": "холм", "name": "Хенттисенмяки", "height_value": 74.87, "hight": "74.87 метров", "description ": null, "type_gis": 2 }, "geometry": { "type": "Point", "coordinates": [ 3311392.426073668058962, 8470954.004394890740514 ] } },
{ "type": "Feature", "properties": { "fid": 176, "type": "холм", "name": "Мустомяки", "height_value": 50.11, "hight": "50.11 метров", "description ": null, "type_gis": 2 }, "geometry": { "type": "Point", "coordinates": [ 3282407.565341138280928, 8465822.05729522742331 ] } },
{ "type": "Feature", "properties": { "fid": 177, "type": "холм", "name": "Каурасенмяки", "height_value": 77.69, "hight": "77.69 метров", "description ": null, "type_gis": 2 }, "geometry": { "type": "Point", "coordinates": [ 3310408.337941435631365, 8470399.978885618969798 ] } },
{ "type": "Feature", "properties": { "fid": 178, "type": "холм", "name": "Таскунмяки", "height_value": 68.66, "hight": "68.66 метров", "description ": null, "type_gis": 2 }, "geometry": { "type": "Point", "coordinates": [ 3402711.594153966289014, 8435157.436633171513677 ] } },
{ "type": "Feature", "properties": { "fid": 179, "type": "холм", "name": "Коросенмяки", "height_value": 75.47, "hight": "75.47 метров", "description ": null, "type_gis": 2 }, "geometry": { "type": "Point", "coordinates": [ 3406197.733270090073347, 8431231.156929710879922 ] } },
{ "type": "Feature", "properties": { "fid": 180, "type": "холм", "name": "Кивиккомяки", "height_value": 59.56, "hight": "59.56 метров", "description ": null, "type_gis": 2 }, "geometry": { "type": "Point", "coordinates": [ 3290559.934767988044769, 8448489.119283156469464 ] } },
{ "type": "Feature", "properties": { "fid": 181, "type": "холм", "name": "Пеллонмяки", "height_value": 28.95, "hight": "28.95 метров", "description ": null, "type_gis": 2 }, "geometry": { "type": "Point", "coordinates": [ 3290122.805323884822428, 8446740.785124970600009 ] } },
{ "type": "Feature", "properties": { "fid": 182, "type": "холм", "name": "Песчаные холмы", "height_value": 40.47, "hight": "40.47 метров", "description ": null, "type_gis": 2 }, "geometry": { "type": "Point", "coordinates": [ 3388273.521130121778697, 8421204.486239172518253 ] } },
{ "type": "Feature", "properties": { "fid": 183, "type": "гора", "name": "Волчьи горы", "height_value": 68.04, "hight": "68.04 метров", "description ": null, "type_gis": 0 }, "geometry": { "type": "Point", "coordinates": [ 3419332.814495298545808, 8417269.05897113494575 ] } },
{ "type": "Feature", "properties": { "fid": 184, "type": "холм", "name": "Пущина горка", "height_value": 74.42, "hight": "74.42 метров", "description ": null, "type_gis": 2 }, "geometry": { "type": "Point", "coordinates": [ 3389200.640192052815109, 8472034.67407887801528 ] } },
{ "type": "Feature", "properties": { "fid": 185, "type": "холм", "name": "Болгарский обрыв", "height_value": 20.26, "hight": "20.26 метров", "description ": null, "type_gis": 2 }, "geometry": { "type": "Point", "coordinates": [ 3319840.975208111107349, 8438917.616010485216975 ] } },
{ "type": "Feature", "properties": { "fid": 186, "type": "холм", "name": "Хампула Мяки", "height_value": 90.06, "hight": "90.06 метров", "description ": null, "type_gis": 2 }, "geometry": { "type": "Point", "coordinates": [ 3400054.763376260176301, 8432015.724633440375328 ] } },
{ "type": "Feature", "properties": { "fid": 187, "type": "холм", "name": "Келломяки", "height_value": 93.94, "hight": "93.94 метров", "description ": null, "type_gis": 2 }, "geometry": { "type": "Point", "coordinates": [ 3400546.875271724537015, 8431423.418764941394329 ] } },
{ "type": "Feature", "properties": { "fid": 188, "type": "холм", "name": "Капаканмяки", "height_value": 71.48, "hight": "71.48 метров", "description ": null, "type_gis": 2 }, "geometry": { "type": "Point", "coordinates": [ 3306155.95223433803767, 8378345.755498321726918 ] } },
{ "type": "Feature", "properties": { "fid": 189, "type": "холм", "name": "Ханникуисенмяки", "height_value": 51.51, "hight": "51.51 метров", "description ": null, "type_gis": 2 }, "geometry": { "type": "Point", "coordinates": [ 3415465.592424682807177, 8378605.533830471336842 ] } },
{ "type": "Feature", "properties": { "fid": 190, "type": "холм", "name": "Сопки", "height_value": 22.49, "hight": "22.49 метров", "description ": null, "type_gis": 2 }, "geometry": { "type": "Point", "coordinates": [ 3280015.052339934743941, 8451175.096845308318734 ] } },
{ "type": "Feature", "properties": { "fid": 191, "type": "гора", "name": "Симагинские высоты", "height_value": 84.89, "hight": "84.89 метров", "description ": null, "type_gis": 0 }, "geometry": { "type": "Point", "coordinates": [ 3323338.091400856617838, 8459938.096229515969753 ] } },
{ "type": "Feature", "properties": { "fid": 192, "type": "холм", "name": "Хиеккамяки", "height_value": 71.69, "hight": "71.69 метров", "description ": null, "type_gis": 2 }, "geometry": { "type": "Point", "coordinates": [ 3313136.579866541549563, 8460483.15891095250845 ] } },
{ "type": "Feature", "properties": { "fid": 193, "type": "холм", "name": "Хиетамяки", "height_value": 114.73, "hight": "114.73 метров", "description ": null, "type_gis": 2 }, "geometry": { "type": "Point", "coordinates": [ 3334550.638944293372333, 8340293.485048593953252 ] } },
{ "type": "Feature", "properties": { "fid": 194, "type": "холм", "name": "Пеккоземяки", "height_value": 131.65, "hight": "131.65 метров", "description ": null, "type_gis": 2 }, "geometry": { "type": "Point", "coordinates": [ 3362606.212935927789658, 8334233.816110954619944 ] } },
{ "type": "Feature", "properties": { "fid": 195, "type": "холм", "name": "Öljymäki", "height_value": 49.43, "hight": "49.43 метров", "description ": null, "type_gis": 2 }, "geometry": { "type": "Point", "coordinates": [ 3334975.9307, 8446239.243424117565155 ] } },
{ "type": "Feature", "properties": { "fid": 196, "type": "холм", "name": "Люйзамяки", "height_value": 102.29, "hight": "102.29 метров", "description ": null, "type_gis": 2 }, "geometry": { "type": "Point", "coordinates": [ 3368009.091813622042537, 8325944.291140732355416 ] } },
{ "type": "Feature", "properties": { "fid": 197, "type": "холм", "name": "Ансарейнмяки", "height_value": 30.14, "hight": "30.14 метров", "description ": null, "type_gis": 2 }, "geometry": { "type": "Point", "coordinates": [ 3427454.028974199667573, 8355036.280299999751151 ] } },
{ "type": "Feature", "properties": { "fid": 198, "type": "возвышенность", "name": "Косая гора (Вяярямяки)", "height_value": 18.34, "hight": "18.34 метров", "description ": null, "type_gis": 1 }, "geometry": { "type": "Point", "coordinates": [ 3396960.644689799286425, 8380072.953577203676105 ] } },
{ "type": "Feature", "properties": { "fid": 199, "type": "холм", "name": "Мюллюмяки", "height_value": 64.45, "hight": "64.45 метров", "description ": null, "type_gis": 2 }, "geometry": { "type": "Point", "coordinates": [ 3334397.257330665364861, 8460022.77713818103075 ] } },
{ "type": "Feature", "properties": { "fid": 200, "type": "холм", "name": "Терваканкаанмяки", "height_value": 79.5, "hight": "79.50 метров", "description ": null, "type_gis": 2 }, "geometry": { "type": "Point", "coordinates": [ 3332817.983213471714407, 8459295.897908832877874 ] } },
{ "type": "Feature", "properties": { "fid": 201, "type": "холм", "name": "Viesoinmaki", "height_value": 108.23, "hight": "108.23 метров", "description ": null, "type_gis": 2 }, "geometry": { "type": "Point", "coordinates": [ 3330787.391806554514915, 8457946.073360864073038 ] } },
{ "type": "Feature", "properties": { "fid": 202, "type": "холм", "name": "Роккаланмяки ", "height_value": 66.7, "hight": "66.70 метров", "description ": null, "type_gis": 2 }, "geometry": { "type": "Point", "coordinates": [ 3314005.409038258250803, 8464546.173513755202293 ] } },
{ "type": "Feature", "properties": { "fid": 203, "type": "холм", "name": "Камппиланмаки", "height_value": 82.75, "hight": "82.75 метров", "description ": null, "type_gis": 2 }, "geometry": { "type": "Point", "coordinates": [ 3325631.945244479458779, 8458177.031859435141087 ] } },
{ "type": "Feature", "properties": { "fid": 204, "type": "холм", "name": "Пекосенмяки", "height_value": 99.4, "hight": "99.40 метров", "description ": null, "type_gis": 2 }, "geometry": { "type": "Point", "coordinates": [ 3325066.806861040182412, 8459699.516400007531047 ] } },
{ "type": "Feature", "properties": { "fid": 205, "type": "холм", "name": "Киуруланмаки", "height_value": 92.24, "hight": "92.24 метров", "description ": null, "type_gis": 2 }, "geometry": { "type": "Point", "coordinates": [ 3323384.950992083642632, 8459483.634151069447398 ] } },
{ "type": "Feature", "properties": { "fid": 206, "type": "холм", "name": "Хонкасуонмяки", "height_value": 98.44, "hight": "98.44 метров", "description ": null, "type_gis": 2 }, "geometry": { "type": "Point", "coordinates": [ 3324103.808308242354542, 8461592.734389988705516 ] } },
{ "type": "Feature", "properties": { "fid": 207, "type": "холм", "name": "Ханникяйсенмяки", "height_value": 104.25, "hight": "104.25 метров", "description ": null, "type_gis": 2 }, "geometry": { "type": "Point", "coordinates": [ 3325679.416954036336392, 8460317.779904725030065 ] } },
{ "type": "Feature", "properties": { "fid": 208, "type": "холм", "name": "Тиканмяки", "height_value": 93.52, "hight": "93.52 метров", "description ": null, "type_gis": 2 }, "geometry": { "type": "Point", "coordinates": [ 3320296.789632692467421, 8461223.101878240704536 ] } },
{ "type": "Feature", "properties": { "fid": 209, "type": "холм", "name": "Кивимяки", "height_value": 86.41, "hight": "86.41 метров", "description ": null, "type_gis": 2 }, "geometry": { "type": "Point", "coordinates": [ 3336033.183305564336479, 8461941.130711872130632 ] } },
{ "type": "Feature", "properties": { "fid": 210, "type": "холм", "name": "Коккоахонмяки", "height_value": 97.97, "hight": "97.97 метров", "description ": null, "type_gis": 2 }, "geometry": { "type": "Point", "coordinates": [ 3337942.817299655172974, 8462014.203441238030791 ] } },
{ "type": "Feature", "properties": { "fid": 211, "type": "холм", "name": "Анттиланмяки", "height_value": 77.57, "hight": "77.57 метров", "description ": null, "type_gis": 2 }, "geometry": { "type": "Point", "coordinates": [ 3338956.092480193357915, 8460737.86643498390913 ] } },
{ "type": "Feature", "properties": { "fid": 212, "type": "холм", "name": "Мунненмяки", "height_value": 116.74, "hight": "116.74 метров", "description ": null, "type_gis": 2 }, "geometry": { "type": "Point", "coordinates": [ 3324448.719943451695144, 8464493.804724384099245 ] } },
{ "type": "Feature", "properties": { "fid": 213, "type": "холм", "name": "Ликасенмяки", "height_value": 103.32, "hight": "103.32 метров", "description ": null, "type_gis": 2 }, "geometry": { "type": "Point", "coordinates": [ 3322724.203530420549214, 8466003.974464610219002 ] } },
{ "type": "Feature", "properties": { "fid": 214, "type": "холм", "name": "Теросенмяки", "height_value": 88.62, "hight": "88.62 метров", "description ": null, "type_gis": 2 }, "geometry": { "type": "Point", "coordinates": [ 3319262.991916127502918, 8466773.673880606889725 ] } },
{ "type": "Feature", "properties": { "fid": 215, "type": "холм", "name": "Мулламяки", "height_value": 12.34, "hight": "12.34 метров", "description ": null, "type_gis": 2 }, "geometry": { "type": "Point", "coordinates": [ 3285271.993972822092474, 8449495.627022068947554 ] } },
{ "type": "Feature", "properties": { "fid": 216, "type": "холм", "name": "Jukonyllönmäki", "height_value": 25.35, "hight": "25.35 метров", "description ": null, "type_gis": 2 }, "geometry": { "type": "Point", "coordinates": [ 3286646.979163721203804, 8446930.774221330881119 ] } },
{ "type": "Feature", "properties": { "fid": 217, "type": "холм", "name": "Мякряпяссинмяки (Барсучий холм)", "height_value": 57.63, "hight": "57.63 метров", "description ": null, "type_gis": 2 }, "geometry": { "type": "Point", "coordinates": [ 3311771.819277310278267, 8459926.759139014407992 ] } },
{ "type": "Feature", "properties": { "fid": 218, "type": "холм", "name": "Суосааренмяки ", "height_value": 53.7, "hight": "53.70 метров", "description ": null, "type_gis": 2 }, "geometry": { "type": "Point", "coordinates": [ 3309729.436491535976529, 8456491.122980002313852 ] } },
{ "type": "Feature", "properties": { "fid": 219, "type": "холм", "name": "Кертапалонмяки", "height_value": 63.33, "hight": "63.33 метров", "description ": null, "type_gis": 2 }, "geometry": { "type": "Point", "coordinates": [ 3310401.705601701047271, 8455706.809018144384027 ] } },
{ "type": "Feature", "properties": { "fid": 220, "type": "холм", "name": "Карьяланмяки", "height_value": 75.63, "hight": "75.63 метров", "description ": null, "type_gis": 2 }, "geometry": { "type": "Point", "coordinates": [ 3310070.442561909556389, 8453563.34229008294642 ] } },
{ "type": "Feature", "properties": { "fid": 221, "type": "холм", "name": "Куломяки ", "height_value": 47.26, "hight": "47.26 метров", "description ": null, "type_gis": 2 }, "geometry": { "type": "Point", "coordinates": [ 3313631.520239666569978, 8455623.993258198723197 ] } },
{ "type": "Feature", "properties": { "fid": 222, "type": "холм", "name": "Киурумяки", "height_value": 46.72, "hight": "46.72 метров", "description ": null, "type_gis": 2 }, "geometry": { "type": "Point", "coordinates": [ 3306945.365502700675279, 8452350.334982613101602 ] } },
{ "type": "Feature", "properties": { "fid": 223, "type": "холм", "name": "Каскимяки", "height_value": 57.89, "hight": "57.89 метров", "description ": null, "type_gis": 2 }, "geometry": { "type": "Point", "coordinates": [ 3304295.261184368282557, 8454425.600496605038643 ] } },
{ "type": "Feature", "properties": { "fid": 224, "type": "холм", "name": "Суопеллонмяки", "height_value": 57.31, "hight": "57.31 метров", "description ": null, "type_gis": 2 }, "geometry": { "type": "Point", "coordinates": [ 3305167.262421465478837, 8455209.914458464831114 ] } },
{ "type": "Feature", "properties": { "fid": 225, "type": "холм", "name": "Каухимяки", "height_value": 62.97, "hight": "62.97 метров", "description ": null, "type_gis": 2 }, "geometry": { "type": "Point", "coordinates": [ 3315956.07634587213397, 8456377.380608009174466 ] } },
{ "type": "Feature", "properties": { "fid": 226, "type": "холм", "name": "Тервасмяки", "height_value": 55.63, "hight": "55.63 метров", "description ": null, "type_gis": 2 }, "geometry": { "type": "Point", "coordinates": [ 3293521.530551760923117, 8454924.451172448694706 ] } },
{ "type": "Feature", "properties": { "fid": 227, "type": "холм", "name": "Паломяки", "height_value": 94.69, "hight": "94.69 метров", "description ": null, "type_gis": 2 }, "geometry": { "type": "Point", "coordinates": [ 3297998.453104235697538, 8453730.929926140233874 ] } },
{ "type": "Feature", "properties": { "fid": 228, "type": "возвышенность", "name": "Кавголовские холмы", "height_value": 85.25, "hight": "85.25 метров", "description ": null, "type_gis": 1 }, "geometry": { "type": "Point", "coordinates": [ 3387854.29133579088375, 8442135.397011021152139 ] } },
{ "type": "Feature", "properties": { "fid": 229, "type": "холм", "name": "Добрая горка", "height_value": 23.35, "hight": "23.35 метров", "description ": null, "type_gis": 2 }, "geometry": { "type": "Point", "coordinates": [ 3353558.034578518010676, 8421590.558023480698466 ] } },
{ "type": "Feature", "properties": { "fid": 230, "type": "гора", "name": "Змеиная ", "height_value": 63.72, "hight": "63.72 метров", "description ": null, "type_gis": 0 }, "geometry": { "type": "Point", "coordinates": [ 3373437.017207699362189, 8426339.905117064714432 ] } },
{ "type": "Feature", "properties": { "fid": 231, "type": "гора", "name": "Безымянная", "height_value": 69.1, "hight": "69.10 метров", "description ": null, "type_gis": 0 }, "geometry": { "type": "Point", "coordinates": [ 3375405.900699680671096, 8423846.280300000682473 ] } },
{ "type": "Feature", "properties": { "fid": 232, "type": "возвышенность", "name": "Парапланерный старт ", "height_value": 72.41, "hight": "72.41 метров", "description ": null, "type_gis": 1 }, "geometry": { "type": "Point", "coordinates": [ 3381818.503357085864991, 8426383.152910023927689 ] } },
{ "type": "Feature", "properties": { "fid": 233, "type": "холм", "name": "Парголовский холм", "height_value": 43.28, "hight": "43.28 метров", "description ": null, "type_gis": 2 }, "geometry": { "type": "Point", "coordinates": [ 3370336.702463614754379, 8417157.964025359600782 ] } },
{ "type": "Feature", "properties": { "fid": 234, "type": "холм", "name": "Заманиловка", "height_value": 39.69, "hight": "39.69 метров", "description ": null, "type_gis": 2 }, "geometry": { "type": "Point", "coordinates": [ 3374536.457959583960474, 8417802.516734849661589 ] } },
{ "type": "Feature", "properties": { "fid": 235, "type": "возвышенность", "name": "Скотные горы", "height_value": 30.98, "hight": "30.98 метров", "description ": null, "type_gis": 1 }, "geometry": { "type": "Point", "coordinates": [ 3374382.221891514025629, 8416860.00190694630146 ] } },
{ "type": "Feature", "properties": { "fid": 236, "type": "холм", "name": "Церковная ", "height_value": 35.45, "hight": "35.45 метров", "description ": null, "type_gis": 2 }, "geometry": { "type": "Point", "coordinates": [ 3373579.731115228496492, 8411437.109691441059113 ] } },
{ "type": "Feature", "properties": { "fid": 237, "type": "холм", "name": "Брусничная", "height_value": 27.12, "hight": "27.12 метров", "description ": null, "type_gis": 2 }, "geometry": { "type": "Point", "coordinates": [ 3374131.915133616421372, 8409008.956063624471426 ] } },
{ "type": "Feature", "properties": { "fid": 238, "type": "холм", "name": "Плешивка ", "height_value": 62.92, "hight": "62.92 метров", "description ": null, "type_gis": 2 }, "geometry": { "type": "Point", "coordinates": [ 3381213.815448074601591, 8317057.593826778233051 ] } },
{ "type": "Feature", "properties": { "fid": 239, "type": "холм", "name": "Высота Инженерная", "height_value": 67.04, "hight": "67.04 метров", "description ": null, "type_gis": 2 }, "geometry": { "type": "Point", "coordinates": [ 3312305.565261877141893, 8368463.90232065320015 ] } },
{ "type": "Feature", "properties": { "fid": 240, "type": "возвышенность", "name": "Высота Родниковая", "height_value": 74.43, "hight": "74.43 метров", "description ": null, "type_gis": 1 }, "geometry": { "type": "Point", "coordinates": [ 3313875.806954002939165, 8368840.829806484282017 ] } },
{ "type": "Feature", "properties": { "fid": 241, "type": "возвышенность", "name": "Солнечная", "height_value": 14.1, "hight": "14.10 метров", "description ": null, "type_gis": 1 }, "geometry": { "type": "Point", "coordinates": [ 3337645.9307, 8430375.942251570522785 ] } },
{ "type": "Feature", "properties": { "fid": 242, "type": "возвышенность", "name": null, "height_value": 24.7, "hight": "24.70 метров", "description ": null, "type_gis": 1 }, "geometry": { "type": "Point", "coordinates": [ 3286866.929217943456024, 8445908.022965496405959 ] } }
]
}
