{
"type": "FeatureCollection",
"name": "mountains",
"crs": { "type": "name", "properties": { "name": "urn:ogc:def:crs:EPSG::3857" } },
"features": [
{ "type": "Feature", "properties": { "Имя": "Орлиная", "type": null, "height": 86.729995727539062, "photo id": null }, "geometry": { "type": "Point", "coordinates": [ 3400293.331728257704526, 8433989.27087682671845 ] } },
{ "type": "Feature", "properties": { "Имя": "Красная горка", "type": null, "height": 60.377582550048828, "photo id": null }, "geometry": { "type": "Point", "coordinates": [ 3413282.777921732515097, 8389821.747495697811246 ] } },
{ "type": "Feature", "properties": { "Имя": "Вершина кама", "type": null, "height": 55.519599914550781, "photo id": "0601" }, "geometry": { "type": "Point", "coordinates": [ 3411336.177698475308716, 8391013.506475130096078 ] } },
{ "type": "Feature", "properties": { "Имя": "Румболовская", "type": null, "height": 57.832714080810547, "photo id": null }, "geometry": { "type": "Point", "coordinates": [ 3411002.967631030362099, 8407878.060941837728024 ] } },
{ "type": "Feature", "properties": { "Имя": "Останец Красная горка", "type": null, "height": 23.526206970214844, "photo id": null }, "geometry": { "type": "Point", "coordinates": [ 3428190.36305103963241, 8328164.900190986692905 ] } },
{ "type": "Feature", "properties": { "Имя": "Охтинская", "type": null, "height": 26.15192985534668, "photo id": null }, "geometry": { "type": "Point", "coordinates": [ 3389687.622853425331414, 8420093.163601806387305 ] } },
{ "type": "Feature", "properties": { "Имя": " Адольфа", "type": null, "height": 46.469974517822266, "photo id": null }, "geometry": { "type": "Point", "coordinates": [ 3371752.494413758162409, 8418093.066567707806826 ] } },
{ "type": "Feature", "properties": { "Имя": "Филева ", "type": null, "height": 28.528064727783203, "photo id": null }, "geometry": { "type": "Point", "coordinates": [ 3410740.142313267569989, 8380684.393558397889137 ] } },
{ "type": "Feature", "properties": { "Имя": "Колтушская возвышенность ", "type": null, "height": 59.4061279296875, "photo id": null }, "geometry": { "type": "Point", "coordinates": [ 3409743.498912195209414, 8390999.37466499209404 ] } },
{ "type": "Feature", "properties": { "Имя": "Шведская горка", "type": null, "height": 11.192980766296387, "photo id": null }, "geometry": { "type": "Point", "coordinates": [ 3427408.009669744409621, 8327493.099823594093323 ] } },
{ "type": "Feature", "properties": { "Имя": "Ласточкина ", "type": null, "height": 22.042856216430664, "photo id": null }, "geometry": { "type": "Point", "coordinates": [ 3427172.680266208015382, 8326668.37035530526191 ] } },
{ "type": "Feature", "properties": { "Имя": "Федоровский холм", "type": null, "height": 63.530147552490234, "photo id": null }, "geometry": { "type": "Point", "coordinates": [ 3398875.265706557780504, 8324986.789441199041903 ] } },
{ "type": "Feature", "properties": { "Имя": "Кирхгоф", "type": null, "height": 146.29315185546875, "photo id": null }, "geometry": { "type": "Point", "coordinates": [ 3358611.785123065579683, 8332080.284042225219309 ] } },
{ "type": "Feature", "properties": { "Имя": "Святая (Керина) ", "type": null, "height": 52.666336059570312, "photo id": null }, "geometry": { "type": "Point", "coordinates": [ 3374389.430511669255793, 8437042.806680781766772 ] } },
{ "type": "Feature", "properties": { "Имя": "Парнас ", "type": null, "height": 68.780380249023438, "photo id": null }, "geometry": { "type": "Point", "coordinates": [ 3382837.80062644276768, 8337553.785858226940036 ] } },
{ "type": "Feature", "properties": { "Имя": " Колокольня", "type": null, "height": 99.521324157714844, "photo id": null }, "geometry": { "type": "Point", "coordinates": [ 3295218.118103566579521, 8349214.108386567793787 ] } },
{ "type": "Feature", "properties": { "Имя": "Красносельский холм", "type": null, "height": 88.787895202636719, "photo id": null }, "geometry": { "type": "Point", "coordinates": [ 3349514.533696457743645, 8339232.488716528750956 ] } },
{ "type": "Feature", "properties": { "Имя": "Воронья", "type": null, "height": 114.73078918457031, "photo id": null }, "geometry": { "type": "Point", "coordinates": [ 3353735.768787338864058, 8333786.207983667030931 ] } },
{ "type": "Feature", "properties": { "Имя": "Ореховая", "type": null, "height": 132.35704040527344, "photo id": null }, "geometry": { "type": "Point", "coordinates": [ 3354353.925919714383781, 8332643.954337402246892 ] } },
{ "type": "Feature", "properties": { "Имя": "Золотая", "type": null, "height": 16.175924301147461, "photo id": null }, "geometry": { "type": "Point", "coordinates": [ 3328108.890425321180373, 8374535.661340371705592 ] } },
{ "type": "Feature", "properties": { "Имя": "Шахматная", "type": null, "height": 17.346931457519531, "photo id": null }, "geometry": { "type": "Point", "coordinates": [ 3330295.635033199563622, 8373730.894923768006265 ] } },
{ "type": "Feature", "properties": { "Имя": "Келломяки (Колокольный холм)", "type": null, "height": 40.0982666015625, "photo id": null }, "geometry": { "type": "Point", "coordinates": [ 3317223.268367140553892, 8440263.802143091335893 ] } },
{ "type": "Feature", "properties": { "Имя": "Серенада", "type": null, "height": 63.332305908203125, "photo id": null }, "geometry": { "type": "Point", "coordinates": [ 3311683.829264762811363, 8446549.352084748446941 ] } },
{ "type": "Feature", "properties": { "Имя": "Брусничная", "type": null, "height": 65.421676635742188, "photo id": null }, "geometry": { "type": "Point", "coordinates": [ 3313531.064894986338913, 8445799.237148854881525 ] } },
{ "type": "Feature", "properties": { "Имя": "Марьина ", "type": null, "height": 28.331336975097656, "photo id": null }, "geometry": { "type": "Point", "coordinates": [ 3288435.755488004535437, 8444704.448730640113354 ] } },
{ "type": "Feature", "properties": { "Имя": "Стеклянная горка", "type": null, "height": 12.025175094604492, "photo id": null }, "geometry": { "type": "Point", "coordinates": [ 3372281.624847922474146, 8403309.606639744713902 ] } },
{ "type": "Feature", "properties": { "Имя": "Поклонная", "type": null, "height": 32.238254547119141, "photo id": null }, "geometry": { "type": "Point", "coordinates": [ 3375315.68674041563645, 8406580.473362868651748 ] } },
{ "type": "Feature", "properties": { "Имя": "Яковлевка", "type": null, "height": 62.208431243896484, "photo id": null }, "geometry": { "type": "Point", "coordinates": [ 3282642.911826103925705, 8463533.45318141579628 ] } },
{ "type": "Feature", "properties": { "Имя": "Высокая", "type": null, "height": 81.8602294921875, "photo id": null }, "geometry": { "type": "Point", "coordinates": [ 3311635.182647285982966, 8464539.410029601305723 ] } },
{ "type": "Feature", "properties": { "Имя": "Рощинская", "type": null, "height": 71.3121337890625, "photo id": null }, "geometry": { "type": "Point", "coordinates": [ 3294304.29640364414081, 8461989.861497631296515 ] } },
{ "type": "Feature", "properties": { "Имя": "Крестовая", "type": null, "height": 68.698333740234375, "photo id": null }, "geometry": { "type": "Point", "coordinates": [ 3397132.893036661203951, 8437266.133054830133915 ] } },
{ "type": "Feature", "properties": { "Имя": "Ненаглядная", "type": null, "height": 70.876106262207031, "photo id": null }, "geometry": { "type": "Point", "coordinates": [ 3395731.046689101029187, 8430576.444924123585224 ] } },
{ "type": "Feature", "properties": { "Имя": "Осельская", "type": null, "height": 138.11947631835938, "photo id": null }, "geometry": { "type": "Point", "coordinates": [ 3389113.102961441036314, 8453162.996482128277421 ] } },
{ "type": "Feature", "properties": { "Имя": "Малиновая ", "type": null, "height": 82.468498229980469, "photo id": null }, "geometry": { "type": "Point", "coordinates": [ 3392928.133230417966843, 8437494.389464773237705 ] } },
{ "type": "Feature", "properties": { "Имя": "Троицкая", "type": 1, "height": 49.43048095703125, "photo id": "1201" }, "geometry": { "type": "Point", "coordinates": [ 3321997.802725741174072, 8370189.57274666428566 ] } },
{ "type": "Feature", "properties": { "Имя": "Токсовские высоты", "type": null, "height": 96.430747985839844, "photo id": null }, "geometry": { "type": "Point", "coordinates": [ 3398256.218018255662173, 8436895.343384625390172 ] } },
{ "type": "Feature", "properties": { "Имя": "Старый Парнас", "type": 1, "height": 49.832839965820312, "photo id": null }, "geometry": { "type": "Point", "coordinates": [ 3373156.789790115319192, 8416643.336080268025398 ] } },
{ "type": "Feature", "properties": { "Имя": "Ропшинские высоты", "type": 1, "height": 131.10806274414062, "photo id": null }, "geometry": { "type": "Point", "coordinates": [ 3319539.852284909691662, 8341012.767982835881412 ] } },
{ "type": "Feature", "properties": { "Имя": "Сторожевая ", "type": 1, "height": 57.444728851318359, "photo id": null }, "geometry": { "type": "Point", "coordinates": [ 3376984.527049736119807, 8438412.876417882740498 ] } },
{ "type": "Feature", "properties": { "Имя": "Юкки", "type": null, "height": 69.728988647460938, "photo id": null }, "geometry": { "type": "Point", "coordinates": [ 3374431.286640207283199, 8424080.693368054926395 ] } },
{ "type": "Feature", "properties": { "Имя": "Каллеловские высоты", "type": 1, "height": 111.51687622070312, "photo id": null }, "geometry": { "type": "Point", "coordinates": [ 3337578.832304431125522, 8456743.388890899717808 ] } },
{ "type": "Feature", "properties": { "Имя": "Большеижорская", "type": null, "height": 17.857025146484375, "photo id": null }, "geometry": { "type": "Point", "coordinates": [ 3290490.673869893420488, 8386706.482396326027811 ] } },
{ "type": "Feature", "properties": { "Имя": "Белая горка", "type": null, "height": 10.975874900817871, "photo id": null }, "geometry": { "type": "Point", "coordinates": [ 3336956.833579607773572, 8416619.798957960680127 ] } },
{ "type": "Feature", "properties": { "Имя": "Смерть", "type": null, "height": 23.19078254699707, "photo id": null }, "geometry": { "type": "Point", "coordinates": [ 3291811.63036580150947, 8444351.42711815983057 ] } },
{ "type": "Feature", "properties": { "Имя": "Парнас", "type": null, "height": 14.883561134338379, "photo id": null }, "geometry": { "type": "Point", "coordinates": [ 3339621.369516684208065, 8369162.262111931107938 ] } },
{ "type": "Feature", "properties": { "Имя": "Лазурка", "type": null, "height": 39.625438690185547, "photo id": null }, "geometry": { "type": "Point", "coordinates": [ 3429679.662389704026282, 8371378.571938242763281 ] } },
{ "type": "Feature", "properties": { "Имя": "Катальная горка", "type": null, "height": 23.140552520751953, "photo id": null }, "geometry": { "type": "Point", "coordinates": [ 3311132.944129280280322, 8381142.146107500419021 ] } },
{ "type": "Feature", "properties": { "Имя": "Гайдабуровская ", "type": null, "height": 15.546371459960938, "photo id": null }, "geometry": { "type": "Point", "coordinates": [ 3336744.425417229533195, 8414388.263793217018247 ] } },
{ "type": "Feature", "properties": { "Имя": "Бабигонский холм", "type": null, "height": 43.103668212890625, "photo id": "1202" }, "geometry": { "type": "Point", "coordinates": [ 3326096.049364946316928, 8366076.363777339458466 ] } },
{ "type": "Feature", "properties": { "Имя": "Колтушская возвышенность ", "type": 1, "height": 42.217212677001953, "photo id": null }, "geometry": { "type": "Point", "coordinates": [ 3408116.644438108429313, 8385676.001874478533864 ] } },
{ "type": "Feature", "properties": { "Имя": "Пулковские высоты ", "type": 1, "height": 55.928909301757812, "photo id": null }, "geometry": { "type": "Point", "coordinates": [ 3376658.567011998966336, 8348966.680800407193601 ] } },
{ "type": "Feature", "properties": { "Имя": "Бронная", "type": null, "height": 48.350528717041016, "photo id": null }, "geometry": { "type": "Point", "coordinates": [ 3298233.555991838686168, 8381817.409882353618741 ] } },
{ "type": "Feature", "properties": { "Имя": "Дудергофские высоты", "type": 1, "height": 113.73129272460938, "photo id": null }, "geometry": { "type": "Point", "coordinates": [ 3359637.693180417641997, 8334946.430331478826702 ] } },
{ "type": "Feature", "properties": { "Имя": "Пухтолова", "type": null, "height": 68.065177917480469, "photo id": null }, "geometry": { "type": "Point", "coordinates": [ 3303900.370468496810645, 8451094.24790839292109 ] } },
{ "type": "Feature", "properties": { "Имя": "Аннинские высоты", "type": 1, "height": 98.133308410644531, "photo id": null }, "geometry": { "type": "Point", "coordinates": [ 3344454.95151421520859, 8345040.06626979727298 ] } },
{ "type": "Feature", "properties": { "Имя": "Лемболовская возвышенность", "type": 1, "height": 102.73847198486328, "photo id": null }, "geometry": { "type": "Point", "coordinates": [ 3355075.928537284955382, 8449325.800970051437616 ] } },
{ "type": "Feature", "properties": { "Имя": "Кудыкина", "type": null, "height": 51.956954956054688, "photo id": null }, "geometry": { "type": "Point", "coordinates": [ 3352200.242879632394761, 8437218.39286945015192 ] } },
{ "type": "Feature", "properties": { "Имя": "Ленинские (Сомерикомяки)", "type": null, "height": 61.720241546630859, "photo id": null }, "geometry": { "type": "Point", "coordinates": [ 3320169.348989161197096, 8454643.33284953981638 ] } },
{ "type": "Feature", "properties": { "Имя": "Чертова ", "type": null, "height": 46.501548767089844, "photo id": null }, "geometry": { "type": "Point", "coordinates": [ 3373501.033186744432896, 8423130.733864711597562 ] } },
{ "type": "Feature", "properties": { "Имя": "Золотая ", "type": null, "height": 57.753463745117188, "photo id": null }, "geometry": { "type": "Point", "coordinates": [ 3377601.760180407669395, 8438146.741485023871064 ] } },
{ "type": "Feature", "properties": { "Имя": "Старая крепость (Линнамяки)", "type": null, "height": 105.48336029052734, "photo id": null }, "geometry": { "type": "Point", "coordinates": [ 3312487.413273735437542, 8479527.599895473569632 ] } },
{ "type": "Feature", "properties": { "Имя": "Лысая", "type": null, "height": 56.404502868652344, "photo id": null }, "geometry": { "type": "Point", "coordinates": [ 3418686.496623326092958, 8390256.197627583518624 ] } },
{ "type": "Feature", "properties": { "Имя": "Крутая (Куйппамяки)", "type": null, "height": 63.473579406738281, "photo id": null }, "geometry": { "type": "Point", "coordinates": [ 3322090.761132749263197, 8454980.713083317503333 ] } },
{ "type": "Feature", "properties": { "Имя": " Решетниковская (Кулёмяки)", "type": null, "height": 72.176124572753906, "photo id": null }, "geometry": { "type": "Point", "coordinates": [ 3308141.792163447942585, 8453396.398083940148354 ] } },
{ "type": "Feature", "properties": { "Имя": "Школьная ", "type": null, "height": 88.620048522949219, "photo id": null }, "geometry": { "type": "Point", "coordinates": [ 3350259.831843336112797, 8341958.329882292076945 ] } },
{ "type": "Feature", "properties": { "Имя": "Дедова ", "type": null, "height": 114.42702484130859, "photo id": null }, "geometry": { "type": "Point", "coordinates": [ 3273865.362054636701941, 8346566.337546117603779 ] } },
{ "type": "Feature", "properties": { "Имя": "Старая Пустошь", "type": null, "height": 51.041698455810547, "photo id": null }, "geometry": { "type": "Point", "coordinates": [ 3414701.969389082398266, 8392853.824507480487227 ] } },
{ "type": "Feature", "properties": { "Имя": "Кузьмоловские горы", "type": null, "height": 38.874687194824219, "photo id": null }, "geometry": { "type": "Point", "coordinates": [ 3394939.65372067084536, 8426179.773173255845904 ] } },
{ "type": "Feature", "properties": { "Имя": "Чугуева", "type": null, "height": 16.166379928588867, "photo id": null }, "geometry": { "type": "Point", "coordinates": [ 3328355.481483926530927, 8434752.648297941312194 ] } },
{ "type": "Feature", "properties": { "Имя": "Гумбург-гора", "type": null, "height": 56.747238159179688, "photo id": null }, "geometry": { "type": "Point", "coordinates": [ 3416753.582345716189593, 8378899.857699070125818 ] } },
{ "type": "Feature", "properties": { "Имя": "Хепоярви ", "type": null, "height": 91.502632141113281, "photo id": null }, "geometry": { "type": "Point", "coordinates": [ 3398692.281213846523315, 8427892.628288690000772 ] } },
{ "type": "Feature", "properties": { "Имя": "Мистоловские холмы", "type": null, "height": 63.497154235839844, "photo id": null }, "geometry": { "type": "Point", "coordinates": [ 3386652.083005475345999, 8426264.694698473438621 ] } },
{ "type": "Feature", "properties": { "Имя": "Охтинские высоты", "type": null, "height": 50.383251190185547, "photo id": null }, "geometry": { "type": "Point", "coordinates": [ 3388520.783300869632512, 8428156.586243389174342 ] } },
{ "type": "Feature", "properties": { "Имя": "Белоостровская высота", "type": null, "height": 56.840724945068359, "photo id": null }, "geometry": { "type": "Point", "coordinates": [ 3343370.490108650177717, 8441986.409638177603483 ] } },
{ "type": "Feature", "properties": { "Имя": "Корабсельская", "type": null, "height": 52.490505218505859, "photo id": null }, "geometry": { "type": "Point", "coordinates": [ 3385559.545031685847789, 8422774.695094119757414 ] } },
{ "type": "Feature", "properties": { "Имя": "Киурумяки", "type": null, "height": 61.887729644775391, "photo id": null }, "geometry": { "type": "Point", "coordinates": [ 3405048.50100953085348, 8429547.081243371590972 ] } },
{ "type": "Feature", "properties": { "Имя": "Таскунмяки", "type": null, "height": 73.711112976074219, "photo id": null }, "geometry": { "type": "Point", "coordinates": [ 3404885.866420701146126, 8434203.373180026188493 ] } },
{ "type": "Feature", "properties": { "Имя": "Каменная ", "type": null, "height": 57.570644378662109, "photo id": null }, "geometry": { "type": "Point", "coordinates": [ 3296839.324387351516634, 8448923.027762314304709 ] } },
{ "type": "Feature", "properties": { "Имя": "Семейная", "type": null, "height": 104.71052551269531, "photo id": null }, "geometry": { "type": "Point", "coordinates": [ 3400318.525961806066334, 8436240.623287156224251 ] } },
{ "type": "Feature", "properties": { "Имя": "Понтуксен мяки", "type": null, "height": 84.589256286621094, "photo id": null }, "geometry": { "type": "Point", "coordinates": [ 3399060.611518265213817, 8438370.03363617695868 ] } },
{ "type": "Feature", "properties": { "Имя": "Комендантская ", "type": null, "height": 79.529449462890625, "photo id": null }, "geometry": { "type": "Point", "coordinates": [ 3397981.073355755768716, 8434935.391570560634136 ] } },
{ "type": "Feature", "properties": { "Имя": "Сосновая ", "type": null, "height": 76.961936950683594, "photo id": null }, "geometry": { "type": "Point", "coordinates": [ 3401210.151249091606587, 8437286.897632736712694 ] } },
{ "type": "Feature", "properties": { "Имя": "Чайная ", "type": null, "height": 89.241676330566406, "photo id": null }, "geometry": { "type": "Point", "coordinates": [ 3401213.497704301960766, 8438585.322254782542586 ] } },
{ "type": "Feature", "properties": { "Имя": "Пелёвина ", "type": null, "height": 38.098678588867188, "photo id": null }, "geometry": { "type": "Point", "coordinates": [ 3369912.584702343214303, 8417278.26426131464541 ] } },
{ "type": "Feature", "properties": { "Имя": "Майоровка", "type": null, "height": 34.596996307373047, "photo id": null }, "geometry": { "type": "Point", "coordinates": [ 3372663.89513502176851, 8415716.439537957310677 ] } },
{ "type": "Feature", "properties": { "Имя": "Туккова ", "type": null, "height": 32.068534851074219, "photo id": null }, "geometry": { "type": "Point", "coordinates": [ 3368873.034166472498327, 8417735.566540319472551 ] } },
{ "type": "Feature", "properties": { "Имя": "Вокзальная ", "type": null, "height": 40.435642242431641, "photo id": null }, "geometry": { "type": "Point", "coordinates": [ 3368880.530925144907087, 8418297.823440730571747 ] } },
{ "type": "Feature", "properties": { "Имя": "Малые горки", "type": null, "height": 90.292488098144531, "photo id": null }, "geometry": { "type": "Point", "coordinates": [ 3325217.057789025828242, 8336309.316766790114343 ] } },
{ "type": "Feature", "properties": { "Имя": "Холм Славы", "type": null, "height": 6.248258113861084, "photo id": null }, "geometry": { "type": "Point", "coordinates": [ 3423567.375917884986848, 8349221.184185717254877 ] } },
{ "type": "Feature", "properties": { "Имя": "Глиняная горка", "type": null, "height": 45.160717010498047, "photo id": null }, "geometry": { "type": "Point", "coordinates": [ 3371160.052083756309003, 8351422.529224545694888 ] } },
{ "type": "Feature", "properties": { "Имя": "Коркинские холмы", "type": null, "height": 69.582832336425781, "photo id": null }, "geometry": { "type": "Point", "coordinates": [ 3418279.627118234056979, 8385160.534688608720899 ] } },
{ "type": "Feature", "properties": { "Имя": "Сухая", "type": null, "height": 77.673385620117188, "photo id": null }, "geometry": { "type": "Point", "coordinates": [ 3309710.21261664154008, 8471693.875500150024891 ] } },
{ "type": "Feature", "properties": { "Имя": "Трифонова горка", "type": null, "height": 65.64703369140625, "photo id": null }, "geometry": { "type": "Point", "coordinates": [ 3384403.43134080665186, 8335708.183009842410684 ] } },
{ "type": "Feature", "properties": { "Имя": "Офицерская", "type": null, "height": 104.39600372314453, "photo id": null }, "geometry": { "type": "Point", "coordinates": [ 3356410.553512119688094, 8343114.418480092659593 ] } },
{ "type": "Feature", "properties": { "Имя": "Лебяжья ", "type": null, "height": 95.78045654296875, "photo id": null }, "geometry": { "type": "Point", "coordinates": [ 3291582.657305188942701, 8470836.429963773116469 ] } },
{ "type": "Feature", "properties": { "Имя": "Холм Кавигонт", "type": null, "height": 60.900093078613281, "photo id": null }, "geometry": { "type": "Point", "coordinates": [ 3336892.793474498670548, 8348433.943481932394207 ] } },
{ "type": "Feature", "properties": { "Имя": "Бугры", "type": null, "height": 34.880893707275391, "photo id": null }, "geometry": { "type": "Point", "coordinates": [ 3383533.635758657939732, 8415492.374155083671212 ] } },
{ "type": "Feature", "properties": { "Имя": "Мустосенмяки ", "type": null, "height": 78.513809204101562, "photo id": null }, "geometry": { "type": "Point", "coordinates": [ 3404653.072134962305427, 8431457.206367898732424 ] } },
{ "type": "Feature", "properties": { "Имя": "Копорская", "type": null, "height": 121.19728088378906, "photo id": null }, "geometry": { "type": "Point", "coordinates": [ 3336772.492523089982569, 8342635.82610603608191 ] } },
{ "type": "Feature", "properties": { "Имя": "Сювемяки", "type": null, "height": 72.555770874023438, "photo id": null }, "geometry": { "type": "Point", "coordinates": [ 3403832.780924972612411, 8427417.727699225768447 ] } },
{ "type": "Feature", "properties": { "Имя": "Царский валик", "type": null, "height": 101.0, "photo id": null }, "geometry": { "type": "Point", "coordinates": [ 3347449.286411481443793, 8333646.481716829352081 ] } },
{ "type": "Feature", "properties": { "Имя": "Райволовская гряда (Райволанселька)", "type": null, "height": 90.0, "photo id": null }, "geometry": { "type": "Point", "coordinates": [ 3297384.565210666041821, 8454093.756792344152927 ] } },
{ "type": "Feature", "properties": { "Имя": "Катальная горка", "type": null, "height": 14.0, "photo id": null }, "geometry": { "type": "Point", "coordinates": [ 3395243.545083424542099, 8389643.291278153657913 ] } },
{ "type": "Feature", "properties": { "Имя": "Недоступная", "type": null, "height": 84.0, "photo id": null }, "geometry": { "type": "Point", "coordinates": [ 3267936.934805653989315, 8476902.801285341382027 ] } },
{ "type": "Feature", "properties": { "Имя": "Таммиселька ", "type": null, "height": 93.988670349121094, "photo id": null }, "geometry": { "type": "Point", "coordinates": [ 3324932.555366756394506, 8459477.424551580101252 ] } },
{ "type": "Feature", "properties": { "Имя": "Pohjalaisen mäellä", "type": null, "height": 94.091506958007812, "photo id": null }, "geometry": { "type": "Point", "coordinates": [ 3324761.809553778730333, 8459680.798732340335846 ] } },
{ "type": "Feature", "properties": { "Имя": "Куккамяки (Цветочный холм)", "type": null, "height": 31.0, "photo id": null }, "geometry": { "type": "Point", "coordinates": [ 3308280.704315060283989, 8443030.767321102321148 ] } },
{ "type": "Feature", "properties": { "Имя": "Кютелямяки", "type": null, "height": 51.410213470458984, "photo id": null }, "geometry": { "type": "Point", "coordinates": [ 3379363.953260097187012, 8431387.696454744786024 ] } },
{ "type": "Feature", "properties": { "Имя": "Нокеломяки", "type": null, "height": 44.581619262695312, "photo id": null }, "geometry": { "type": "Point", "coordinates": [ 3380199.532931223046035, 8430452.915544124320149 ] } },
{ "type": "Feature", "properties": { "Имя": "Пёкколомяки", "type": null, "height": 50.472866058349609, "photo id": null }, "geometry": { "type": "Point", "coordinates": [ 3378570.343344142194837, 8430208.727877676486969 ] } },
{ "type": "Feature", "properties": { "Имя": "Больничная горка", "type": null, "height": 10.0, "photo id": null }, "geometry": { "type": "Point", "coordinates": [ 3344700.750921383500099, 8367242.012919373810291 ] } },
{ "type": "Feature", "properties": { "Имя": "Чертова горка", "type": null, "height": 10.0, "photo id": null }, "geometry": { "type": "Point", "coordinates": [ 3329483.535145101603121, 8372123.2226267978549 ] } },
{ "type": "Feature", "properties": { "Имя": "Илимовская гора", "type": null, "height": 21.0, "photo id": null }, "geometry": { "type": "Point", "coordinates": [ 3315692.019233858212829, 8380149.62035050522536 ] } },
{ "type": "Feature", "properties": { "Имя": "Ряйконемяки", "type": null, "height": 79.097175598144531, "photo id": null }, "geometry": { "type": "Point", "coordinates": [ 3404095.196384143549949, 8441801.959822587668896 ] } },
{ "type": "Feature", "properties": { "Имя": "Кякесенмяки", "type": null, "height": 101.51716613769531, "photo id": null }, "geometry": { "type": "Point", "coordinates": [ 3401589.370151422917843, 8443383.043701194226742 ] } },
{ "type": "Feature", "properties": { "Имя": "Ленжуомяки ", "type": null, "height": 77.370674133300781, "photo id": null }, "geometry": { "type": "Point", "coordinates": [ 3399245.937697960529476, 8443748.429704524576664 ] } },
{ "type": "Feature", "properties": { "Имя": "Иткомяки", "type": null, "height": 92.629341125488281, "photo id": null }, "geometry": { "type": "Point", "coordinates": [ 3399394.798662279266864, 8445128.776828216388822 ] } },
{ "type": "Feature", "properties": { "Имя": "Тарымяки", "type": null, "height": 77.875022888183594, "photo id": null }, "geometry": { "type": "Point", "coordinates": [ 3399340.667402526829392, 8443110.131933270022273 ] } },
{ "type": "Feature", "properties": { "Имя": "Рандиямяки", "type": null, "height": 89.642036437988281, "photo id": null }, "geometry": { "type": "Point", "coordinates": [ 3398842.208718970883638, 8445776.096476091071963 ] } },
{ "type": "Feature", "properties": { "Имя": "Раколайнемяки ", "type": null, "height": 94.24298095703125, "photo id": null }, "geometry": { "type": "Point", "coordinates": [ 3404029.787778607103974, 8445712.943339716643095 ] } },
{ "type": "Feature", "properties": { "Имя": "Вилкимяки", "type": null, "height": 90.378158569335938, "photo id": null }, "geometry": { "type": "Point", "coordinates": [ 3404237.290940992068499, 8434823.538252791389823 ] } },
{ "type": "Feature", "properties": { "Имя": "Луискиринмяки ", "type": null, "height": 63.063777923583984, "photo id": null }, "geometry": { "type": "Point", "coordinates": [ 3406131.885032340418547, 8430278.767902720719576 ] } },
{ "type": "Feature", "properties": { "Имя": "Кеземяки", "type": null, "height": 78.60858154296875, "photo id": null }, "geometry": { "type": "Point", "coordinates": [ 3410587.854414379224181, 8435339.97517410852015 ] } },
{ "type": "Feature", "properties": { "Имя": "Ногелайсен-Мяки", "type": null, "height": 88.928955078125, "photo id": null }, "geometry": { "type": "Point", "coordinates": [ 3411653.254089692141861, 8439255.244946366176009 ] } },
{ "type": "Feature", "properties": { "Имя": "Мойсионмяки", "type": null, "height": 64.503448486328125, "photo id": null }, "geometry": { "type": "Point", "coordinates": [ 3409450.118832860141993, 8433658.640348482877016 ] } },
{ "type": "Feature", "properties": { "Имя": "Кемпи-Мяки", "type": null, "height": 87.533729553222656, "photo id": null }, "geometry": { "type": "Point", "coordinates": [ 3412186.362989611458033, 8438752.155688092112541 ] } },
{ "type": "Feature", "properties": { "Имя": "Кивиккомяки", "type": null, "height": 42.600753784179688, "photo id": null }, "geometry": { "type": "Point", "coordinates": [ 3289130.272900174837559, 8447936.610546594485641 ] } },
{ "type": "Feature", "properties": { "Имя": "Пугелан-Мяки", "type": null, "height": 87.874916076660156, "photo id": null }, "geometry": { "type": "Point", "coordinates": [ 3412387.51408130954951, 8439925.511116124689579 ] } },
{ "type": "Feature", "properties": { "Имя": "Пурнунмяки", "type": null, "height": 51.661735534667969, "photo id": null }, "geometry": { "type": "Point", "coordinates": [ 3419085.941529064439237, 8444443.85440419614315 ] } },
{ "type": "Feature", "properties": { "Имя": "Путронмяки", "type": null, "height": 17.731235504150391, "photo id": null }, "geometry": { "type": "Point", "coordinates": [ 3403730.538455215748399, 8332214.334962722845376 ] } },
{ "type": "Feature", "properties": { "Имя": "Ревонмяки", "type": null, "height": 10.913331031799316, "photo id": null }, "geometry": { "type": "Point", "coordinates": [ 3337502.6407091319561, 8408667.505549030378461 ] } },
{ "type": "Feature", "properties": { "Имя": "Питке-Мяки", "type": null, "height": 54.973968505859375, "photo id": null }, "geometry": { "type": "Point", "coordinates": [ 3416042.057243184652179, 8376552.428190901875496 ] } },
{ "type": "Feature", "properties": { "Имя": "Торккелин-мяки", "type": null, "height": 26.295415878295898, "photo id": null }, "geometry": { "type": "Point", "coordinates": [ 3297871.691747051198035, 8443646.195161985233426 ] } },
{ "type": "Feature", "properties": { "Имя": "Лассымяки", "type": null, "height": 91.635795593261719, "photo id": null }, "geometry": { "type": "Point", "coordinates": [ 3404011.644433772191405, 8447885.867057202383876 ] } },
{ "type": "Feature", "properties": { "Имя": "Хумоземяки", "type": null, "height": 95.215217590332031, "photo id": null }, "geometry": { "type": "Point", "coordinates": [ 3404757.129390466026962, 8454532.391758721321821 ] } },
{ "type": "Feature", "properties": { "Имя": "Поккизенмяки", "type": null, "height": 89.504280090332031, "photo id": null }, "geometry": { "type": "Point", "coordinates": [ 3400866.372768292669207, 8432164.884149238467216 ] } },
{ "type": "Feature", "properties": { "Имя": "Киурумяки", "type": null, "height": 90.607017517089844, "photo id": null }, "geometry": { "type": "Point", "coordinates": [ 3402453.08255813177675, 8431342.66846027597785 ] } },
{ "type": "Feature", "properties": { "Имя": "Пуккеланмяки", "type": null, "height": 94.024017333984375, "photo id": null }, "geometry": { "type": "Point", "coordinates": [ 3402129.665263267699629, 8432327.87519515119493 ] } },
{ "type": "Feature", "properties": { "Имя": "Кярпянмяки", "type": null, "height": 80.617317199707031, "photo id": null }, "geometry": { "type": "Point", "coordinates": [ 3412739.93127339752391, 8438647.213110027834773 ] } },
{ "type": "Feature", "properties": { "Имя": "Систаканмяки", "type": null, "height": 43.935085296630859, "photo id": null }, "geometry": { "type": "Point", "coordinates": [ 3421770.884488835465163, 8375931.055754945613444 ] } },
{ "type": "Feature", "properties": { "Имя": "Каарленмяки", "type": null, "height": 20.447723388671875, "photo id": null }, "geometry": { "type": "Point", "coordinates": [ 3284283.154065855313092, 8440307.852114921435714 ] } },
{ "type": "Feature", "properties": { "Имя": "Суденмяки", "type": null, "height": 16.835674285888672, "photo id": null }, "geometry": { "type": "Point", "coordinates": [ 3287858.474112806841731, 8443310.134853569790721 ] } },
{ "type": "Feature", "properties": { "Имя": "Лаволанмяки", "type": null, "height": 98.656097412109375, "photo id": null }, "geometry": { "type": "Point", "coordinates": [ 3316833.106876636389643, 8462459.814337879419327 ] } },
{ "type": "Feature", "properties": { "Имя": "Вехнамяки", "type": null, "height": 91.857368469238281, "photo id": null }, "geometry": { "type": "Point", "coordinates": [ 3320062.816112048458308, 8462207.574039686471224 ] } },
{ "type": "Feature", "properties": { "Имя": "Ракколанмяки", "type": null, "height": 99.176620483398438, "photo id": null }, "geometry": { "type": "Point", "coordinates": [ 3319091.624624247662723, 8461999.900981577113271 ] } },
{ "type": "Feature", "properties": { "Имя": "Кайвомяки", "type": null, "height": 33.694400787353516, "photo id": null }, "geometry": { "type": "Point", "coordinates": [ 3286866.929217943456024, 8445908.022965496405959 ] } },
{ "type": "Feature", "properties": { "Имя": "Унимяки", "type": null, "height": 32.922447204589844, "photo id": null }, "geometry": { "type": "Point", "coordinates": [ 3286499.255603493656963, 8446261.712723888456821 ] } },
{ "type": "Feature", "properties": { "Имя": "Тееренмяки", "type": null, "height": 39.702651977539062, "photo id": null }, "geometry": { "type": "Point", "coordinates": [ 3290268.04766466608271, 8446912.243302926421165 ] } },
{ "type": "Feature", "properties": { "Имя": "Юхимяки", "type": null, "height": 20.391603469848633, "photo id": null }, "geometry": { "type": "Point", "coordinates": [ 3269997.364219451788813, 8392698.128579201176763 ] } },
{ "type": "Feature", "properties": { "Имя": "Канкуринмяки", "type": null, "height": 43.641674041748047, "photo id": null }, "geometry": { "type": "Point", "coordinates": [ 3420279.462735164910555, 8376270.933637030422688 ] } },
{ "type": "Feature", "properties": { "Имя": "Ленимяки", "type": null, "height": 118.39987182617188, "photo id": null }, "geometry": { "type": "Point", "coordinates": [ 3362629.453017671592534, 8335807.606508927419782 ] } },
{ "type": "Feature", "properties": { "Имя": "Янисьмяки", "type": null, "height": 122.94966888427734, "photo id": null }, "geometry": { "type": "Point", "coordinates": [ 3362443.725190918426961, 8334670.037145524285734 ] } },
{ "type": "Feature", "properties": { "Имя": "Лемедимяки", "type": null, "height": 117.892578125, "photo id": null }, "geometry": { "type": "Point", "coordinates": [ 3362903.925946769770235, 8335242.135755716823041 ] } },
{ "type": "Feature", "properties": { "Имя": "Пулькизимяки", "type": null, "height": 111.70240020751953, "photo id": null }, "geometry": { "type": "Point", "coordinates": [ 3363578.088230445515364, 8334364.673188854008913 ] } },
{ "type": "Feature", "properties": { "Имя": "Ховинмяки", "type": null, "height": 24.571430206298828, "photo id": null }, "geometry": { "type": "Point", "coordinates": [ 3403482.566519336774945, 8328868.165719232521951 ] } },
{ "type": "Feature", "properties": { "Имя": "Иоут-селькя", "type": null, "height": 82.47991943359375, "photo id": null }, "geometry": { "type": "Point", "coordinates": [ 3320094.544588172342628, 8460483.911250725388527 ] } },
{ "type": "Feature", "properties": { "Имя": "Олликайсмяки", "type": null, "height": 51.333858489990234, "photo id": null }, "geometry": { "type": "Point", "coordinates": [ 3413312.926686143502593, 8393087.998816262930632 ] } },
{ "type": "Feature", "properties": { "Имя": "Коломяги", "type": null, "height": 17.922887802124023, "photo id": null }, "geometry": { "type": "Point", "coordinates": [ 3371757.838955611456186, 8404351.280876791104674 ] } },
{ "type": "Feature", "properties": { "Имя": "Пудомяги", "type": null, "height": 66.952995300292969, "photo id": null }, "geometry": { "type": "Point", "coordinates": [ 3376579.832403003238142, 8312357.749210133217275 ] } },
{ "type": "Feature", "properties": { "Имя": "Саарселькя", "type": null, "height": 80.805252075195312, "photo id": null }, "geometry": { "type": "Point", "coordinates": [ 3367674.484667833894491, 8443277.092530805617571 ] } },
{ "type": "Feature", "properties": { "Имя": "Петаямяки", "type": null, "height": 76.215248107910156, "photo id": null }, "geometry": { "type": "Point", "coordinates": [ 3374274.322950326837599, 8444479.427961573004723 ] } },
{ "type": "Feature", "properties": { "Имя": "Коннунселькя", "type": null, "height": 79.801483154296875, "photo id": null }, "geometry": { "type": "Point", "coordinates": [ 3338299.756132597569376, 8447368.834810964763165 ] } },
{ "type": "Feature", "properties": { "Имя": "Корканмяки ", "type": null, "height": 77.7349853515625, "photo id": null }, "geometry": { "type": "Point", "coordinates": [ 3364629.6034368830733, 8314488.021633822470903 ] } },
{ "type": "Feature", "properties": { "Имя": "Никкозимяки", "type": null, "height": 116.35817718505859, "photo id": null }, "geometry": { "type": "Point", "coordinates": [ 3322841.849780065473169, 8328799.220037874765694 ] } },
{ "type": "Feature", "properties": { "Имя": "Кивисенмяки", "type": null, "height": 125.31963348388672, "photo id": null }, "geometry": { "type": "Point", "coordinates": [ 3322276.900649001821876, 8327315.393791921436787 ] } },
{ "type": "Feature", "properties": { "Имя": "Олосинмяки", "type": null, "height": 28.275461196899414, "photo id": null }, "geometry": { "type": "Point", "coordinates": [ 3404148.592139692977071, 8327033.096217054873705 ] } },
{ "type": "Feature", "properties": { "Имя": "Райволанселькя", "type": null, "height": 75.846466064453125, "photo id": null }, "geometry": { "type": "Point", "coordinates": [ 3295911.777672264259309, 8455385.457952866330743 ] } },
{ "type": "Feature", "properties": { "Имя": "Вуоримяки", "type": null, "height": 84.430580139160156, "photo id": null }, "geometry": { "type": "Point", "coordinates": [ 3311313.896839952562004, 8464948.073525266721845 ] } },
{ "type": "Feature", "properties": { "Имя": "Холмамяки", "type": null, "height": 110.31745147705078, "photo id": null }, "geometry": { "type": "Point", "coordinates": [ 3318564.772784230764955, 8463321.725655402988195 ] } },
{ "type": "Feature", "properties": { "Имя": "Карьяланмяки", "type": null, "height": 14.956009864807129, "photo id": null }, "geometry": { "type": "Point", "coordinates": [ 3405382.889194395858794, 8380314.935328741557896 ] } },
{ "type": "Feature", "properties": { "Имя": "Койвумяки ", "type": null, "height": 70.850349426269531, "photo id": null }, "geometry": { "type": "Point", "coordinates": [ 3405776.862423018552363, 8430575.038803959265351 ] } },
{ "type": "Feature", "properties": { "Имя": "Ниверинмяки ", "type": null, "height": 78.513809204101562, "photo id": null }, "geometry": { "type": "Point", "coordinates": [ 3403734.251287593971938, 8430625.39593518525362 ] } },
{ "type": "Feature", "properties": { "Имя": "Куутерселька", "type": null, "height": 96.433341979980469, "photo id": null }, "geometry": { "type": "Point", "coordinates": [ 3291709.76226630108431, 8470807.74823765642941 ] } },
{ "type": "Feature", "properties": { "Имя": "Лемписенмяки", "type": null, "height": 78.434646606445312, "photo id": null }, "geometry": { "type": "Point", "coordinates": [ 3310640.361212289892137, 8470683.253762511536479 ] } },
{ "type": "Feature", "properties": { "Имя": "Сеппясенмяки", "type": null, "height": 78.481582641601562, "photo id": null }, "geometry": { "type": "Point", "coordinates": [ 3309791.64017691463232, 8470173.823914645239711 ] } },
{ "type": "Feature", "properties": { "Имя": "Хенттисенмяки", "type": null, "height": 78.915626525878906, "photo id": null }, "geometry": { "type": "Point", "coordinates": [ 3311392.426073668058962, 8470954.004394890740514 ] } },
{ "type": "Feature", "properties": { "Имя": "Мустомяки", "type": null, "height": 54.457469940185547, "photo id": null }, "geometry": { "type": "Point", "coordinates": [ 3282407.565341138280928, 8465822.05729522742331 ] } },
{ "type": "Feature", "properties": { "Имя": "Каурасенмяки", "type": null, "height": 78.106048583984375, "photo id": null }, "geometry": { "type": "Point", "coordinates": [ 3310408.337941435631365, 8470399.978885618969798 ] } },
{ "type": "Feature", "properties": { "Имя": "Таскунмяки", "type": null, "height": 73.711112976074219, "photo id": null }, "geometry": { "type": "Point", "coordinates": [ 3402711.594153966289014, 8435157.436633171513677 ] } },
{ "type": "Feature", "properties": { "Имя": "Коросенмяки", "type": null, "height": 75.795097351074219, "photo id": null }, "geometry": { "type": "Point", "coordinates": [ 3406197.733270090073347, 8431231.156929710879922 ] } },
{ "type": "Feature", "properties": { "Имя": "Кивиккомяки", "type": null, "height": 72.801673889160156, "photo id": null }, "geometry": { "type": "Point", "coordinates": [ 3290559.934767988044769, 8448489.119283156469464 ] } },
{ "type": "Feature", "properties": { "Имя": "Пеллонмяки", "type": null, "height": 37.234249114990234, "photo id": null }, "geometry": { "type": "Point", "coordinates": [ 3290122.805323884822428, 8446740.785124970600009 ] } },
{ "type": "Feature", "properties": { "Имя": "Песчаные холмы", "type": null, "height": 29.0, "photo id": null }, "geometry": { "type": "Point", "coordinates": [ 3388273.521130121778697, 8421204.486239172518253 ] } },
{ "type": "Feature", "properties": { "Имя": "Волчьи горы", "type": 69, "height": 57.893951416015625, "photo id": null }, "geometry": { "type": "Point", "coordinates": [ 3419332.814495298545808, 8417269.05897113494575 ] } },
{ "type": "Feature", "properties": { "Имя": "Пущина горка", "type": null, "height": 73.908958435058594, "photo id": null }, "geometry": { "type": "Point", "coordinates": [ 3389200.640192052815109, 8472034.67407887801528 ] } },
{ "type": "Feature", "properties": { "Имя": "Болгарский обрыв", "type": null, "height": 32.611175537109375, "photo id": null }, "geometry": { "type": "Point", "coordinates": [ 3319840.975208111107349, 8438917.616010485216975 ] } },
{ "type": "Feature", "properties": { "Имя": "Хампула Мяки", "type": null, "height": 79.694061279296875, "photo id": null }, "geometry": { "type": "Point", "coordinates": [ 3400054.763376260176301, 8432015.724633440375328 ] } },
{ "type": "Feature", "properties": { "Имя": "Келломяки", "type": null, "height": 95.0, "photo id": null }, "geometry": { "type": "Point", "coordinates": [ 3400546.875271724537015, 8431423.418764941394329 ] } },
{ "type": "Feature", "properties": { "Имя": "Капаканмяки", "type": null, "height": 71.0, "photo id": null }, "geometry": { "type": "Point", "coordinates": [ 3306155.95223433803767, 8378345.755498321726918 ] } },
{ "type": "Feature", "properties": { "Имя": "Ханникуисенмяки", "type": null, "height": 48.471645355224609, "photo id": null }, "geometry": { "type": "Point", "coordinates": [ 3415465.592424682807177, 8378605.533830471336842 ] } },
{ "type": "Feature", "properties": { "Имя": "Сопки", "type": null, "height": 24.0, "photo id": null }, "geometry": { "type": "Point", "coordinates": [ 3280015.052339934743941, 8451175.096845308318734 ] } },
{ "type": "Feature", "properties": { "Имя": "Симагинские высоты", "type": null, "height": 88.192764282226562, "photo id": null }, "geometry": { "type": "Point", "coordinates": [ 3323338.091400856617838, 8459938.096229515969753 ] } },
{ "type": "Feature", "properties": { "Имя": "Хиеккамяки", "type": null, "height": 72.897483825683594, "photo id": null }, "geometry": { "type": "Point", "coordinates": [ 3313136.579866541549563, 8460483.15891095250845 ] } },
{ "type": "Feature", "properties": { "Имя": "Хиетамяки", "type": null, "height": 120.0, "photo id": null }, "geometry": { "type": "Point", "coordinates": [ 3334550.638944293372333, 8340293.485048593953252 ] } },
{ "type": "Feature", "properties": { "Имя": "Пеккоземяки", "type": null, "height": 124.07215118408203, "photo id": null }, "geometry": { "type": "Point", "coordinates": [ 3362606.212935927789658, 8334233.816110954619944 ] } },
{ "type": "Feature", "properties": { "Имя": "Öljymäki", "type": null, "height": 60.0, "photo id": null }, "geometry": { "type": "Point", "coordinates": [ 3334975.9307, 8446239.243424117565155 ] } },
{ "type": "Feature", "properties": { "Имя": "Люйзамяки", "type": null, "height": 102.0, "photo id": null }, "geometry": { "type": "Point", "coordinates": [ 3368009.091813622042537, 8325944.291140732355416 ] } },
{ "type": "Feature", "properties": { "Имя": "Ансарейнмяки", "type": null, "height": 29.9815673828125, "photo id": null }, "geometry": { "type": "Point", "coordinates": [ 3427454.028974199667573, 8355036.280299999751151 ] } },
{ "type": "Feature", "properties": { "Имя": "Косая гора (Вяярямяки)", "type": null, "height": 18.0, "photo id": null }, "geometry": { "type": "Point", "coordinates": [ 3396960.644689799286425, 8380072.953577203676105 ] } },
{ "type": "Feature", "properties": { "Имя": "Мюллюмяки", "type": null, "height": 66.0, "photo id": null }, "geometry": { "type": "Point", "coordinates": [ 3334397.257330665364861, 8460022.77713818103075 ] } },
{ "type": "Feature", "properties": { "Имя": "Терваканкаанмяки", "type": null, "height": 80.0, "photo id": null }, "geometry": { "type": "Point", "coordinates": [ 3332817.983213471714407, 8459295.897908832877874 ] } },
{ "type": "Feature", "properties": { "Имя": "Viesoinmaki", "type": null, "height": 115.4, "photo id": null }, "geometry": { "type": "Point", "coordinates": [ 3330787.391806554514915, 8457946.073360864073038 ] } },
{ "type": "Feature", "properties": { "Имя": "Роккаланмяки ", "type": null, "height": 70.0, "photo id": null }, "geometry": { "type": "Point", "coordinates": [ 3314005.409038258250803, 8464546.173513755202293 ] } },
{ "type": "Feature", "properties": { "Имя": "Камппиланмаки", "type": null, "height": 84.0, "photo id": null }, "geometry": { "type": "Point", "coordinates": [ 3325631.945244479458779, 8458177.031859435141087 ] } },
{ "type": "Feature", "properties": { "Имя": "Пекосенмяки", "type": null, "height": 96.617660522460938, "photo id": null }, "geometry": { "type": "Point", "coordinates": [ 3325066.806861040182412, 8459699.516400007531047 ] } },
{ "type": "Feature", "properties": { "Имя": "Киуруланмаки", "type": null, "height": 94.0, "photo id": null }, "geometry": { "type": "Point", "coordinates": [ 3323384.950992083642632, 8459483.634151069447398 ] } },
{ "type": "Feature", "properties": { "Имя": "Хонкасуонмяки", "type": null, "height": 104.69834899902344, "photo id": null }, "geometry": { "type": "Point", "coordinates": [ 3324103.808308242354542, 8461592.734389988705516 ] } },
{ "type": "Feature", "properties": { "Имя": "Ханникяйсенмяки", "type": null, "height": 105.0, "photo id": null }, "geometry": { "type": "Point", "coordinates": [ 3325679.416954036336392, 8460317.779904725030065 ] } },
{ "type": "Feature", "properties": { "Имя": "Тиканмяки", "type": null, "height": 91.26483154296875, "photo id": null }, "geometry": { "type": "Point", "coordinates": [ 3320296.789632692467421, 8461223.101878240704536 ] } },
{ "type": "Feature", "properties": { "Имя": "Кивимяки", "type": null, "height": 99.634254455566406, "photo id": null }, "geometry": { "type": "Point", "coordinates": [ 3336033.183305564336479, 8461941.130711872130632 ] } },
{ "type": "Feature", "properties": { "Имя": "Коккоахонмяки", "type": null, "height": 100.75796508789062, "photo id": null }, "geometry": { "type": "Point", "coordinates": [ 3337942.817299655172974, 8462014.203441238030791 ] } },
{ "type": "Feature", "properties": { "Имя": "Анттиланмяки", "type": null, "height": 81.579299926757812, "photo id": null }, "geometry": { "type": "Point", "coordinates": [ 3338956.092480193357915, 8460737.86643498390913 ] } },
{ "type": "Feature", "properties": { "Имя": "Мунненмяки", "type": null, "height": 116.79762268066406, "photo id": null }, "geometry": { "type": "Point", "coordinates": [ 3324448.719943451695144, 8464493.804724384099245 ] } },
{ "type": "Feature", "properties": { "Имя": "Ликасенмяки", "type": null, "height": 103.99946594238281, "photo id": null }, "geometry": { "type": "Point", "coordinates": [ 3322724.203530420549214, 8466003.974464610219002 ] } },
{ "type": "Feature", "properties": { "Имя": "Теросенмяки", "type": null, "height": 90.240592956542969, "photo id": null }, "geometry": { "type": "Point", "coordinates": [ 3319262.991916127502918, 8466773.673880606889725 ] } },
{ "type": "Feature", "properties": { "Имя": "Мулламяки", "type": null, "height": 19.553323745727539, "photo id": null }, "geometry": { "type": "Point", "coordinates": [ 3285271.993972822092474, 8449495.627022068947554 ] } },
{ "type": "Feature", "properties": { "Имя": "Jukonyllönmäki", "type": null, "height": 26.826251983642578, "photo id": null }, "geometry": { "type": "Point", "coordinates": [ 3286646.979163721203804, 8446930.774221330881119 ] } },
{ "type": "Feature", "properties": { "Имя": "Мякряпяссинмяки (Барсучий холм)", "type": null, "height": 58.130962371826172, "photo id": null }, "geometry": { "type": "Point", "coordinates": [ 3311771.819277310278267, 8459926.759139014407992 ] } },
{ "type": "Feature", "properties": { "Имя": "Суосааренмяки ", "type": null, "height": 62.732875823974609, "photo id": null }, "geometry": { "type": "Point", "coordinates": [ 3309729.436491535976529, 8456491.122980002313852 ] } },
{ "type": "Feature", "properties": { "Имя": "Кертапалонмяки", "type": null, "height": 68.977592468261719, "photo id": null }, "geometry": { "type": "Point", "coordinates": [ 3310401.705601701047271, 8455706.809018144384027 ] } },
{ "type": "Feature", "properties": { "Имя": "Карьяланмяки", "type": null, "height": 84.502601623535156, "photo id": null }, "geometry": { "type": "Point", "coordinates": [ 3310070.442561909556389, 8453563.34229008294642 ] } },
{ "type": "Feature", "properties": { "Имя": "Куломяки ", "type": null, "height": 49.613437652587891, "photo id": null }, "geometry": { "type": "Point", "coordinates": [ 3313631.520239666569978, 8455623.993258198723197 ] } },
{ "type": "Feature", "properties": { "Имя": "Киурумяки", "type": null, "height": 54.591415405273438, "photo id": null }, "geometry": { "type": "Point", "coordinates": [ 3306945.365502700675279, 8452350.334982613101602 ] } },
{ "type": "Feature", "properties": { "Имя": "Каскимяки", "type": null, "height": 64.6824951171875, "photo id": null }, "geometry": { "type": "Point", "coordinates": [ 3304295.261184368282557, 8454425.600496605038643 ] } },
{ "type": "Feature", "properties": { "Имя": "Суопеллонмяки", "type": null, "height": 68.465042114257812, "photo id": null }, "geometry": { "type": "Point", "coordinates": [ 3305167.262421465478837, 8455209.914458464831114 ] } },
{ "type": "Feature", "properties": { "Имя": "Каухимяки", "type": null, "height": 62.95709228515625, "photo id": null }, "geometry": { "type": "Point", "coordinates": [ 3315956.07634587213397, 8456377.380608009174466 ] } },
{ "type": "Feature", "properties": { "Имя": "Тервасмяки", "type": null, "height": 57.576038360595703, "photo id": null }, "geometry": { "type": "Point", "coordinates": [ 3293521.530551760923117, 8454924.451172448694706 ] } },
{ "type": "Feature", "properties": { "Имя": "Паломяки", "type": null, "height": 88.820640563964844, "photo id": null }, "geometry": { "type": "Point", "coordinates": [ 3297998.453104235697538, 8453730.929926140233874 ] } },
{ "type": "Feature", "properties": { "Имя": "Кавголовские холмы", "type": null, "height": 83.284477233886719, "photo id": null }, "geometry": { "type": "Point", "coordinates": [ 3399596.760875253006816, 8444088.284609884023666 ] } }
]
}
