{
"type": "FeatureCollection",
"name": "paragliding_clubs",
"crs": { "type": "name", "properties": { "name": "urn:ogc:def:crs:EPSG::3857" } },
"features": [
{ "type": "Feature", "properties": { "fid": 3, "Наименование": "Щеглово", "Описание": "дропзона", "Рубрики": "Авиаклубы", "Адрес": "Щеглово посёлок, 7а", "Комментарий к адресу": null, "Почтовый индекс": 188676, "Микрорайон": null, "Район": null, "Город": null, "Округ": "Всеволожский муниципальный район", "Регион": "Ленинградская область", "Страна": "Россия", "Часы работы": "Пн: 09:00-21:00; Вт: 09:00-21:00; Ср: 09:00-21:00; Чт: 09:00-21:00; Пт: 09:00-21:00; Сб: 09:00-21:00; Вс: 09:00-21:00", "Часовой пояс": "+03:00", "Рейтинг": 4.5, "Количество отзывов": 7, "Телефон 1": "88122008027", "Телефон 2": null, "E-mail": null, "Веб-сайт 1": "http://dzscheglovo.ru", "Веб-сайт 2": null, "ВКонтакте": null, "WhatsApp": null, "Viber": null, "Telegram 1": null, "Telegram 2": null, "YouTube": null, "Широта": 60.023884, "Долгота": 30.779118, "2GIS URL": "https://2gis.com/firm/70000001094617828" }, "geometry": { "type": "Point", "coordinates": [ 3426315.742826080415398, 8405057.319988876581192 ] } },
{ "type": "Feature", "properties": { "fid": 9, "Наименование": "Тандем мастер", "Описание": "авиаклуб", "Рубрики": "Авиаклубы", "Адрес": null, "Комментарий к адресу": null, "Почтовый индекс": null, "Микрорайон": null, "Район": null, "Город": "Санкт-Петербург", "Округ": null, "Регион": "Санкт-Петербург", "Страна": "Россия", "Часы работы": "Пн: 10:00-22:00; Вт: 10:00-22:00; Ср: 10:00-22:00; Чт: 10:00-22:00; Пт: 10:00-22:00; Сб: 10:00-22:00; Вс: 10:00-22:00", "Часовой пояс": "+03:00", "Рейтинг": null, "Количество отзывов": null, "Телефон 1": "89217941007", "Телефон 2": null, "E-mail": null, "Веб-сайт 1": "http://tandemmaster.ru/", "Веб-сайт 2": null, "ВКонтакте": "https://vk.com/tandemvspb", "WhatsApp": "https://wa.me/79217941007", "Viber": "viber://chat/?number=79217941007", "Telegram 1": "https://t.me/+79217941007", "Telegram 2": null, "YouTube": "https://youtube.com/channel/UCJLrXzSkwtXd9XUvdzTRRSg/featured", "Широта": null, "Долгота": null, "2GIS URL": "https://2gis.com/firm/70000001022695045" }, "geometry": null },
{ "type": "Feature", "properties": { "fid": 11, "Наименование": "СпортАвиаСервис", "Описание": "авиационный клуб", "Рубрики": "Авиаклубы", "Адрес": null, "Комментарий к адресу": null, "Почтовый индекс": null, "Микрорайон": null, "Район": null, "Город": null, "Округ": "Всеволожский муниципальный район", "Регион": "Ленинградская область", "Страна": "Россия", "Часы работы": "Пн: 10:00-18:00; Вт: 10:00-18:00; Ср: 10:00-18:00; Чт: 10:00-18:00; Пт: 10:00-18:00; Сб: 10:00-18:00; Вс: 10:00-18:00 (по предварительному звонку)", "Часовой пояс": "+03:00", "Рейтинг": null, "Количество отзывов": null, "Телефон 1": "89602834750", "Телефон 2": null, "E-mail": null, "Веб-сайт 1": "http://www.glide.ru", "Веб-сайт 2": "http://www.spbleti.ru/", "ВКонтакте": "https://vk.com/paraplanspb", "WhatsApp": null, "Viber": null, "Telegram 1": null, "Telegram 2": null, "YouTube": "https://youtube.com/@user-mz4sl4wr1s", "Широта": null, "Долгота": null, "2GIS URL": "https://2gis.com/firm/70000001053578868" }, "geometry": null },
{ "type": "Feature", "properties": { "fid": 12, "Наименование": "Валькирия", "Описание": "парашютный клуб", "Рубрики": "Авиаклубы", "Адрес": "Щеглово посёлок, 7а", "Комментарий к адресу": "1 этаж", "Почтовый индекс": 188676, "Микрорайон": null, "Район": null, "Город": null, "Округ": "Всеволожский муниципальный район", "Регион": "Ленинградская область", "Страна": "Россия", "Часы работы": "Пн: 09:00-22:00; Вт: 09:00-22:00; Ср: 09:00-22:00; Чт: 09:00-22:00; Пт: 09:00-22:00; Сб: 09:00-22:00; Вс: 09:00-22:00 (по предварительной записи: пн-вс)", "Часовой пояс": "+03:00", "Рейтинг": 3.2, "Количество отзывов": 3, "Телефон 1": "89046425175 (единый номер - пн-вс 9:00-22:00)", "Телефон 2": "89119905454 (единый номер - пн-вс 9:00-22:00)", "E-mail": null, "Веб-сайт 1": "http://valk.ru", "Веб-сайт 2": null, "ВКонтакте": "https://vk.com/valkru", "WhatsApp": "https://wa.me/79046425175", "Viber": "viber://chat/?number=79046425175", "Telegram 1": "https://t.me/+79046425175", "Telegram 2": null, "YouTube": null, "Широта": 60.023884, "Долгота": 30.779118, "2GIS URL": "https://2gis.com/firm/70000001025792800" }, "geometry": { "type": "Point", "coordinates": [ 3426315.742826080415398, 8405057.319988876581192 ] } },
{ "type": "Feature", "properties": { "fid": 17, "Наименование": "#Небонутые", "Описание": "авиационная компания", "Рубрики": "Авиаклубы", "Адрес": null, "Комментарий к адресу": null, "Почтовый индекс": null, "Микрорайон": null, "Район": null, "Город": "Санкт-Петербург", "Округ": null, "Регион": "Санкт-Петербург", "Страна": "Россия", "Часы работы": "Пн: 00:00-24:00; Вт: 00:00-24:00; Ср: 00:00-24:00; Чт: 00:00-24:00; Пт: 00:00-24:00; Сб: 00:00-24:00; Вс: 00:00-24:00", "Часовой пояс": "+03:00", "Рейтинг": 3.7, "Количество отзывов": 23, "Телефон 1": "88007758813", "Телефон 2": null, "E-mail": null, "Веб-сайт 1": "http://Nebonutie.ru", "Веб-сайт 2": null, "ВКонтакте": "https://vk.com/nebonutierf", "WhatsApp": null, "Viber": null, "Telegram 1": null, "Telegram 2": null, "YouTube": null, "Широта": null, "Долгота": null, "2GIS URL": "https://2gis.com/firm/70000001035279682" }, "geometry": null },
{ "type": "Feature", "properties": { "fid": 18, "Наименование": "Аэронавт Санкт-Петербург", "Описание": null, "Рубрики": "Авиаклубы", "Адрес": null, "Комментарий к адресу": null, "Почтовый индекс": null, "Микрорайон": null, "Район": null, "Город": "Санкт-Петербург", "Округ": null, "Регион": "Санкт-Петербург", "Страна": "Россия", "Часы работы": "Пн: 09:00-21:00; Вт: 09:00-21:00; Ср: 09:00-21:00; Чт: 09:00-21:00; Пт: 09:00-21:00; Сб: 09:00-21:00; Вс: 09:00-21:00 (по предварительной записи: пн-вс)", "Часовой пояс": "+03:00", "Рейтинг": null, "Количество отзывов": null, "Телефон 1": "89113666777", "Телефон 2": "89113630335", "E-mail": null, "Веб-сайт 1": "http://aeronavt.spb.ru", "Веб-сайт 2": null, "ВКонтакте": null, "WhatsApp": "https://wa.me/79113630335", "Viber": null, "Telegram 1": null, "Telegram 2": null, "YouTube": null, "Широта": null, "Долгота": null, "2GIS URL": "https://2gis.com/firm/70000001040568797" }, "geometry": null },
{ "type": "Feature", "properties": { "fid": 19, "Наименование": "Флай Питер", "Описание": "аэроклуб", "Рубрики": "Авиаклубы", "Адрес": null, "Комментарий к адресу": null, "Почтовый индекс": null, "Микрорайон": null, "Район": null, "Город": "Санкт-Петербург", "Округ": null, "Регион": "Санкт-Петербург", "Страна": "Россия", "Часы работы": "Пн: 10:00-18:00; Вт: 10:00-18:00; Ср: 10:00-18:00; Чт: 10:00-18:00; Пт: 10:00-18:00; Сб: 10:00-18:00; Вс: 10:00-18:00", "Часовой пояс": "+03:00", "Рейтинг": null, "Количество отзывов": null, "Телефон 1": "89310091008", "Телефон 2": null, "E-mail": null, "Веб-сайт 1": "http://pryzhokparashyut-flypiter.ru", "Веб-сайт 2": null, "ВКонтакте": null, "WhatsApp": null, "Viber": null, "Telegram 1": null, "Telegram 2": null, "YouTube": null, "Широта": null, "Долгота": null, "2GIS URL": "https://2gis.com/firm/70000001094616766" }, "geometry": null },
{ "type": "Feature", "properties": { "fid": 31, "Наименование": "Dream and Fly", "Описание": null, "Рубрики": "Авиаклубы; Экскурсии по городу", "Адрес": "Авиационная улица, 15", "Комментарий к адресу": null, "Почтовый индекс": 197755, "Микрорайон": "Сестрорецк г.", "Район": "Курортный район", "Город": "Санкт-Петербург", "Округ": null, "Регион": "Санкт-Петербург", "Страна": "Россия", "Часы работы": "Пн: 10:00-22:00; Вт: 10:00-22:00; Ср: 10:00-22:00; Чт: 10:00-22:00; Пт: 10:00-22:00; Сб: 10:00-22:00; Вс: 10:00-22:00 (по предварительной записи)", "Часовой пояс": "+03:00", "Рейтинг": null, "Количество отзывов": null, "Телефон 1": "89990319679", "Телефон 2": null, "E-mail": null, "Веб-сайт 1": "http://dreamandfly.ru", "Веб-сайт 2": null, "ВКонтакте": null, "WhatsApp": "https://wa.me/79990319679", "Viber": null, "Telegram 1": null, "Telegram 2": null, "YouTube": null, "Широта": 60.029721, "Долгота": 30.015965, "2GIS URL": "https://2gis.com/firm/70000001087366879" }, "geometry": { "type": "Point", "coordinates": [ 3341361.939468721859157, 8406357.91766593977809 ] } },
{ "type": "Feature", "properties": { "fid": 32, "Наименование": "Skyjumper", "Описание": "аэроклуб", "Рубрики": "Авиаклубы", "Адрес": "Аэродромный кольцевой проезд, 2", "Комментарий к адресу": null, "Почтовый индекс": 197755, "Микрорайон": "Сестрорецк г.", "Район": "Курортный район", "Город": "Санкт-Петербург", "Округ": null, "Регион": "Санкт-Петербург", "Страна": "Россия", "Часы работы": "Пн: 10:00-21:00; Вт: 10:00-21:00; Ср: 10:00-21:00; Чт: 10:00-21:00; Пт: 10:00-21:00; Сб: 10:00-21:00; Вс: 10:00-21:00 (по предварительной записи)", "Часовой пояс": "+03:00", "Рейтинг": null, "Количество отзывов": null, "Телефон 1": "89119215500", "Телефон 2": "88129840051 (единый номер: пн-вс 10:00-21:00)", "E-mail": null, "Веб-сайт 1": "http://skyjumper.ru", "Веб-сайт 2": null, "ВКонтакте": "https://vk.com/aeroclubspbru", "WhatsApp": "https://wa.me/79119215500", "Viber": "viber://chat/?number=79110110990", "Telegram 1": "https://t.me/SkyJumper1", "Telegram 2": "https://t.me/+79626840051", "YouTube": null, "Широта": 60.031719, "Долгота": 30.014866, "2GIS URL": "https://2gis.com/firm/70000001036974235" }, "geometry": { "type": "Point", "coordinates": [ 3341239.599348340183496, 8406803.163900004699826 ] } },
{ "type": "Feature", "properties": { "fid": 33, "Наименование": "Санкт-Петербургский Аэроклуб им. В.П. Чкалова", "Описание": "ДОСААФ России", "Рубрики": "Авиаклубы", "Адрес": "Аэродромный кольцевой проезд, 1а", "Комментарий к адресу": null, "Почтовый индекс": 197755, "Микрорайон": "Сестрорецк г.", "Район": "Курортный район", "Город": "Санкт-Петербург", "Округ": null, "Регион": "Санкт-Петербург", "Страна": "Россия", "Часы работы": "Пн: 09:00-18:00; Вт: 09:00-18:00; Ср: 09:00-18:00; Чт: 09:00-18:00; Пт: 09:00-18:00; Сб: 09:00-18:00; Вс: 09:00-18:00", "Часовой пояс": "+03:00", "Рейтинг": null, "Количество отзывов": null, "Телефон 1": "88122090011", "Телефон 2": null, "E-mail": null, "Веб-сайт 1": null, "Веб-сайт 2": null, "ВКонтакте": null, "WhatsApp": null, "Viber": null, "Telegram 1": null, "Telegram 2": null, "YouTube": null, "Широта": 60.032341, "Долгота": 30.01511, "2GIS URL": "https://2gis.com/firm/5348553838723734" }, "geometry": { "type": "Point", "coordinates": [ 3341266.761304093524814, 8406941.77958513982594 ] } },
{ "type": "Feature", "properties": { "fid": 34, "Наименование": "Aerotandem", "Описание": null, "Рубрики": "Авиаклубы", "Адрес": "Аэродромный кольцевой проезд, 1а", "Комментарий к адресу": null, "Почтовый индекс": 197755, "Микрорайон": "Сестрорецк г.", "Район": "Курортный район", "Город": "Санкт-Петербург", "Округ": null, "Регион": "Санкт-Петербург", "Страна": "Россия", "Часы работы": "Пн: 00:00-24:00; Вт: 00:00-24:00; Ср: 00:00-24:00; Чт: 00:00-24:00; Пт: 00:00-24:00; Сб: 00:00-24:00; Вс: 00:00-24:00 (по предварительной записи)", "Часовой пояс": "+03:00", "Рейтинг": null, "Количество отзывов": null, "Телефон 1": "89214135060", "Телефон 2": null, "E-mail": null, "Веб-сайт 1": "http://aerotandem.spb.ru", "Веб-сайт 2": null, "ВКонтакте": "https://vk.com/skydivemafia", "WhatsApp": "https://wa.me/79214135060", "Viber": null, "Telegram 1": "https://t.me/+79214135060", "Telegram 2": null, "YouTube": null, "Широта": 60.032341, "Долгота": 30.01511, "2GIS URL": "https://2gis.com/firm/70000001043025642" }, "geometry": { "type": "Point", "coordinates": [ 3341266.761304093524814, 8406941.77958513982594 ] } },
{ "type": "Feature", "properties": { "fid": 38, "Наименование": "Прыгаем-Летаем", "Описание": "авиаклуб", "Рубрики": "Авиаклубы", "Адрес": null, "Комментарий к адресу": null, "Почтовый индекс": 188676, "Микрорайон": null, "Район": null, "Город": null, "Округ": "Всеволожский муниципальный район", "Регион": "Ленинградская область", "Страна": "Россия", "Часы работы": "Пн: 08:00-21:00; Вт: 08:00-21:00; Ср: 08:00-21:00; Чт: 08:00-21:00; Пт: 08:00-21:00; Сб: 08:00-21:00; Вс: 08:00-21:00", "Часовой пояс": "+03:00", "Рейтинг": 3.0, "Количество отзывов": 2, "Телефон 1": "89291545444", "Телефон 2": null, "E-mail": null, "Веб-сайт 1": "http://prygaem-letaem.su", "Веб-сайт 2": null, "ВКонтакте": "https://vk.com/prygaem_letaem", "WhatsApp": "https://wa.me/79291545444", "Viber": null, "Telegram 1": "https://t.me/79291545444", "Telegram 2": null, "YouTube": null, "Широта": 60.032091, "Долгота": 30.758924, "2GIS URL": "https://2gis.com/firm/70000001097275078" }, "geometry": { "type": "Point", "coordinates": [ 3424067.75702900160104, 8406886.065571656450629 ] } },
{ "type": "Feature", "properties": { "fid": 42, "Наименование": "Парацентр", "Описание": null, "Рубрики": "Авиаклубы", "Адрес": "Щеглово посёлок, 7а", "Комментарий к адресу": null, "Почтовый индекс": 188676, "Микрорайон": null, "Район": null, "Город": null, "Округ": "Всеволожский муниципальный район", "Регион": "Ленинградская область", "Страна": "Россия", "Часы работы": "Пн: 10:00-18:00; Вт: 10:00-18:00; Ср: 10:00-18:00; Чт: 10:00-18:00; Пт: 10:00-18:00; Сб: 10:00-18:00; Вс: 10:00-18:00 (по предварительному звонку)", "Часовой пояс": "+03:00", "Рейтинг": null, "Количество отзывов": null, "Телефон 1": "89219616206", "Телефон 2": null, "E-mail": null, "Веб-сайт 1": "http://paracentr.ru", "Веб-сайт 2": null, "ВКонтакте": "https://vk.com/paracentr", "WhatsApp": null, "Viber": null, "Telegram 1": null, "Telegram 2": null, "YouTube": null, "Широта": 60.023835, "Долгота": 30.779174, "2GIS URL": "https://2gis.com/firm/70000001093811365" }, "geometry": { "type": "Point", "coordinates": [ 3426321.976717565674335, 8405046.402803564444184 ] } },
{ "type": "Feature", "properties": { "fid": 46, "Наименование": "Парадром «Крыло ветра» (ru)", "Описание": null, "Рубрики": null, "Адрес": null, "Комментарий к адресу": null, "Почтовый индекс": null, "Микрорайон": null, "Район": null, "Город": null, "Округ": null, "Регион": null, "Страна": null, "Часы работы": null, "Часовой пояс": null, "Рейтинг": null, "Количество отзывов": null, "Телефон 1": null, "Телефон 2": null, "E-mail": null, "Веб-сайт 1": null, "Веб-сайт 2": null, "ВКонтакте": null, "WhatsApp": null, "Viber": null, "Telegram 1": null, "Telegram 2": null, "YouTube": null, "Широта": null, "Долгота": null, "2GIS URL": null }, "geometry": { "type": "Point", "coordinates": [ 3361716.218494049273431, 8331261.453862641938031 ] } },
{ "type": "Feature", "properties": { "fid": 47, "Наименование": "Парадром парапланерного клуба «Крыло Ветра» (ru)", "Описание": null, "Рубрики": null, "Адрес": null, "Комментарий к адресу": null, "Почтовый индекс": null, "Микрорайон": null, "Район": null, "Город": null, "Округ": null, "Регион": null, "Страна": null, "Часы работы": null, "Часовой пояс": null, "Рейтинг": null, "Количество отзывов": null, "Телефон 1": null, "Телефон 2": null, "E-mail": null, "Веб-сайт 1": null, "Веб-сайт 2": null, "ВКонтакте": null, "WhatsApp": null, "Viber": null, "Telegram 1": null, "Telegram 2": null, "YouTube": null, "Широта": null, "Долгота": null, "2GIS URL": null }, "geometry": { "type": "Point", "coordinates": [ 3383901.434550324920565, 8437180.294019082561135 ] } },
{ "type": "Feature", "properties": { "fid": 48, "Наименование": "Paragliding site", "Описание": null, "Рубрики": null, "Адрес": null, "Комментарий к адресу": null, "Почтовый индекс": null, "Микрорайон": null, "Район": null, "Город": null, "Округ": null, "Регион": null, "Страна": null, "Часы работы": null, "Часовой пояс": null, "Рейтинг": null, "Количество отзывов": null, "Телефон 1": null, "Телефон 2": null, "E-mail": null, "Веб-сайт 1": null, "Веб-сайт 2": null, "ВКонтакте": null, "WhatsApp": null, "Viber": null, "Telegram 1": null, "Telegram 2": null, "YouTube": null, "Широта": null, "Долгота": null, "2GIS URL": null }, "geometry": { "type": "Point", "coordinates": [ 3419999.016357457730919, 8415392.67121815122664 ] } },
{ "type": "Feature", "properties": { "fid": 49, "Наименование": "Площадка для парафойл (ru)", "Описание": null, "Рубрики": null, "Адрес": null, "Комментарий к адресу": null, "Почтовый индекс": null, "Микрорайон": null, "Район": null, "Город": null, "Округ": null, "Регион": null, "Страна": null, "Часы работы": null, "Часовой пояс": null, "Рейтинг": null, "Количество отзывов": null, "Телефон 1": null, "Телефон 2": null, "E-mail": null, "Веб-сайт 1": null, "Веб-сайт 2": null, "ВКонтакте": null, "WhatsApp": null, "Viber": null, "Telegram 1": null, "Telegram 2": null, "YouTube": null, "Широта": null, "Долгота": null, "2GIS URL": null }, "geometry": { "type": "Point", "coordinates": [ 3387676.280129202175885, 8442019.112842136994004 ] } },
{ "type": "Feature", "properties": { "fid": 51, "Наименование": "Учебные горки парапланерного клуба «Крыло Ветра» СПб (ru)", "Описание": null, "Рубрики": null, "Адрес": null, "Комментарий к адресу": null, "Почтовый индекс": null, "Микрорайон": null, "Район": null, "Город": null, "Округ": null, "Регион": null, "Страна": null, "Часы работы": null, "Часовой пояс": null, "Рейтинг": null, "Количество отзывов": null, "Телефон 1": null, "Телефон 2": null, "E-mail": null, "Веб-сайт 1": null, "Веб-сайт 2": null, "ВКонтакте": null, "WhatsApp": null, "Viber": null, "Telegram 1": null, "Telegram 2": null, "YouTube": null, "Широта": null, "Долгота": null, "2GIS URL": null }, "geometry": { "type": "Point", "coordinates": [ 3386441.693417250178754, 8438593.130383791401982 ] } },
{ "type": "Feature", "properties": { "fid": 52, "Наименование": "Парадром \"Можайское\" Восточный старт (ru)", "Описание": null, "Рубрики": null, "Адрес": null, "Комментарий к адресу": null, "Почтовый индекс": null, "Микрорайон": null, "Район": null, "Город": null, "Округ": null, "Регион": null, "Страна": null, "Часы работы": null, "Часовой пояс": null, "Рейтинг": null, "Количество отзывов": null, "Телефон 1": null, "Телефон 2": null, "E-mail": null, "Веб-сайт 1": null, "Веб-сайт 2": null, "ВКонтакте": null, "WhatsApp": null, "Viber": null, "Telegram 1": null, "Telegram 2": null, "YouTube": null, "Широта": null, "Долгота": null, "2GIS URL": null }, "geometry": { "type": "Point", "coordinates": [ 3358724.89277666201815, 8332329.303979905322194 ] } },
{ "type": "Feature", "properties": { "fid": 53, "Наименование": "Парадром (ru)", "Описание": null, "Рубрики": null, "Адрес": null, "Комментарий к адресу": null, "Почтовый индекс": null, "Микрорайон": null, "Район": null, "Город": null, "Округ": null, "Регион": null, "Страна": null, "Часы работы": null, "Часовой пояс": null, "Рейтинг": null, "Количество отзывов": null, "Телефон 1": null, "Телефон 2": null, "E-mail": null, "Веб-сайт 1": null, "Веб-сайт 2": null, "ВКонтакте": null, "WhatsApp": null, "Viber": null, "Telegram 1": null, "Telegram 2": null, "YouTube": null, "Широта": null, "Долгота": null, "2GIS URL": null }, "geometry": { "type": "Point", "coordinates": [ 3365914.098816224373877, 8338859.356685188598931 ] } },
{ "type": "Feature", "properties": { "fid": 54, "Наименование": "Площадка авиамоделистов (ru)", "Описание": null, "Рубрики": null, "Адрес": null, "Комментарий к адресу": null, "Почтовый индекс": null, "Микрорайон": null, "Район": null, "Город": null, "Округ": null, "Регион": null, "Страна": null, "Часы работы": null, "Часовой пояс": null, "Рейтинг": null, "Количество отзывов": null, "Телефон 1": null, "Телефон 2": null, "E-mail": null, "Веб-сайт 1": null, "Веб-сайт 2": null, "ВКонтакте": null, "WhatsApp": null, "Viber": null, "Telegram 1": null, "Telegram 2": null, "YouTube": null, "Широта": null, "Долгота": null, "2GIS URL": null }, "geometry": { "type": "Point", "coordinates": [ 3405732.873785638716072, 8389414.105104835703969 ] } },
{ "type": "Feature", "properties": { "fid": 55, "Наименование": "Парапланерный старт (ru)", "Описание": null, "Рубрики": null, "Адрес": null, "Комментарий к адресу": null, "Почтовый индекс": null, "Микрорайон": null, "Район": null, "Город": null, "Округ": null, "Регион": null, "Страна": null, "Часы работы": null, "Часовой пояс": null, "Рейтинг": null, "Количество отзывов": null, "Телефон 1": null, "Телефон 2": null, "E-mail": null, "Веб-сайт 1": null, "Веб-сайт 2": null, "ВКонтакте": null, "WhatsApp": null, "Viber": null, "Telegram 1": null, "Telegram 2": null, "YouTube": null, "Широта": null, "Долгота": null, "2GIS URL": null }, "geometry": { "type": "Point", "coordinates": [ 3381716.326835767365992, 8426148.701962128281593 ] } }
]
}
