{
"type": "FeatureCollection",
"name": "points_of_interest",
"crs": { "type": "name", "properties": { "name": "urn:ogc:def:crs:EPSG::3857" } },
"features": [
{ "type": "Feature", "properties": { "fid": 8, "id": "35535404", "name": "Государственный музей-заповедник «Петергоф» (ru)", "url": "http://wikimapia.org/35535404/ru/%D0%93%D0%BE%D1%81%D1%83%D0%B4%D0%B0%D1%80%D1%81%D1%82%D0%B2%D0%B5%D0%BD%D0%BD%D1%8B%D0%B9-%D0%BC%D1%83%D0%B7%D0%B5%D0%B9-%D0%B7%D0%B0%D0%BF%D0%BE%D0%B2%D0%B5%D0%B4%D0%BD%D0%B8%D0%BA-%C2%AB%D0%9F%D0%B5%D1%82%D0%B5%D1%80%D0%B3%D0%BE%D1%84%C2%BB", "lat": 59.8860245, "lon": 29.9101818, "Значение": "1", "Категория": "Усадьба" }, "geometry": { "type": "Point", "coordinates": [ 3329446.840620233211666, 8374129.910566039383411 ] } },
{ "type": "Feature", "properties": { "fid": 9, "id": "128016", "name": "Шуваловский парк", "url": "http://wikimapia.org/128016/Shuvalovskiy-park", "lat": 60.0758337, "lon": 30.3046032, "Значение": "1", "Категория": "Усадьба" }, "geometry": { "type": "Point", "coordinates": [ 3373183.048994180746377, 8416615.599755419418216 ] } },
{ "type": "Feature", "properties": { "fid": 13, "id": "13482488", "name": "Усадьба Богословка", "url": "http://wikimapia.org/13482488/Zinoviev-s-Estate-Ethnopark-Bogoslovka", "lat": 59.8296151, "lon": 30.5728643, "Значение": "1", "Категория": "Церковь" }, "geometry": { "type": "Point", "coordinates": [ 3402943.267072238493711, 8361284.018199079670012 ] } },
{ "type": "Feature", "properties": { "fid": 15, "id": "19556608", "name": "Старые цеха Ижорского завода (ru)", "url": null, "lat": 59.7525011, "lon": 30.5910068, "Значение": "2", "Категория": "Здание" }, "geometry": { "type": "Point", "coordinates": [ 3406288.888098364230245, 8343777.345357737503946 ] } },
{ "type": "Feature", "properties": { "fid": 16, "id": "8147113", "name": "Парк Дубки", "url": "http://wikimapia.org/8147113/Dubki-culture-and-resort-park", "lat": 60.0903337, "lon": 29.9314623, "Значение": "2", "Категория": "Природа" }, "geometry": { "type": "Point", "coordinates": [ 3332038.497951237019151, 8419762.97380375303328 ] } },
{ "type": "Feature", "properties": { "fid": 17, "id": "36709150", "name": "Урочище Киурумяки (ru)", "url": "http://wikimapia.org/36709150/ru/%D0%A3%D1%80%D0%BE%D1%87%D0%B8%D1%89%D0%B5-%D0%9A%D0%B8%D1%83%D1%80%D1%83%D0%BC%D1%8F%D0%BA%D0%B8", "lat": 60.1329142, "lon": 30.5869888, "Значение": "2", "Категория": "Культура" }, "geometry": { "type": "Point", "coordinates": [ 3405033.136203949805349, 8429433.45546355843544 ] } },
{ "type": "Feature", "properties": { "fid": 18, "id": "6418127", "name": "Саблинские пещеры", "url": "http://wikimapia.org/6418127/Sablino-caves", "lat": 59.6636489, "lon": 30.8043022, "Значение": "1", "Категория": "Природа" }, "geometry": { "type": "Point", "coordinates": [ 3428293.817321745213121, 8325983.843935435637832 ] } },
{ "type": "Feature", "properties": { "fid": 20, "id": "22379763", "name": "Мордвиновские дубы", "url": "http://wikimapia.org/22379763/ru/%D0%A3%D1%81%D0%B0%D0%B4%D1%8C%D0%B1%D0%B0-%D0%9C%D0%BE%D1%80%D0%B4%D0%B2%D0%B8%D0%BD%D0%BE%D0%B2%D1%8B%D1%85", "lat": 59.8964007, "lon": 29.828723, "Значение": "2", "Категория": "Культура" }, "geometry": { "type": "Point", "coordinates": [ 3320204.203107046429068, 8376971.406022252514958 ] } },
{ "type": "Feature", "properties": { "fid": 21, "id": "35537761", "name": "Кузьмоловский карьер", "url": "http://wikimapia.org/35537761/ru/%D0%A0%D0%B0%D0%BD%D0%B4%D0%BE%D0%BB%D0%BE%D0%B2%D0%BE", "lat": 60.1227452, "lon": 30.5580103, "Значение": "2", "Категория": "Природа" }, "geometry": { "type": "Point", "coordinates": [ 3401098.674097192008048, 8426135.806522304192185 ] } },
{ "type": "Feature", "properties": { "fid": 34, "id": "18407572", "name": "Усадьба Приютино", "url": "http://wikimapia.org/18407572/Priyutino-Mansion", "lat": 60.0122792, "lon": 30.5810558, "Значение": "2", "Категория": "Усадьба" }, "geometry": { "type": "Point", "coordinates": [ 3404293.63766084285453, 8402441.239727092906833 ] } },
{ "type": "Feature", "properties": { "fid": 35, "id": "23617595", "name": "Парк «Загородное» (ru)", "url": "http://wikimapia.org/23617595/ru/%D0%9F%D0%B0%D1%80%D0%BA-%C2%AB%D0%97%D0%B0%D0%B3%D0%BE%D1%80%D0%BE%D0%B4%D0%BD%D0%BE%D0%B5%C2%BB", "lat": 59.990549, "lon": 30.6841117, "Значение": "2", "Категория": "Природа" }, "geometry": { "type": "Point", "coordinates": [ 3415671.811826411169022, 8397567.944547362625599 ] } },
{ "type": "Feature", "properties": { "fid": 45, "id": "13547139", "name": "Усадьба Лапино (обер-кухмистера Иоганна-Бурхарда Фельтена) (ru)", "url": "http://wikimapia.org/13547139/ru/%D0%A3%D1%81%D0%B0%D0%B4%D1%8C%D0%B1%D0%B0-%D0%9B%D0%B0%D0%BF%D0%B8%D0%BD%D0%BE-%D0%BE%D0%B1%D0%B5%D1%80-%D0%BA%D1%83%D1%85%D0%BC%D0%B8%D1%81%D1%82%D0%B5%D1%80%D0%B0-%D0%98%D0%BE%D0%B3%D0%B0%D0%BD%D0%BD%D0%B0-%D0%91%D1%83%D1%80%D1%85%D0%B0%D1%80%D0%B4%D0%B0-%D0%A4%D0%B5%D0%BB%D1%8C%D1%82%D0%B5%D0%BD%D0%B0", "lat": 59.7538443, "lon": 29.6899294, "Значение": "2", "Категория": "Усадьба" }, "geometry": { "type": "Point", "coordinates": [ 3305024.597144721075892, 8344995.172456870786846 ] } },
{ "type": "Feature", "properties": { "fid": 48, "id": "18987898", "name": "Парк «Кенша» (ru)", "url": "http://wikimapia.org/18987898/ru/%D0%9F%D0%B0%D1%80%D0%BA-%C2%AB%D0%9A%D0%B5%D0%BD%D1%88%D0%B0%C2%BB", "lat": 60.0104775, "lon": 30.6431222, "Значение": "2", "Категория": "Природа" }, "geometry": { "type": "Point", "coordinates": [ 3411209.328262380789965, 8402104.215058898553252 ] } },
{ "type": "Feature", "properties": { "fid": 53, "id": "16912638", "name": "Парк усадьбы С.Д. Вальватьева (ru)", "url": "http://wikimapia.org/16912638/ru/%D0%9F%D0%B0%D1%80%D0%BA-%D1%83%D1%81%D0%B0%D0%B4%D1%8C%D0%B1%D1%8B-%D0%A1-%D0%94-%D0%92%D0%B0%D0%BB%D1%8C%D0%B2%D0%B0%D1%82%D1%8C%D0%B5%D0%B2%D0%B0", "lat": 59.701011, "lon": 29.9401648, "Значение": "2", "Категория": "Природа" }, "geometry": { "type": "Point", "coordinates": [ 3332934.785223863553256, 8333464.586769471876323 ] } },
{ "type": "Feature", "properties": { "fid": 54, "id": "3656608", "name": "Шуваловка этно-музей", "url": "http://wikimapia.org/3656608/Shuvalovka-Russian-village-ethnographic-park", "lat": 59.8681151, "lon": 29.9819844, "Значение": "2", "Категория": "Культура" }, "geometry": { "type": "Point", "coordinates": [ 3337568.414941914379597, 8370292.267402210272849 ] } },
{ "type": "Feature", "properties": { "fid": 66, "id": "6989062", "name": "Подворье Свято-Иоанновского ставропигиального женского монастыря", "url": "http://wikimapia.org/6989062/St-John-of-Rila-Cloister-s-Compound", "lat": 60.17182, "lon": 30.3343677, "Значение": "2", "Категория": "Церковь" }, "geometry": { "type": "Point", "coordinates": [ 3376810.278070812579244, 8438141.519431522116065 ] } },
{ "type": "Feature", "properties": { "fid": 72, "id": "19007269", "name": "Сад дачи Шитта (ru)", "url": "http://wikimapia.org/19007269/ru/%D0%A1%D0%B0%D0%B4-%D0%B4%D0%B0%D1%87%D0%B8-%D0%A8%D0%B8%D1%82%D1%82%D0%B0", "lat": 59.9220357, "lon": 29.7235349, "Значение": "2", "Категория": "Природа" }, "geometry": { "type": "Point", "coordinates": [ 3308724.548046306241304, 8382346.355966194532812 ] } },
{ "type": "Feature", "properties": { "fid": 79, "id": "39006862", "name": "Прикарьерный луг (ru)", "url": "http://wikimapia.org/39006862/ru/%D0%9F%D1%80%D0%B8%D0%BA%D0%B0%D1%80%D1%8C%D0%B5%D1%80%D0%BD%D1%8B%D0%B9-%D0%BB%D1%83%D0%B3", "lat": 60.0316675, "lon": 30.64278, "Значение": "2", "Категория": "Природа" }, "geometry": { "type": "Point", "coordinates": [ 3411301.445765314158052, 8407000.005035042762756 ] } },
{ "type": "Feature", "properties": { "fid": 83, "id": "41518441", "name": "Природно-исторический парк Александра Невского (ru)", "url": "http://wikimapia.org/41518441/ru/%D0%9F%D1%80%D0%B8%D1%80%D0%BE%D0%B4%D0%BD%D0%BE-%D0%B8%D1%81%D1%82%D0%BE%D1%80%D0%B8%D1%87%D0%B5%D1%81%D0%BA%D0%B8%D0%B9-%D0%BF%D0%B0%D1%80%D0%BA-%D0%90%D0%BB%D0%B5%D0%BA%D1%81%D0%B0%D0%BD%D0%B4%D1%80%D0%B0-%D0%9D%D0%B5%D0%B2%D1%81%D0%BA%D0%BE%D0%B3%D0%BE", "lat": 59.6703925, "lon": 30.8011257, "Значение": "2", "Категория": "Природа" }, "geometry": { "type": "Point", "coordinates": [ 3428635.926507314201444, 8326853.387095900252461 ] } },
{ "type": "Feature", "properties": { "fid": 90, "id": "29940016", "name": "Место проведения военно-исторической реконструкции «В полосе прорыва» (ru)", "url": "http://wikimapia.org/29940016/ru/%D0%9C%D0%B5%D1%81%D1%82%D0%BE-%D0%BF%D1%80%D0%BE%D0%B2%D0%B5%D0%B4%D0%B5%D0%BD%D0%B8%D1%8F-%D0%B2%D0%BE%D0%B5%D0%BD%D0%BD%D0%BE-%D0%B8%D1%81%D1%82%D0%BE%D1%80%D0%B8%D1%87%D0%B5%D1%81%D0%BA%D0%BE%D0%B9-%D1%80%D0%B5%D0%BA%D0%BE%D0%BD%D1%81%D1%82%D1%80%D1%83%D0%BA%D1%86%D0%B8%D0%B8-%C2%AB%D0%92-%D0%BF%D0%BE%D0%BB%D0%BE%D1%81%D0%B5-%D0%BF%D1%80%D0%BE%D1%80%D1%8B%D0%B2%D0%B0%C2%BB", "lat": 59.7819724, "lon": 29.6344573, "Значение": "2", "Категория": "Культура" }, "geometry": { "type": "Point", "coordinates": [ 3298945.976863800548017, 8351179.124199477024376 ] } },
{ "type": "Feature", "properties": { "fid": 116, "id": "9701559", "name": "Бор «Сказка» или «Поляна сказок» (ru)", "url": "http://wikimapia.org/9701559/ru/%D0%91%D0%BE%D1%80-%C2%AB%D0%A1%D0%BA%D0%B0%D0%B7%D0%BA%D0%B0%C2%BB-%D0%B8%D0%BB%D0%B8-%C2%AB%D0%9F%D0%BE%D0%BB%D1%8F%D0%BD%D0%B0-%D1%81%D0%BA%D0%B0%D0%B7%D0%BE%D0%BA%C2%BB", "lat": 60.150258, "lon": 30.4692667, "Значение": "2", "Категория": "Природа" }, "geometry": { "type": "Point", "coordinates": [ 3392056.4619698417373, 8433224.164473999291658 ] } },
{ "type": "Feature", "properties": { "fid": 135, "id": "19204706", "name": "Петровский пруд", "url": "http://wikimapia.org/19204706/%C2%ABPetrovsky-proud%C2%BB-Nature-reserve", "lat": 60.023851, "lon": 30.0917136, "Значение": "2", "Категория": "Природа" }, "geometry": { "type": "Point", "coordinates": [ 3349781.347661200910807, 8405047.104952067136765 ] } },
{ "type": "Feature", "properties": { "fid": 160, "id": "19182720", "name": "ВШМ (Усадьба Михайловка)", "url": "http://wikimapia.org/19182720/ru/%D0%A6%D0%B5%D0%BD%D1%82%D1%80%D0%B0%D0%BB%D1%8C%D0%BD%D1%8B%D0%B9-%D1%83%D1%87%D0%B5%D0%B1%D0%BD%D1%8B%D0%B9-%D0%BA%D0%BE%D1%80%D0%BF%D1%83%D1%81", "lat": 59.8635334, "lon": 29.9910634, "Значение": "2", "Категория": "Здание" }, "geometry": { "type": "Point", "coordinates": [ 3338563.574234363157302, 8369385.622733193449676 ] } },
{ "type": "Feature", "properties": { "fid": 161, "id": "20470148", "name": "Усадьба Польтрока", "url": "http://wikimapia.org/20470148/Poltork-s-estate", "lat": 60.0033499, "lon": 30.1444191, "Значение": "2", "Категория": "Усадьба" }, "geometry": { "type": "Point", "coordinates": [ 3355645.347185976337641, 8400464.503001969307661 ] } },
{ "type": "Feature", "properties": { "fid": 194, "id": "23627613", "name": "Царская мельница (ru)", "url": "http://wikimapia.org/23627613/ru/%D0%A6%D0%B0%D1%80%D1%81%D0%BA%D0%B0%D1%8F-%D0%BC%D0%B5%D0%BB%D1%8C%D0%BD%D0%B8%D1%86%D0%B0", "lat": 59.8543179, "lon": 29.8934931, "Значение": "2", "Категория": "Здание" }, "geometry": { "type": "Point", "coordinates": [ 3327728.419457402080297, 8367377.022382483817637 ] } },
{ "type": "Feature", "properties": { "fid": 211, "id": null, "name": "Грот", "url": null, "lat": null, "lon": null, "Значение": "2", "Категория": "Природа" }, "geometry": { "type": "Point", "coordinates": [ 3349765.399161240085959, 8340864.813077966682613 ] } },
{ "type": "Feature", "properties": { "fid": 213, "id": null, "name": "Авангардный лагерь", "url": null, "lat": null, "lon": null, "Значение": "2", "Категория": "Культура" }, "geometry": { "type": "Point", "coordinates": [ 3351529.882188609335572, 8333695.980450007133186 ] } },
{ "type": "Feature", "properties": { "fid": 214, "id": null, "name": "Водонапорная башня Авангардного лагеря", "url": null, "lat": null, "lon": null, "Значение": "2", "Категория": "Здание" }, "geometry": { "type": "Point", "coordinates": [ 3351417.013021872378886, 8333649.717215967364609 ] } },
{ "type": "Feature", "properties": { "fid": 216, "id": null, "name": "Водопроводная станция", "url": null, "lat": null, "lon": null, "Значение": "2", "Категория": "Здание" }, "geometry": { "type": "Point", "coordinates": [ 3351014.424453310668468, 8332900.564527160488069 ] } },
{ "type": "Feature", "properties": { "fid": 221, "id": null, "name": "Ротонда с гротом", "url": null, "lat": null, "lon": null, "Значение": "2", "Категория": "Здание" }, "geometry": { "type": "Point", "coordinates": [ 3350867.103942076209933, 8335994.295263077132404 ] } },
{ "type": "Feature", "properties": { "fid": 222, "id": null, "name": "Фонтан", "url": null, "lat": null, "lon": null, "Значение": "2", "Категория": "Здание" }, "geometry": { "type": "Point", "coordinates": [ 3350942.15865687513724, 8336031.207417896017432 ] } },
{ "type": "Feature", "properties": { "fid": 223, "id": null, "name": "Земляная пирамида", "url": null, "lat": null, "lon": null, "Значение": "2", "Категория": "Природа" }, "geometry": { "type": "Point", "coordinates": [ 3349443.771252246573567, 8339905.753268753178418 ] } },
{ "type": "Feature", "properties": { "fid": 224, "id": null, "name": "Парк Усадьбы Шунгурово", "url": null, "lat": null, "lon": null, "Значение": "2", "Категория": "Природа" }, "geometry": { "type": "Point", "coordinates": [ 3345366.658494218718261, 8345971.121781240217388 ] } },
{ "type": "Feature", "properties": { "fid": 226, "id": null, "name": "Кладбище Хиетамяки", "url": null, "lat": null, "lon": null, "Значение": "2", "Категория": "Кладбище" }, "geometry": { "type": "Point", "coordinates": [ 3334640.234876770991832, 8340326.23371812235564 ] } },
{ "type": "Feature", "properties": { "fid": 227, "id": null, "name": "Руины церкви Николая Чудотворца", "url": null, "lat": null, "lon": null, "Значение": "2", "Категория": "Церковь" }, "geometry": { "type": "Point", "coordinates": [ 3332960.736597907729447, 8332650.372793295420706 ] } },
{ "type": "Feature", "properties": { "fid": 229, "id": null, "name": "Долина родников", "url": null, "lat": null, "lon": null, "Значение": "2", "Категория": "Природа" }, "geometry": { "type": "Point", "coordinates": [ 3323686.235438716597855, 8333207.661521487869322 ] } },
{ "type": "Feature", "properties": { "fid": 231, "id": null, "name": "Пещеры", "url": null, "lat": null, "lon": null, "Значение": "2", "Категория": "Природа" }, "geometry": { "type": "Point", "coordinates": [ 3428969.398468656465411, 8324722.80919872969389 ] } },
{ "type": "Feature", "properties": { "fid": 232, "id": null, "name": "Долина Тосны", "url": null, "lat": null, "lon": null, "Значение": "2", "Категория": "ПРирода" }, "geometry": { "type": "Point", "coordinates": [ 3426356.544258014764637, 8333601.594052384607494 ] } },
{ "type": "Feature", "properties": { "fid": 233, "id": null, "name": "Замок Мариенталь", "url": null, "lat": null, "lon": null, "Значение": "1", "Категория": "Усадьба" }, "geometry": { "type": "Point", "coordinates": [ 3388950.979332754854113, 8328989.316316759213805 ] } },
{ "type": "Feature", "properties": { "fid": 235, "id": null, "name": "Дача Брюллова", "url": null, "lat": null, "lon": null, "Значение": "2", "Категория": "Усадьба" }, "geometry": { "type": "Point", "coordinates": [ 3388477.058594899252057, 8328418.883986487984657 ] } },
{ "type": "Feature", "properties": { "fid": 236, "id": null, "name": "Руины мельницы", "url": null, "lat": null, "lon": null, "Значение": "2", "Категория": "Здание" }, "geometry": { "type": "Point", "coordinates": [ 3403052.186707166023552, 8330670.195257045328617 ] } },
{ "type": "Feature", "properties": { "fid": 237, "id": null, "name": "Ингерманландское кладбище", "url": null, "lat": null, "lon": null, "Значение": "2", "Категория": "Кладбище" }, "geometry": { "type": "Point", "coordinates": [ 3400965.733759834896773, 8331699.902597136795521 ] } },
{ "type": "Feature", "properties": { "fid": 238, "id": null, "name": "Интересный ландшафт", "url": null, "lat": null, "lon": null, "Значение": "2", "Категория": "Природа" }, "geometry": { "type": "Point", "coordinates": [ 3402106.598420379217714, 8331265.037134031765163 ] } },
{ "type": "Feature", "properties": { "fid": 239, "id": null, "name": "Павловская Швейцария", "url": null, "lat": null, "lon": null, "Значение": "2", "Категория": "Природа" }, "geometry": { "type": "Point", "coordinates": [ 3390028.754703307989985, 8329444.46048020105809 ] } },
{ "type": "Feature", "properties": { "fid": 240, "id": null, "name": "Усадьба Белозерова", "url": null, "lat": null, "lon": null, "Значение": "2", "Категория": "Усадьба" }, "geometry": { "type": "Point", "coordinates": [ 3387508.187355849891901, 8328788.782502151094377 ] } },
{ "type": "Feature", "properties": { "fid": 247, "id": null, "name": "Дача Шухт", "url": null, "lat": null, "lon": null, "Значение": "2", "Категория": "Здание" }, "geometry": { "type": "Point", "coordinates": [ 3386264.42706759320572, 8334440.906928036361933 ] } },
{ "type": "Feature", "properties": { "fid": 248, "id": null, "name": "Дача Сверчкова", "url": null, "lat": null, "lon": null, "Значение": "2", "Категория": "Здание" }, "geometry": { "type": "Point", "coordinates": [ 3386290.71427175309509, 8334391.33677161950618 ] } },
{ "type": "Feature", "properties": { "fid": 253, "id": null, "name": "Опоры Императорского моста ", "url": null, "lat": null, "lon": null, "Значение": "2", "Категория": "Культура" }, "geometry": { "type": "Point", "coordinates": [ 3384357.759820142295212, 8343652.975977301597595 ] } },
{ "type": "Feature", "properties": { "fid": 254, "id": null, "name": "Фундамент церкви", "url": null, "lat": null, "lon": null, "Значение": "2", "Категория": "Церковь" }, "geometry": { "type": "Point", "coordinates": [ 3378810.690328016877174, 8347849.68118001613766 ] } },
{ "type": "Feature", "properties": { "fid": 255, "id": null, "name": "Пулковская обсерватория", "url": null, "lat": null, "lon": null, "Значение": "1", "Категория": "Усадьба" }, "geometry": { "type": "Point", "coordinates": [ 3375892.529017638415098, 8349105.270710146054626 ] } },
{ "type": "Feature", "properties": { "fid": 256, "id": null, "name": "Укко-киви", "url": null, "lat": null, "lon": null, "Значение": "2", "Категория": "Культура" }, "geometry": { "type": "Point", "coordinates": [ 3358241.258192128967494, 8331301.13509829621762 ] } },
{ "type": "Feature", "properties": { "fid": 257, "id": null, "name": "Ингерманландское кладбище Кирхгоф", "url": null, "lat": null, "lon": null, "Значение": "2", "Категория": "Кладбище" }, "geometry": { "type": "Point", "coordinates": [ 3358516.710538578219712, 8331797.399959690868855 ] } },
{ "type": "Feature", "properties": { "fid": 261, "id": null, "name": "Долина реки Поповки", "url": null, "lat": null, "lon": null, "Значение": "2", "Категория": "Природа" }, "geometry": { "type": "Point", "coordinates": [ 3384755.799726709257811, 8326025.434047693386674 ] } },
{ "type": "Feature", "properties": { "fid": 262, "id": null, "name": "церковь Екатерины и Рождества Богородицы", "url": null, "lat": null, "lon": null, "Значение": "2", "Категория": "Церковь" }, "geometry": { "type": "Point", "coordinates": [ 3385254.317777029704303, 8323046.154987641610205 ] } },
{ "type": "Feature", "properties": { "fid": 263, "id": null, "name": "Дача Самойловой", "url": null, "lat": null, "lon": null, "Значение": "2", "Категория": "Усадьба" }, "geometry": { "type": "Point", "coordinates": [ 3384966.472891478333622, 8322951.52105266507715 ] } },
{ "type": "Feature", "properties": { "fid": 264, "id": null, "name": "Башня Инка (Веревская)", "url": null, "lat": null, "lon": null, "Значение": "2", "Категория": "Здание" }, "geometry": { "type": "Point", "coordinates": [ 3366519.75596223352477, 8324667.46524566411972 ] } },
{ "type": "Feature", "properties": { "fid": 265, "id": null, "name": "Церковь Пресвятой Троицы", "url": null, "lat": null, "lon": null, "Значение": "2", "Категория": "Церковь" }, "geometry": { "type": "Point", "coordinates": [ 3296775.954127919860184, 8343348.654647731222212 ] } },
{ "type": "Feature", "properties": { "fid": 266, "id": null, "name": "Никольская церковь", "url": null, "lat": null, "lon": null, "Значение": "2", "Категория": "Церковь" }, "geometry": { "type": "Point", "coordinates": [ 3291334.362042488064617, 8385891.959743195213377 ] } },
{ "type": "Feature", "properties": { "fid": 267, "id": null, "name": "Дом Гаген-Торнов", "url": null, "lat": null, "lon": null, "Значение": "2", "Категория": "Здание" }, "geometry": { "type": "Point", "coordinates": [ 3292875.754505700431764, 8387370.192504277452826 ] } },
{ "type": "Feature", "properties": { "fid": 268, "id": null, "name": "частная узкоколейка", "url": null, "lat": null, "lon": null, "Значение": "2", "Категория": "Культура" }, "geometry": { "type": "Point", "coordinates": [ 3294664.645690228790045, 8384010.82863693870604 ] } },
{ "type": "Feature", "properties": { "fid": 269, "id": null, "name": "Царский лужок", "url": null, "lat": null, "lon": null, "Значение": "2", "Категория": "Культура" }, "geometry": { "type": "Point", "coordinates": [ 3298213.981549065560102, 8381850.5837522149086 ] } },
{ "type": "Feature", "properties": { "fid": 270, "id": null, "name": "Музейный комплекс СПбГУ", "url": null, "lat": null, "lon": null, "Значение": "2", "Категория": "Культура" }, "geometry": { "type": "Point", "coordinates": [ 3298576.181669242214411, 8381594.283511656336486 ] } },
{ "type": "Feature", "properties": { "fid": 272, "id": null, "name": "Усадьба Дубки", "url": null, "lat": null, "lon": null, "Значение": "2", "Категория": "Усадьба" }, "geometry": { "type": "Point", "coordinates": [ 3305950.575737059116364, 8382849.709393501281738 ] } },
{ "type": "Feature", "properties": { "fid": 276, "id": null, "name": "Розовый павильон", "url": null, "lat": null, "lon": null, "Значение": "2", "Категория": "Здание" }, "geometry": { "type": "Point", "coordinates": [ 3328162.048559350892901, 8369414.383996859192848 ] } },
{ "type": "Feature", "properties": { "fid": 278, "id": null, "name": "Шинкарский пруд и шлюзы", "url": null, "lat": null, "lon": null, "Значение": "2", "Категория": "Природа" }, "geometry": { "type": "Point", "coordinates": [ 3325673.612288610544056, 8361321.023100744001567 ] } },
{ "type": "Feature", "properties": { "fid": 279, "id": null, "name": "Вид на залив", "url": null, "lat": null, "lon": null, "Значение": "2", "Категория": "Природа" }, "geometry": { "type": "Point", "coordinates": [ 3314952.704519997816533, 8380457.828793605789542 ] } },
{ "type": "Feature", "properties": { "fid": 280, "id": null, "name": "Скульптуры", "url": null, "lat": null, "lon": null, "Значение": "2", "Категория": "Культура" }, "geometry": { "type": "Point", "coordinates": [ 3314004.169783935882151, 8377708.340032854117453 ] } },
{ "type": "Feature", "properties": { "fid": 281, "id": null, "name": "Каскад", "url": null, "lat": null, "lon": null, "Значение": "2", "Категория": "Природа" }, "geometry": { "type": "Point", "coordinates": [ 3312594.647753120400012, 8379081.543631246313453 ] } },
{ "type": "Feature", "properties": { "fid": 282, "id": null, "name": "Лютеранский приход Хиетамяки", "url": null, "lat": null, "lon": null, "Значение": "2", "Категория": "Церковь" }, "geometry": { "type": "Point", "coordinates": [ 3336222.906292705330998, 8351329.272062245756388 ] } },
{ "type": "Feature", "properties": { "fid": 283, "id": null, "name": "Традиционные дома савактов", "url": null, "lat": null, "lon": null, "Значение": "2", "Категория": "Здание" }, "geometry": { "type": "Point", "coordinates": [ 3342950.107165197376162, 8351463.099982926622033 ] } },
{ "type": "Feature", "properties": { "fid": 286, "id": null, "name": "Церковь Святой Троицы", "url": null, "lat": null, "lon": null, "Значение": "2", "Категория": "Церковь" }, "geometry": { "type": "Point", "coordinates": [ 3322745.466188578866422, 8376127.057496373541653 ] } },
{ "type": "Feature", "properties": { "fid": 287, "id": null, "name": "Дворец Лейхтенбергских", "url": null, "lat": null, "lon": null, "Значение": "1", "Категория": "Усадьба" }, "geometry": { "type": "Point", "coordinates": [ 3322097.45730949100107, 8376270.276850084774196 ] } },
{ "type": "Feature", "properties": { "fid": 288, "id": null, "name": "Валун Голова", "url": null, "lat": null, "lon": null, "Значение": "2", "Категория": "Культура" }, "geometry": { "type": "Point", "coordinates": [ 3321811.018602067604661, 8376291.114092122763395 ] } },
{ "type": "Feature", "properties": { "fid": 289, "id": null, "name": "Старинная водонапорная башня ", "url": null, "lat": null, "lon": null, "Значение": "2", "Категория": "Здание" }, "geometry": { "type": "Point", "coordinates": [ 3320389.096944829449058, 8377144.560568748041987 ] } },
{ "type": "Feature", "properties": { "fid": 290, "id": null, "name": "Ферма", "url": null, "lat": null, "lon": null, "Значение": "2", "Категория": "Здание" }, "geometry": { "type": "Point", "coordinates": [ 3321128.085331398528069, 8376716.956883588805795 ] } },
{ "type": "Feature", "properties": { "fid": 291, "id": null, "name": "Английский домик", "url": null, "lat": null, "lon": null, "Значение": "2", "Категория": "Здание" }, "geometry": { "type": "Point", "coordinates": [ 3321369.914731927681714, 8376473.366589365527034 ] } },
{ "type": "Feature", "properties": { "fid": 295, "id": null, "name": "Дача Сан-Галли", "url": null, "lat": null, "lon": null, "Значение": "2", "Категория": "Здание" }, "geometry": { "type": "Point", "coordinates": [ 3324381.92339410353452, 8377284.111393930390477 ] } },
{ "type": "Feature", "properties": { "fid": 296, "id": null, "name": "Руины водоподъемной машины", "url": null, "lat": null, "lon": null, "Значение": "2", "Категория": "Здание" }, "geometry": { "type": "Point", "coordinates": [ 3322394.461379074025899, 8377334.88382875174284 ] } },
{ "type": "Feature", "properties": { "fid": 297, "id": null, "name": "Усадебные постройки", "url": null, "lat": null, "lon": null, "Значение": "2", "Категория": "Здание" }, "geometry": { "type": "Point", "coordinates": [ 3322206.045753903221339, 8376051.192326423712075 ] } },
{ "type": "Feature", "properties": { "fid": 299, "id": null, "name": "Петергофский часовой завод Ракета", "url": null, "lat": null, "lon": null, "Значение": "2", "Категория": "Здание" }, "geometry": { "type": "Point", "coordinates": [ 3327354.311948181129992, 8373600.908752368763089 ] } },
{ "type": "Feature", "properties": { "fid": 301, "id": null, "name": "Парк Александрия", "url": null, "lat": null, "lon": null, "Значение": "1", "Категория": "Усадьба" }, "geometry": { "type": "Point", "coordinates": [ 3332196.182639844715595, 8372866.029117751866579 ] } },
{ "type": "Feature", "properties": { "fid": 303, "id": null, "name": "Орловский парк", "url": null, "lat": null, "lon": null, "Значение": "2", "Категория": "Усадьба" }, "geometry": { "type": "Point", "coordinates": [ 3343811.03744002385065, 8366527.692269169725478 ] } },
{ "type": "Feature", "properties": { "fid": 306, "id": null, "name": "Земляная крепость ", "url": null, "lat": null, "lon": null, "Значение": "2", "Категория": "Культура" }, "geometry": { "type": "Point", "coordinates": [ 3368851.670510856434703, 8424021.015523754060268 ] } },
{ "type": "Feature", "properties": { "fid": 307, "id": null, "name": "Старинный мост", "url": null, "lat": null, "lon": null, "Значение": "2", "Категория": "Здание" }, "geometry": { "type": "Point", "coordinates": [ 3299019.772751602809876, 8351231.825246073305607 ] } },
{ "type": "Feature", "properties": { "fid": 311, "id": null, "name": "Аэропорт Пулково", "url": null, "lat": null, "lon": null, "Значение": "1", "Категория": "Здание" }, "geometry": { "type": "Point", "coordinates": [ 3369929.873162027448416, 8355300.823657063767314 ] } },
{ "type": "Feature", "properties": { "fid": 314, "id": null, "name": "Финское стрельбище", "url": null, "lat": null, "lon": null, "Значение": "2", "Категория": "Культура" }, "geometry": { "type": "Point", "coordinates": [ 3311084.411887432448566, 8446297.940526437014341 ] } },
{ "type": "Feature", "properties": { "fid": 315, "id": null, "name": "Начало Петергофского канала (водопады)", "url": null, "lat": null, "lon": null, "Значение": "2", "Категория": "Природа" }, "geometry": { "type": "Point", "coordinates": [ 3313294.910256100352854, 8342612.858826162293553 ] } },
{ "type": "Feature", "properties": { "fid": 316, "id": null, "name": "Парк усадьбы Бугры", "url": null, "lat": null, "lon": null, "Значение": "2", "Категория": "Природа" }, "geometry": { "type": "Point", "coordinates": [ 3382842.135004898533225, 8414640.934451475739479 ] } },
{ "type": "Feature", "properties": { "fid": 318, "id": null, "name": "Вид из Федоровского", "url": null, "lat": null, "lon": null, "Значение": "2", "Категория": "Природа" }, "geometry": { "type": "Point", "coordinates": [ 3398224.446976880542934, 8325629.43143972940743 ] } },
{ "type": "Feature", "properties": { "fid": 319, "id": null, "name": "Плотина на Ижоре", "url": null, "lat": null, "lon": null, "Значение": "2", "Категория": "Здание" }, "geometry": { "type": "Point", "coordinates": [ 3393982.677797255571932, 8320633.704567258246243 ] } },
{ "type": "Feature", "properties": { "fid": 320, "id": null, "name": "Дача А. П. Вайтенса", "url": null, "lat": null, "lon": null, "Значение": "2", "Категория": "Здание" }, "geometry": { "type": "Point", "coordinates": [ 3355844.053818977437913, 8400051.89267173409462 ] } },
{ "type": "Feature", "properties": { "fid": 321, "id": null, "name": "Музей Шалаш", "url": null, "lat": null, "lon": null, "Значение": "1", "Категория": "Природа" }, "geometry": { "type": "Point", "coordinates": [ 3343050.859539625234902, 8417961.539827607572079 ] } },
{ "type": "Feature", "properties": { "fid": 322, "id": null, "name": "Сестрорецк", "url": null, "lat": null, "lon": null, "Значение": "1", "Категория": "Усадьба" }, "geometry": { "type": "Point", "coordinates": [ 3336549.095909266266972, 8420645.553637085482478 ] } },
{ "type": "Feature", "properties": { "fid": 324, "id": null, "name": "Овраги и крутые склоны", "url": null, "lat": null, "lon": null, "Значение": "2", "Категория": "Природа" }, "geometry": { "type": "Point", "coordinates": [ 3336807.563515370246023, 8446266.174264881759882 ] } },
{ "type": "Feature", "properties": { "fid": 326, "id": null, "name": "Руины финской школы Таммиселькя", "url": null, "lat": null, "lon": null, "Значение": "2", "Категория": "Здание" }, "geometry": { "type": "Point", "coordinates": [ 3325837.614386444911361, 8459240.881830340251327 ] } },
{ "type": "Feature", "properties": { "fid": 327, "id": null, "name": "«Майнильского инцидент»", "url": null, "lat": null, "lon": null, "Значение": "2", "Категория": "Культура" }, "geometry": { "type": "Point", "coordinates": [ 3324911.863374451175332, 8454008.987500157207251 ] } },
{ "type": "Feature", "properties": { "fid": 328, "id": null, "name": "Историко-этнографический музей \"Ялкала\"", "url": null, "lat": null, "lon": null, "Значение": "1", "Категория": "Усадьба" }, "geometry": { "type": "Point", "coordinates": [ 3312625.971352171618491, 8460616.900950025767088 ] } },
{ "type": "Feature", "properties": { "fid": 329, "id": null, "name": "Гора Высокая Vuorimäki", "url": null, "lat": null, "lon": null, "Значение": "2", "Категория": "Природа" }, "geometry": { "type": "Point", "coordinates": [ 3311116.0692911115475, 8464860.091440355405211 ] } },
{ "type": "Feature", "properties": { "fid": 330, "id": null, "name": "Руины плотины Роккаланмяки", "url": null, "lat": null, "lon": null, "Значение": "2", "Категория": "Здание" }, "geometry": { "type": "Point", "coordinates": [ 3313979.986562501639128, 8464640.517218213528395 ] } },
{ "type": "Feature", "properties": { "fid": 334, "id": null, "name": "Церковь Николая Чудотворца", "url": null, "lat": null, "lon": null, "Значение": "2", "Категория": "Церковь" }, "geometry": { "type": "Point", "coordinates": [ 3295562.249568323604763, 8457243.717142883688211 ] } },
{ "type": "Feature", "properties": { "fid": 335, "id": null, "name": "Памятник коту Тотти", "url": null, "lat": null, "lon": null, "Значение": "2", "Категория": "Культура" }, "geometry": { "type": "Point", "coordinates": [ 3295619.893612526822835, 8457278.582492200657725 ] } },
{ "type": "Feature", "properties": { "fid": 336, "id": null, "name": "Памятник Льву Яшину", "url": null, "lat": null, "lon": null, "Значение": "2", "Категория": "Культура" }, "geometry": { "type": "Point", "coordinates": [ 3296072.44584665261209, 8457081.825704224407673 ] } },
{ "type": "Feature", "properties": { "fid": 337, "id": null, "name": "Смотровая площадка", "url": null, "lat": null, "lon": null, "Значение": "2", "Категория": "Природа" }, "geometry": { "type": "Point", "coordinates": [ 3295986.677087334450334, 8457253.363222861662507 ] } },
{ "type": "Feature", "properties": { "fid": 339, "id": null, "name": "Множество финских хуторов", "url": null, "lat": null, "lon": null, "Значение": "2", "Категория": "Культура" }, "geometry": { "type": "Point", "coordinates": [ 3289984.955856027081609, 8447236.315928624942899 ] } },
{ "type": "Feature", "properties": { "fid": 341, "id": null, "name": "Место проведения реконструкций", "url": null, "lat": null, "lon": null, "Значение": "2", "Категория": "Культура" }, "geometry": { "type": "Point", "coordinates": [ 3288235.993716488592327, 8446652.55376324057579 ] } },
{ "type": "Feature", "properties": { "fid": 343, "id": null, "name": "Зубровник", "url": null, "lat": null, "lon": null, "Значение": "2", "Категория": "Культура" }, "geometry": { "type": "Point", "coordinates": [ 3390703.221545042935759, 8433770.85315128043294 ] } },
{ "type": "Feature", "properties": { "fid": 345, "id": null, "name": "Центр реабилитации диких животных \"Велес\"", "url": null, "lat": null, "lon": null, "Значение": "2", "Категория": "Культура" }, "geometry": { "type": "Point", "coordinates": [ 3388627.106211088132113, 8435300.279807949438691 ] } },
{ "type": "Feature", "properties": { "fid": 346, "id": null, "name": "Наблюдательный пункт бывшего полигона", "url": null, "lat": null, "lon": null, "Значение": "2", "Категория": "Здание" }, "geometry": { "type": "Point", "coordinates": [ 3401643.735724836122245, 8425997.739739015698433 ] } },
{ "type": "Feature", "properties": { "fid": 347, "id": null, "name": "Наблюдательный пункт бывшего полигона", "url": null, "lat": null, "lon": null, "Значение": "2", "Категория": "Здание" }, "geometry": { "type": "Point", "coordinates": [ 3401364.580494640860707, 8425860.137827048078179 ] } },
{ "type": "Feature", "properties": { "fid": 348, "id": null, "name": "Линия узкоколейки", "url": null, "lat": null, "lon": null, "Значение": "2", "Категория": "Природа" }, "geometry": { "type": "Point", "coordinates": [ 3399205.718064974527806, 8423037.43914639391005 ] } },
{ "type": "Feature", "properties": { "fid": 350, "id": null, "name": "Самолёт Пе-2", "url": null, "lat": null, "lon": null, "Значение": "2", "Категория": "Культура" }, "geometry": { "type": "Point", "coordinates": [ 3410389.592382989823818, 8407242.273727791383862 ] } },
{ "type": "Feature", "properties": { "fid": 351, "id": null, "name": "Лютеранское кладбище прихода Ряяпювя", "url": null, "lat": null, "lon": null, "Значение": "2", "Категория": "Кладбище" }, "geometry": { "type": "Point", "coordinates": [ 3411305.156456034164876, 8407287.714899726212025 ] } },
{ "type": "Feature", "properties": { "fid": 352, "id": null, "name": "Самолёт Ил-4", "url": null, "lat": null, "lon": null, "Значение": "2", "Категория": "Культура" }, "geometry": { "type": "Point", "coordinates": [ 3411326.308101284317672, 8407528.866899164393544 ] } },
{ "type": "Feature", "properties": { "fid": 353, "id": null, "name": "Парк воинской славы", "url": null, "lat": null, "lon": null, "Значение": "2", "Категория": "Культура" }, "geometry": { "type": "Point", "coordinates": [ 3411384.881888135336339, 8407491.909628886729479 ] } },
{ "type": "Feature", "properties": { "fid": 354, "id": null, "name": "Могила архитектора Тибо-Бриньоля", "url": null, "lat": null, "lon": null, "Значение": "2", "Категория": "Кладбище" }, "geometry": { "type": "Point", "coordinates": [ 3414158.304208416491747, 8403906.821976518258452 ] } },
{ "type": "Feature", "properties": { "fid": 355, "id": null, "name": "Руины Английского дворца", "url": null, "lat": null, "lon": null, "Значение": "2", "Категория": "Усадьба" }, "geometry": { "type": "Point", "coordinates": [ 3326391.359498769510537, 8373225.491914606653154 ] } },
{ "type": "Feature", "properties": { "fid": 356, "id": null, "name": "Ольгин павильон", "url": null, "lat": null, "lon": null, "Значение": "2", "Категория": "Усадьба" }, "geometry": { "type": "Point", "coordinates": [ 3329279.01131531689316, 8372428.520189738832414 ] } },
{ "type": "Feature", "properties": { "fid": 357, "id": null, "name": "Царицын павильон", "url": null, "lat": null, "lon": null, "Значение": "2", "Категория": "Усадьба" }, "geometry": { "type": "Point", "coordinates": [ 3329735.943232972640544, 8372332.681817761622369 ] } },
{ "type": "Feature", "properties": { "fid": 359, "id": null, "name": "Путевой дворец Петра 1", "url": null, "lat": null, "lon": null, "Значение": "2", "Категория": "Усадьба" }, "geometry": { "type": "Point", "coordinates": [ 3344580.25436540087685, 8367238.883312632329762 ] } },
{ "type": "Feature", "properties": { "fid": 360, "id": null, "name": "Макаровское морское училище", "url": null, "lat": null, "lon": null, "Значение": "2", "Категория": "Здание" }, "geometry": { "type": "Point", "coordinates": [ 3348249.306912741158158, 8367113.876740487292409 ] } },
{ "type": "Feature", "properties": { "fid": 362, "id": null, "name": "Маяк", "url": null, "lat": null, "lon": null, "Значение": "2", "Категория": "Здание" }, "geometry": { "type": "Point", "coordinates": [ 3324768.06371772615239, 8377232.133596178144217 ] } },
{ "type": "Feature", "properties": { "fid": 363, "id": null, "name": "Евангелическо-лютеранский приход \"Туутари\"", "url": null, "lat": null, "lon": null, "Значение": "2", "Категория": "Церковь" }, "geometry": { "type": "Point", "coordinates": [ 3354326.458346103318036, 8334373.077633235603571 ] } }
]
}
