{
"type": "FeatureCollection",
"name": "ski_resorts",
"crs": { "type": "name", "properties": { "name": "urn:ogc:def:crs:EPSG::3857" } },
"features": [
{ "type": "Feature", "properties": { "Наименование": "ОхтаПарк", "description": "всесезонный курорт", "type": "улица Людмилы Кедриной, 1 лит А ст2" }, "geometry": { "type": "Point", "coordinates": [ 3388347.24004296399653, 8428430.665032366290689 ] } },
{ "type": "Feature", "properties": { "Наименование": "Лазурные озёра", "description": "горнолыжный курорт", "type": "Манушкино деревня, 1а" }, "geometry": { "type": "Point", "coordinates": [ 3429619.927951807156205, 8371588.714367590844631 ] } },
{ "type": "Feature", "properties": { "Наименование": "Юкки", "description": "спортивный комплекс", "type": "Ленинградское шоссе, 90" }, "geometry": { "type": "Point", "coordinates": [ 3374416.035869968589395, 8424086.501159025356174 ] } },
{ "type": "Feature", "properties": { "Наименование": "Туутари-парк", "description": "центр активного отдыха", "type": "территория Туутари парк, 1 ст1" }, "geometry": { "type": "Point", "coordinates": [ 3358700.694783612620085, 8332017.425865944474936 ] } },
{ "type": "Feature", "properties": { "Наименование": "Северный склон", "description": "горнолыжный комплекс", "type": "Офицерская улица, 17Б к2" }, "geometry": { "type": "Point", "coordinates": [ 3400788.847753293346614, 8434425.381255306303501 ] } },
{ "type": "Feature", "properties": { "Наименование": "Лыжная база Трамплин", "description": null, "type": null }, "geometry": { "type": "Point", "coordinates": [ 3375573.273420351557434, 8424725.090330524370074 ] } },
{ "type": "Feature", "properties": { "Наименование": "Пухтолова гора", "description": null, "type": null }, "geometry": { "type": "Point", "coordinates": [ 3304093.867102348711342, 8451165.177731683477759 ] } },
{ "type": "Feature", "properties": { "Наименование": null, "description": null, "type": null }, "geometry": null }
]
}
