{
"type": "FeatureCollection",
"name": "stage_barier",
"crs": { "type": "name", "properties": { "name": "urn:ogc:def:crs:EPSG::3857" } },
"features": [
{ "type": "Feature", "properties": { "fid": 1 }, "geometry": { "type": "MultiPolygon", "coordinates": [ [ [ [ 3394732.652988420799375, 8392921.020224010571837 ], [ 3394843.990405827760696, 8392673.161925734952092 ], [ 3394568.05831349035725, 8392495.639181016013026 ], [ 3394818.845857657957822, 8392068.860377784818411 ], [ 3394818.726479870732874, 8392069.00186256878078 ], [ 3394699.731055718846619, 8392020.213738664984703 ], [ 3394661.652519990224391, 8392065.43199984356761 ], [ 3394660.462565748952329, 8392179.667607029899955 ], [ 3394629.523755469359457, 8392246.305044554173946 ], [ 3394540.277187355794013, 8392265.34431241825223 ], [ 3394324.895469640847296, 8392260.584495453163981 ], [ 3394189.240686107892543, 8392154.678567957133055 ], [ 3394099.994117994327098, 8392014.263967458158731 ], [ 3393964.339334461372346, 8391963.095935072749853 ], [ 3393792.985923682805151, 8392008.31419625133276 ], [ 3393700.169492844492197, 8392032.113281082361937 ], [ 3393644.241643493063748, 8391955.956209624186158 ], [ 3393629.962192595005035, 8391866.709641510620713 ], [ 3393475.268141197506338, 8391771.513302188366652 ], [ 3393362.222488253377378, 8391951.19639265909791 ], [ 3393204.553551252000034, 8391858.082473257556558 ], [ 3393092.697852548677474, 8392059.184740075841546 ], [ 3393108.16725768847391, 8392129.392040327191353 ], [ 3393045.099682887550443, 8392240.057784788310528 ], [ 3393167.664969764649868, 8392326.924444420263171 ], [ 3393066.518859234172851, 8392451.869639782235026 ], [ 3392923.724350250791758, 8392425.690646467730403 ], [ 3392811.868651546537876, 8392660.706609170883894 ], [ 3392654.794691665098071, 8392732.103863662108779 ], [ 3392473.921646953094751, 8392892.15270915068686 ], [ 3392864.2266381746158, 8393253.898798573762178 ], [ 3393152.68642531009391, 8393426.974670853465796 ], [ 3393881.704733691643924, 8394120.747819285839796 ], [ 3393881.890902427490801, 8394120.209998492151499 ], [ 3394001.59612055728212, 8394118.072405310347676 ], [ 3394279.483234072569758, 8394224.952064353972673 ], [ 3394491.104958979878575, 8394257.015962067991495 ], [ 3394730.515395239461213, 8394308.318198408931494 ], [ 3394850.220613368786871, 8394457.949721068143845 ], [ 3395172.603474760893732, 8394552.152505241334438 ], [ 3395172.684638150036335, 8394551.953758994117379 ], [ 3395262.045240686275065, 8394572.080020826309919 ], [ 3395285.567294075619429, 8393973.801706362515688 ], [ 3394732.652988420799375, 8392921.020224010571837 ] ] ], [ [ [ 3395848.506056200712919, 8387615.150365760549903 ], [ 3395472.183569182176143, 8383456.7868842035532 ], [ 3395482.072740943171084, 8383453.250548374839127 ], [ 3395491.592374875675887, 8383205.740066139027476 ], [ 3395313.099238647613674, 8381377.970351167954504 ], [ 3394913.274613498244435, 8381185.197764042764902 ], [ 3395236.94216719083488, 8380411.72750705294311 ], [ 3395160.785095733590424, 8379916.706542581319809 ], [ 3394051.747742639388889, 8379321.72942182328552 ], [ 3394350.962204652838409, 8378769.333491953089833 ], [ 3394537.158658068161458, 8378473.410773356445134 ], [ 3394882.335803219117224, 8378610.136785397306085 ], [ 3395056.069122480694205, 8378507.800720626488328 ], [ 3394996.571410404518247, 8377993.740488288924098 ], [ 3394972.772325574420393, 8377775.978862093761563 ], [ 3394972.488518552854657, 8377775.927922371774912 ], [ 3394837.727799572050571, 8376663.560934997163713 ], [ 3394838.307496282272041, 8376663.371646275743842 ], [ 3394566.997929216362536, 8373740.844029108062387 ], [ 3394840.687404764350504, 8373543.311625014990568 ], [ 3395590.358576920349151, 8373809.861375114880502 ], [ 3396549.013995769899338, 8371405.305722529999912 ], [ 3396708.212648960761726, 8370853.934777333401144 ], [ 3397197.457290474325418, 8369654.120537431910634 ], [ 3397224.637548335827887, 8369261.948245425708592 ], [ 3396611.140299454797059, 8369053.728055734187365 ], [ 3396412.141982967033982, 8369190.114706791006029 ], [ 3396214.114389973692596, 8369094.98380427621305 ], [ 3396145.678383570630103, 8369050.573204378597438 ], [ 3396188.875579102430493, 8368928.990086622536182 ], [ 3396081.125271150376648, 8368580.50035189371556 ], [ 3395826.795715442858636, 8368483.428002387285233 ], [ 3395573.436883230693638, 8368566.91022296063602 ], [ 3395359.877714316360652, 8368489.252343355678022 ], [ 3395180.293867728672922, 8368446.540509574115276 ], [ 3394210.011656759306788, 8368264.674609638750553 ], [ 3393429.401674324180931, 8369340.393243971280754 ], [ 3393448.095107171218842, 8369356.261891410686076 ], [ 3393331.878655092790723, 8369534.838390946388245 ], [ 3393012.970918366219848, 8369967.981734858825803 ], [ 3392675.023913775105029, 8370196.452949229627848 ], [ 3392394.194712777156383, 8370372.566176974214613 ], [ 3392141.924413575325161, 8370401.125078770332038 ], [ 3391413.672417766880244, 8370520.120502922683954 ], [ 3391118.563765870407224, 8370639.115927074104548 ], [ 3390571.184814771637321, 8371024.661101326346397 ], [ 3390383.172044611535966, 8370858.067507513798773 ], [ 3389909.570256488397717, 8371048.460186156444252 ], [ 3389721.557486328762025, 8371024.661101326346397 ], [ 3389571.623251897282898, 8370986.582565597258508 ], [ 3389362.191305390093476, 8371493.503072484396398 ], [ 3389612.081696108914912, 8371602.97886270377785 ], [ 3389314.593135729897767, 8372385.96875362098217 ], [ 3389657.299957287032157, 8372597.780608610250056 ], [ 3389697.738026649225503, 8372614.566222307272255 ], [ 3389276.74584838654846, 8373332.729349931702018 ], [ 3388914.999758962541819, 8374579.801395051181316 ], [ 3388657.969642792828381, 8376064.864288476295769 ], [ 3388400.939526623580605, 8376617.003056543879211 ], [ 3387901.158745182678103, 8377640.36370425671339 ], [ 3387472.775218233000487, 8378144.904302664101124 ], [ 3386539.851092875469476, 8378882.675932412035763 ], [ 3385892.515985485166311, 8379320.57909329328686 ], [ 3384959.591860128100961, 8380091.669441802427173 ], [ 3384293.217484873253852, 8381310.182585125789046 ], [ 3383813.553970620967448, 8381748.732083872891963 ], [ 3383800.448933696839958, 8381760.713831917382777 ], [ 3383793.436703431885689, 8381767.125013873912394 ], [ 3383795.902506468817592, 8381768.507707165554166 ], [ 3383757.143099043052644, 8381834.952405609190464 ], [ 3383281.161402432247996, 8382358.532271880656481 ], [ 3382857.537692449055612, 8382729.797995236702263 ], [ 3382828.978790652472526, 8382886.871955118142068 ], [ 3383243.082866703625768, 8383053.465548931621015 ], [ 3384180.766809026245028, 8383434.250906220637262 ], [ 3384366.39967070473358, 8383034.426281067542732 ], [ 3384884.91249404521659, 8382356.720924245193601 ], [ 3385219.59686190309003, 8382551.304859045892954 ], [ 3385543.264415598474443, 8382008.685724909417331 ], [ 3385905.010505022481084, 8381499.38530953694135 ], [ 3386561.86524634482339, 8381937.288470418192446 ], [ 3387028.327309023588896, 8382222.877488383091986 ], [ 3387213.960170701611787, 8382384.711265230551362 ], [ 3387333.550571975298226, 8382664.350511987693608 ], [ 3387413.277506157755852, 8382807.1450209710747 ], [ 3387639.368812047410756, 8383181.980607052333653 ], [ 3387882.119477319531143, 8383567.525781305506825 ], [ 3387779.783412547316402, 8383681.761388493701816 ], [ 3387532.272930309642106, 8383910.232602867297828 ], [ 3387368.059244979172945, 8384083.965922128409147 ], [ 3387363.299428013153374, 8384193.441712348721921 ], [ 3387206.225468131247908, 8384557.567710256204009 ], [ 3387629.849178114905953, 8384709.881853171624243 ], [ 3387720.285700471140444, 8384410.013384306803346 ], [ 3387832.141399174463004, 8384298.157685603015125 ], [ 3387970.176091191358864, 8384191.061803866177797 ], [ 3388048.713071132544428, 8384136.323908755555749 ], [ 3388222.446390395052731, 8384164.882810552604496 ], [ 3388300.983370335772634, 8384202.961346280761063 ], [ 3388638.93037492968142, 8384774.139382214285433 ], [ 3388723.361781381070614, 8384890.825483264401555 ], [ 3388599.656562115065753, 8385203.622966266237199 ], [ 3388673.433725089766085, 8385270.260403791442513 ], [ 3388932.843749742489308, 8385513.011069063097239 ], [ 3389151.795330183114856, 8385620.106950800865889 ], [ 3389391.702586292754859, 8385754.455014222301543 ], [ 3389414.496063446626067, 8386775.602790690027177 ], [ 3390285.542568237986416, 8387104.030161346308887 ], [ 3390323.621103966142982, 8387318.221924819983542 ], [ 3390280.782751271501184, 8387751.3652687324211 ], [ 3390180.826594984158874, 8388155.949710847809911 ], [ 3389964.254923028871417, 8388363.001748871989548 ], [ 3389888.097851571626961, 8388510.556074820458889 ], [ 3389911.896936402190477, 8388667.630034700036049 ], [ 3390007.093275723513216, 8388877.061981208622456 ], [ 3390202.245771333109587, 8389257.847338492050767 ], [ 3390404.537992390803993, 8389307.825416635721922 ], [ 3390609.210121931973845, 8389417.301206855103374 ], [ 3390856.720604166854173, 8389512.49754617549479 ], [ 3390906.698682310525328, 8388353.482114936225116 ], [ 3390925.737950174603611, 8387770.404536592774093 ], [ 3391072.681333478074521, 8387425.495761898346245 ], [ 3392130.256119569763541, 8387940.607618918642402 ], [ 3392313.509072765242308, 8387538.403085282072425 ], [ 3392512.231431100517511, 8387645.498967019841075 ], [ 3392653.835985842626542, 8387387.278896608389914 ], [ 3391402.917761074379086, 8386735.32704097405076 ], [ 3391877.701343388762325, 8385937.875004660338163 ], [ 3393419.882040394470096, 8385609.447634001262486 ], [ 3395257.17138929804787, 8385328.618433001451194 ], [ 3395476.122969737276435, 8387425.317806556820869 ], [ 3395442.804250975139439, 8387593.101354607380927 ], [ 3395880.707411852665246, 8387616.900439437478781 ], [ 3395848.506056200712919, 8387615.150365760549903 ] ] ], [ [ [ 3394143.374219234101474, 8367350.789752154611051 ], [ 3393898.243645481299609, 8366504.732286435551941 ], [ 3393960.121266040019691, 8365581.327795017510653 ], [ 3394279.029002766590565, 8365072.027379648759961 ], [ 3394840.68740476295352, 8364843.556165277957916 ], [ 3395507.061780012678355, 8364834.036531345918775 ], [ 3395830.729333705734462, 8364596.045683043077588 ], [ 3396040.161280212458223, 8364262.85849541798234 ], [ 3396987.364856460131705, 8363672.641191625967622 ], [ 3397472.994609524961561, 8363056.932040419429541 ], [ 3397454.213654884137213, 8362556.675703181885183 ], [ 3397425.091950031928718, 8362013.070545945316553 ], [ 3397460.037995854392648, 8361983.948841093108058 ], [ 3397644.4754599169828, 8361923.763984398916364 ], [ 3397972.580001248978078, 8361985.890288083814085 ], [ 3398094.891161628533155, 8361947.061348281800747 ], [ 3398292.918754621874541, 8361636.429829861037433 ], [ 3398574.428568190895021, 8360572.516879267059267 ], [ 3398479.03069682372734, 8360422.815604199655354 ], [ 3398134.480745284352452, 8360552.581170364283025 ], [ 3397796.533740693703294, 8360562.100804296322167 ], [ 3396178.195972229819745, 8361899.609371761791408 ], [ 3392341.783497577998787, 8364688.862113879062235 ], [ 3390799.602800571359694, 8365678.904042821377516 ], [ 3390523.53341653989628, 8365507.550632043741643 ], [ 3389857.159041290171444, 8363736.898720665834844 ], [ 3390193.15971249807626, 8364629.700504161417484 ], [ 3389908.975279367063195, 8364639.366641342639923 ], [ 3390365.917708110064268, 8365605.609485455788672 ], [ 3390175.525029466487467, 8365807.901706515811384 ], [ 3388426.292294435668737, 8365722.225001125596464 ], [ 3387659.961762898601592, 8365555.63140731304884 ], [ 3387103.063177868723869, 8366897.899791744537652 ], [ 3388945.112343737389892, 8367212.047711505554616 ], [ 3389225.9415447358042, 8367297.724416894838214 ], [ 3388340.615589047316462, 8368297.285979769192636 ], [ 3387502.887803018093109, 8369358.725163201801479 ], [ 3388102.624740743078291, 8369796.628324080258608 ], [ 3388550.047535553574562, 8368939.861270188353956 ], [ 3389068.867584854830056, 8368140.212019887752831 ], [ 3389383.01550461538136, 8368302.045796734280884 ], [ 3389597.207268088590354, 8368249.687810107134283 ], [ 3389816.158848527818918, 8368925.581819289363921 ], [ 3390496.812674675602466, 8368525.757194139063358 ], [ 3390344.498531761579216, 8368068.814765396527946 ], [ 3390263.581643338315189, 8368102.133484158664942 ], [ 3389897.075736951082945, 8367045.454117691144347 ], [ 3389939.914089645724744, 8366793.183818490244448 ], [ 3390287.380728168878704, 8366360.04047457780689 ], [ 3390549.170661302749068, 8366283.883403121493757 ], [ 3390650.938687046058476, 8366211.515029259957373 ], [ 3390660.657308446709067, 8366222.662859689444304 ], [ 3390898.64815675187856, 8366677.225379951298237 ], [ 3391119.979645675979555, 8366593.928583044558764 ], [ 3391465.066375718452036, 8366432.094806197099388 ], [ 3391991.026150472462177, 8366739.103000512346625 ], [ 3392405.130226525012404, 8366991.373299716040492 ], [ 3392719.278146287892014, 8367215.084697122685611 ], [ 3392726.417871737387031, 8367274.582409201189876 ], [ 3392726.417871737387031, 8367306.711173721589148 ], [ 3392728.797780220396817, 8367762.463648224249482 ], [ 3392608.612401825841516, 8368175.377770033665001 ], [ 3392676.439793592784554, 8368195.606992141343653 ], [ 3392850.173112855758518, 8368230.115665145218372 ], [ 3392979.87812518235296, 8368242.015207560732961 ], [ 3393078.644327229820192, 8367591.110237445682287 ], [ 3393317.825129776261747, 8367627.99881893210113 ], [ 3393344.004123091232032, 8367545.891976268962026 ], [ 3393461.809593002311885, 8367474.494721777737141 ], [ 3393521.307305078487843, 8367423.32668939139694 ], [ 3393759.298153383657336, 8367441.176003014668822 ], [ 3394016.328269553370774, 8367510.193349023349583 ], [ 3394105.574837667867541, 8367585.160466239787638 ], [ 3394183.925118438433856, 8367594.09514738060534 ], [ 3394229.050924623385072, 8367864.849984489381313 ], [ 3394143.374219234101474, 8367350.789752154611051 ] ] ], [ [ [ 3388667.20479977177456, 8362480.307041624560952 ], [ 3386877.513620529323816, 8361433.147309089079499 ], [ 3384583.281842884607613, 8360666.816777553409338 ], [ 3385049.527677862904966, 8360822.554494216106832 ], [ 3384962.930474499706179, 8361002.866479300893843 ], [ 3386690.744033182971179, 8361615.69291368406266 ], [ 3387772.41243872186169, 8362179.731224161572754 ], [ 3387985.414247953332961, 8362292.776877105236053 ], [ 3388034.202371855732054, 8362326.095595868304372 ], [ 3388188.896423252765089, 8362470.080059092491865 ], [ 3388424.507363073527813, 8362408.202438533306122 ], [ 3388612.520133232232183, 8362604.544888382777572 ], [ 3388594.075842489022762, 8362687.246708167716861 ], [ 3388741.630168437026441, 8362756.264054176397622 ], [ 3388873.215516903903335, 8362828.161203338764608 ], [ 3389247.90246963314712, 8363460.829336633905768 ], [ 3388667.20479977177456, 8362480.307041624560952 ] ] ], [ [ [ 3381895.263059422373772, 8359588.372649863362312 ], [ 3381898.745074023026973, 8359576.81869232468307 ], [ 3381689.31312751583755, 8360271.751969370990992 ], [ 3381379.925024721305817, 8361237.994813483208418 ], [ 3380999.139667435083538, 8362894.41111767757684 ], [ 3380399.402729710098356, 8365174.363444423303008 ], [ 3380975.340582604520023, 8365317.157953404821455 ], [ 3381222.851064839866012, 8365321.917770370841026 ], [ 3381479.881181007716805, 8364703.141564781777561 ], [ 3381913.024524919688702, 8363041.96544362232089 ], [ 3382479.442743881605566, 8361594.98108593840152 ], [ 3383060.140413742512465, 8360914.327259789220989 ], [ 3384570.741951107047498, 8360668.854509967379272 ], [ 3381895.263059422373772, 8359588.372649863362312 ] ] ], [ [ [ 3380599.31504228617996, 8359191.27351807244122 ], [ 3377124.648657055571675, 8359200.793152004480362 ], [ 3375844.257893182802945, 8359253.151138633489609 ], [ 3375813.212186268996447, 8359257.807994670234621 ], [ 3374402.319603878073394, 8359394.650419048964977 ], [ 3374307.123264556750655, 8360099.10333002731204 ], [ 3374298.578087796922773, 8360111.532678041607141 ], [ 3374298.507333451416343, 8360109.918192524462938 ], [ 3374324.686326764989644, 8360707.275221766903996 ], [ 3374231.869895926676691, 8362104.281501308083534 ], [ 3373860.604172573424876, 8362116.181043723598123 ], [ 3373876.073577713221312, 8362474.357270419597626 ], [ 3374201.476072651334107, 8362543.410706845112145 ], [ 3374194.981314439792186, 8362499.346309492364526 ], [ 3374632.884475317783654, 8362189.958206698298454 ], [ 3374850.186063348315656, 8362190.852451916784048 ], [ 3374856.875026738736778, 8362487.396495552733541 ], [ 3375171.022946501616389, 8362492.156312518753111 ], [ 3375121.044868357945234, 8364179.511427002958953 ], [ 3375002.049444205127656, 8364241.389047562144697 ], [ 3374994.9097187560983, 8364584.095869122073054 ], [ 3375151.983678637538105, 8364634.073947266675532 ], [ 3375146.033907430246472, 8365173.123218678869307 ], [ 3375625.585466765332967, 8365189.782578060403466 ], [ 3375701.742538223043084, 8365194.542395026423037 ], [ 3375712.452126395422965, 8364615.034679402597249 ], [ 3376040.879497056826949, 8364260.428315428085625 ], [ 3376900.026459439191967, 8363301.325196756981313 ], [ 3376167.014646659605205, 8362684.928899645805359 ], [ 3376095.61739216838032, 8362506.435763417743146 ], [ 3375725.5416230536066, 8362492.156312518753111 ], [ 3375744.63441948313266, 8362194.533309348858893 ], [ 3375789.51999807311222, 8362194.718023664318025 ], [ 3375822.838716835249215, 8361966.246809292584658 ], [ 3375839.314304894767702, 8360728.224049396812916 ], [ 3375855.020709926262498, 8360712.51764436531812 ], [ 3375875.249932031612843, 8359325.030998756177723 ], [ 3376267.934831732418388, 8359327.410907238721848 ], [ 3376278.644419905729592, 8359546.362487678416073 ], [ 3376420.248974646441638, 8359557.072075852192938 ], [ 3376416.679111922159791, 8359845.04100229870528 ], [ 3377172.30005528498441, 8359817.672054746188223 ], [ 3377168.730192560236901, 8359635.609055793844163 ], [ 3377692.310058827977628, 8359574.921389477327466 ], [ 3377724.438823347911239, 8359854.560636235401034 ], [ 3378093.324638218153268, 8360247.245535936206579 ], [ 3378428.891734326258302, 8360592.332265975885093 ], [ 3379064.327299297787249, 8359916.438256792724133 ], [ 3379542.68890438741073, 8359350.020037829875946 ], [ 3379957.982934677042067, 8359228.644705194979906 ], [ 3380163.845018460880965, 8359407.137841423042119 ], [ 3379980.592065267264843, 8359585.630977651104331 ], [ 3380209.063279638532549, 8359802.20264960732311 ], [ 3380432.774677044246346, 8359578.491252201609313 ], [ 3380531.540879089850932, 8359685.587133939377964 ], [ 3380882.451361300423741, 8359286.123000102117658 ], [ 3381019.422118111979216, 8359398.808161734603345 ], [ 3381090.819372603204101, 8359482.104958640411496 ], [ 3381181.25589495850727, 8359527.32321981806308 ], [ 3381226.265339469071478, 8359377.291738116182387 ], [ 3381898.745074023026973, 8359576.81869232468307 ], [ 3380599.31504228617996, 8359191.27351807244122 ] ] ], [ [ [ 3370672.022526014130563, 8365376.775128623470664 ], [ 3370816.701222770381719, 8365711.032807337120175 ], [ 3370888.098477261606604, 8366144.176151249557734 ], [ 3371335.521272072102875, 8366267.931392366997898 ], [ 3371659.18882576469332, 8366953.345035480335355 ], [ 3371611.59065610403195, 8367667.317580392584205 ], [ 3371549.713035545311868, 8368295.613419913686812 ], [ 3371816.262785645201802, 8368638.320241468958557 ], [ 3371747.245439636986703, 8369261.856264026835561 ], [ 3371835.302053509280086, 8371284.778474606573582 ], [ 3371613.970564586576074, 8371289.538291573524475 ], [ 3371623.490198518615216, 8371415.673441174440086 ], [ 3371556.852760993875563, 8371453.751976902596653 ], [ 3371554.472852510865778, 8371453.751976902596653 ], [ 3370769.103053109254688, 8371525.149231393821537 ], [ 3370764.343236143700778, 8371967.812209242023528 ], [ 3370766.723144626710564, 8372103.46699277497828 ], [ 3370452.57522486615926, 8372222.462416927330196 ], [ 3370630.647882563527673, 8372743.621728455647826 ], [ 3370488.273852112237364, 8373132.777411689981818 ], [ 3370252.662912291940302, 8373294.611188536509871 ], [ 3370333.579800715204328, 8373577.820298017002642 ], [ 3370742.92405979661271, 8373556.401121670380235 ], [ 3371242.704841233789921, 8373456.444965383037925 ], [ 3372004.275555804837495, 8373632.558193127624691 ], [ 3373118.072725865058601, 8373813.431237838231027 ], [ 3374284.227882552426308, 8373875.30885839741677 ], [ 3374279.468065586406738, 8373618.278742229565978 ], [ 3373941.521060995291919, 8373584.96002346649766 ], [ 3373341.784123270306736, 8373437.405697518959641 ], [ 3372984.797850815113634, 8373289.851371570490301 ], [ 3372822.964073969051242, 8372076.098045220598578 ], [ 3372756.326636443380266, 8371224.090808296576142 ], [ 3373608.33387337019667, 8371205.051540432497859 ], [ 3373560.735703709535301, 8369648.591392527334392 ], [ 3373560.735703709535301, 8369643.831575561314821 ], [ 3372523.095605106092989, 8369615.272673765197396 ], [ 3372323.18329253140837, 8368211.126668773591518 ], [ 3372085.19244422763586, 8366007.331413483247161 ], [ 3372085.19244422763586, 8365683.663859791122377 ], [ 3372199.428051413502544, 8365421.873926658183336 ], [ 3371704.407086942344904, 8365231.481248015537858 ], [ 3371459.253020321950316, 8364873.179150647483766 ], [ 3370672.022526014130563, 8365376.775128623470664 ] ] ], [ [ [ 3366512.288084036204964, 8361894.652270776219666 ], [ 3365211.152201858349144, 8361267.486054186709225 ], [ 3365223.916287641040981, 8361241.564676187932491 ], [ 3364167.236921173520386, 8360917.897122494876385 ], [ 3362158.067329539917409, 8360704.803377927280962 ], [ 3362157.136618533637375, 8360710.096796775236726 ], [ 3361465.137090101838112, 8360558.425667256116867 ], [ 3360032.432183315046132, 8360725.019261068664491 ], [ 3360026.565699226222932, 8360729.702484035864472 ], [ 3358265.063883246853948, 8360917.897122495807707 ], [ 3355190.222123166080564, 8361089.250533275306225 ], [ 3355199.741757098119706, 8363193.089632278308272 ], [ 3353548.085269872099161, 8363183.569998348131776 ], [ 3353546.041977409273386, 8363183.892688121646643 ], [ 3353540.163596162106842, 8363594.310578851029277 ], [ 3353537.491604685783386, 8363711.343805503100157 ], [ 3353437.024725184310228, 8363822.498650909401476 ], [ 3353384.337702385149896, 8364019.556010268628597 ], [ 3353427.049536168575287, 8364225.34939122479409 ], [ 3353463.937028981279582, 8364384.548044415190816 ], [ 3353473.644263931550086, 8364662.174964004196227 ], [ 3353471.70281694130972, 8364662.174964004196227 ], [ 3353428.990983158815652, 8364792.25191234331578 ], [ 3353298.914034819696099, 8365034.932786109857261 ], [ 3353229.021943174768239, 8365165.009734448045492 ], [ 3353180.485768421087414, 8365335.85706957988441 ], [ 3353178.544321430847049, 8365512.528745681978762 ], [ 3353200.603021935094148, 8365603.214514422230422 ], [ 3353981.228613785468042, 8365377.845619703643024 ], [ 3354233.498912986833602, 8365335.007267007604241 ], [ 3354308.481552010402083, 8365342.505530909635127 ], [ 3354448.677637559361756, 8366006.100335843861103 ], [ 3357189.345248916652054, 8365891.905852037481964 ], [ 3357217.90415071323514, 8368233.735799343325198 ], [ 3359236.066544326487929, 8368119.500192157924175 ], [ 3359133.227947305887938, 8365803.727340722456574 ], [ 3362998.897766237147152, 8365653.766011538915336 ], [ 3363447.367833622265607, 8366241.640027581714094 ], [ 3363599.68197653722018, 8366433.222660468891263 ], [ 3363727.007080379873514, 8366586.726757625117898 ], [ 3364414.800631977617741, 8366139.303962812758982 ], [ 3364750.367728085257113, 8366291.618105727247894 ], [ 3364762.267270500771701, 8366934.193396146409214 ], [ 3365519.078168105799705, 8366934.193396146409214 ], [ 3365516.698259622789919, 8367034.149552433751523 ], [ 3365859.405081179924309, 8367041.289277884177864 ], [ 3366205.08678833860904, 8366913.964174035005271 ], [ 3366238.405507101211697, 8366756.890214154496789 ], [ 3366183.66761199105531, 8366530.798908267170191 ], [ 3366005.174475763458759, 8366454.641836809925735 ], [ 3365909.978136442136019, 8366583.156894894316792 ], [ 3364984.193736542481929, 8365995.319499581120908 ], [ 3364790.231195175088942, 8365845.385265150107443 ], [ 3364516.54171962570399, 8365759.708559760823846 ], [ 3364248.19366141827777, 8365627.664277150295675 ], [ 3364486.144657898228616, 8365199.35248348582536 ], [ 3364433.786671271547675, 8365087.496784782968462 ], [ 3364381.428684644866735, 8364868.545204344205558 ], [ 3364643.218617778737098, 8364392.56350773666054 ], [ 3365166.798484046477824, 8363592.914257436990738 ], [ 3365461.907135942950845, 8363788.066753045655787 ], [ 3365642.780180653557181, 8363564.35535563994199 ], [ 3365737.97651997487992, 8363540.556270809844136 ], [ 3366042.604805803392082, 8363283.526154641993344 ], [ 3366580.464122969191521, 8363654.791877995245159 ], [ 3366913.651310593821108, 8363297.805605540052056 ], [ 3366728.018448917195201, 8363197.849449252709746 ], [ 3366033.08517187088728, 8362645.710681188851595 ], [ 3366528.106136342510581, 8361869.860515719279647 ], [ 3366512.288084036204964, 8361894.652270776219666 ] ] ], [ [ [ 3354463.069452015683055, 8366515.86605884321034 ], [ 3355200.00470112124458, 8367423.808762401342392 ], [ 3355217.105446567758918, 8367795.749975876882672 ], [ 3355621.110557754989713, 8367800.025162238627672 ], [ 3355623.365467078983784, 8368138.539460024796426 ], [ 3355982.634653731249273, 8368133.35026591271162 ], [ 3355978.894459583330899, 8367778.031821968965232 ], [ 3355264.517377546057105, 8367789.252404406666756 ], [ 3355275.898828556761146, 8367424.566915111616254 ], [ 3354466.729944325052202, 8366482.123155830428004 ], [ 3354447.690676460508257, 8366006.141459222882986 ], [ 3354463.069452015683055, 8366515.86605884321034 ] ] ], [ [ [ 3355644.624082744587213, 8369369.018557008355856 ], [ 3355998.315015093423426, 8369548.583554210141301 ], [ 3355917.18125616107136, 8369489.17064412496984 ], [ 3355666.203819773625582, 8369371.332054236903787 ], [ 3355623.365467078983784, 8368138.539460024796426 ], [ 3355644.624082744587213, 8369369.018557008355856 ] ] ], [ [ [ 3356461.093253107275814, 8369985.348442858085036 ], [ 3356154.68358448240906, 8369663.089671951718628 ], [ 3356154.257921339012682, 8369662.777965870685875 ], [ 3356461.093253107275814, 8369985.348442858085036 ] ] ], [ [ [ 3358204.662468343041837, 8372962.508680840022862 ], [ 3358218.600662542507052, 8372982.022152719087899 ], [ 3358088.950655504595488, 8373250.582881583832204 ], [ 3358222.225530554540455, 8372974.513497551903129 ], [ 3358669.648325365036726, 8372964.993863619863987 ], [ 3359155.149655904155225, 8372945.954595755785704 ], [ 3359545.454647121950984, 8372508.051434877328575 ], [ 3359012.355146922171116, 8371984.47156860679388 ], [ 3359174.188923768699169, 8371394.25426481384784 ], [ 3360173.522195215336978, 8370313.883453492075205 ], [ 3360521.360250867437571, 8370981.508108696900308 ], [ 3361168.413838263135403, 8370502.763257906772196 ], [ 3361976.295773971360177, 8370850.601313561201096 ], [ 3362326.003926697187126, 8370497.152966688387096 ], [ 3363077.782950202934444, 8369964.175300768576562 ], [ 3363511.645471231546253, 8369829.528311483561993 ], [ 3364027.792263489682227, 8369747.244040254503489 ], [ 3364033.962046124506742, 8369447.48912569321692 ], [ 3364000.643327361904085, 8368628.800607529468834 ], [ 3362420.384094626642764, 8368723.996946848928928 ], [ 3357096.881872882135212, 8371085.798024997115135 ], [ 3358204.662468343041837, 8372962.508680840022862 ] ] ], [ [ [ 3363093.999461811501533, 8378428.490209277719259 ], [ 3362581.457456417381763, 8378894.437486909329891 ], [ 3362488.268000890500844, 8379438.042644145898521 ], [ 3362961.981066482141614, 8381247.471238945610821 ], [ 3363117.296825692988932, 8383903.370721441693604 ], [ 3362432.283637042623013, 8383928.042290725745261 ], [ 3362494.161257601808757, 8384737.211174957454205 ], [ 3362817.828811294399202, 8384822.887880346737802 ], [ 3362755.95119073567912, 8385584.458594918251038 ], [ 3363189.094534647651017, 8385746.292371764779091 ], [ 3363543.700898620765656, 8385082.297904995270073 ], [ 3363838.809550516773015, 8385198.913420664146543 ], [ 3364064.900856404565275, 8384578.947260833345354 ], [ 3364317.171155605930835, 8384079.166479396633804 ], [ 3364481.384840935003012, 8383893.533617720007896 ], [ 3364843.130930356215686, 8383864.974715923890471 ], [ 3364952.606720575597137, 8383907.813068618066609 ], [ 3365004.964707202278078, 8384174.362818717956543 ], [ 3365223.916287641506642, 8384145.803916921839118 ], [ 3365699.897984248585999, 8383903.053251652047038 ], [ 3365742.736336943227798, 8383722.180206941440701 ], [ 3365457.14731897925958, 8383331.875215724110603 ], [ 3366123.521694229450077, 8382970.129126303829253 ], [ 3366342.473274668678641, 8382760.697179796174169 ], [ 3367503.868614389561117, 8382189.519143868237734 ], [ 3367618.1042215754278, 8382008.646099157631397 ], [ 3368236.880427164491266, 8381665.939277600497007 ], [ 3368474.871275467798114, 8381665.939277600497007 ], [ 3368617.665784449782223, 8380980.525634484365582 ], [ 3367770.418364489451051, 8380713.975884384475648 ], [ 3365066.842327761463821, 8380523.583205739967525 ], [ 3364590.860631154384464, 8380580.701009332202375 ], [ 3363429.465291433501989, 8381132.839777396991849 ], [ 3362677.414210794493556, 8379514.502008932642639 ], [ 3362677.414210794493556, 8379400.266401746310294 ], [ 3363553.220532551407814, 8378819.568731886334717 ], [ 3363676.975773669313639, 8378619.656419311650097 ], [ 3363591.299068280030042, 8378276.949597754515707 ], [ 3363493.770114478189498, 8378161.976440833881497 ], [ 3363093.999461811501533, 8378428.490209277719259 ] ] ], [ [ [ 3363614.307255166117102, 8391110.021948806941509 ], [ 3363629.838831087574363, 8392173.934899399057031 ], [ 3363567.712527403142303, 8392981.576847296208143 ], [ 3363404.630980232264847, 8393439.758336966857314 ], [ 3363319.207312666345388, 8393703.795127624645829 ], [ 3363288.144160824362189, 8394107.616101572290063 ], [ 3363435.694132074248046, 8394635.689682887867093 ], [ 3363311.441524705849588, 8394860.897533738985658 ], [ 3363171.657341416459531, 8395241.421143805608153 ], [ 3363243.83242975641042, 8395584.834040625020862 ], [ 3363293.810507900081575, 8395934.680587632581592 ], [ 3361480.320243827532977, 8396420.181918170303106 ], [ 3361056.69653384713456, 8396539.177342319861054 ], [ 3360890.102940034586936, 8396924.722516572102904 ], [ 3360390.322158597409725, 8396800.967275453731418 ], [ 3360166.71673031616956, 8397336.68861404620111 ], [ 3360154.521567364688963, 8397337.709975494071841 ], [ 3360162.717948631383479, 8397346.269028497859836 ], [ 3360161.850944226142019, 8397348.346226552501321 ], [ 3360166.884417780674994, 8397350.619854688644409 ], [ 3360871.667323585599661, 8398086.58784482255578 ], [ 3360958.930634629912674, 8398259.527861258015037 ], [ 3361074.752847469877452, 8399408.230355735868216 ], [ 3361279.42497700965032, 8400271.343832246959209 ], [ 3361431.739119924139231, 8400850.454896453768015 ], [ 3361576.913537389133126, 8401138.423822900280356 ], [ 3362114.772854553069919, 8401966.631974998861551 ], [ 3362292.076036539394408, 8402117.756163669750094 ], [ 3362430.110728555358946, 8402174.873967263847589 ], [ 3362572.905237537343055, 8402186.773509679362178 ], [ 3362829.935353705193847, 8402136.795431533828378 ], [ 3364779.080401309765875, 8401667.953460378572345 ], [ 3364790.979943725280464, 8401667.9534603767097 ], [ 3364838.578113386407495, 8401826.217374498024583 ], [ 3364957.573537537828088, 8402014.23014465905726 ], [ 3365090.848412587773055, 8402130.845660327002406 ], [ 3365670.356128204613924, 8402465.222802190110087 ], [ 3365643.439936834387481, 8402510.39415268599987 ], [ 3365713.040709247812629, 8402450.4601542185992 ], [ 3365870.114669129718095, 8401848.343308005481958 ], [ 3365986.730184799060225, 8401617.492185149341822 ], [ 3365920.092747272923589, 8401236.706827860325575 ], [ 3365812.996865536086261, 8400541.773550810292363 ], [ 3365720.180434697773308, 8399842.080456793308258 ], [ 3365929.612381206359714, 8399727.844849605113268 ], [ 3365979.590459350496531, 8399642.168144216760993 ], [ 3366334.196823325008154, 8399539.832079444080591 ], [ 3366862.536506562959403, 8399411.317021360620856 ], [ 3367992.843996016774327, 8399094.890918815508485 ], [ 3368023.931846293155104, 8398654.506123749539256 ], [ 3367702.644201079849154, 8398740.182829141616821 ], [ 3365644.02336324006319, 8399247.103336032480001 ], [ 3365570.246200265362859, 8398566.449509877711535 ], [ 3365620.224278409499675, 8398492.672346903011203 ], [ 3365613.084552960470319, 8398364.157288819551468 ], [ 3365615.464461443945765, 8398286.810263121500611 ], [ 3365575.503577358089387, 8397949.245952816680074 ], [ 3365971.855756784789264, 8397839.387468300759792 ], [ 3365978.99548223381862, 8397777.509847741574049 ], [ 3366109.890448801685125, 8397575.217626681551337 ], [ 3366662.029216870199889, 8397406.244124384596944 ], [ 3367345.062951506115496, 8397358.645954724401236 ], [ 3367846.976424291264266, 8397351.960446406155825 ], [ 3367887.087108522187918, 8397084.361502051353455 ], [ 3367649.096260216087103, 8397034.383423905819654 ], [ 3367583.648776932619512, 8396932.047359135001898 ], [ 3367243.321863856632262, 8396934.427267618477345 ], [ 3367225.472550233826041, 8396827.331385880708694 ], [ 3367054.119139453861862, 8396817.811751948669553 ], [ 3366941.073486508801579, 8396833.281157089397311 ], [ 3366924.41412712726742, 8396930.85740489512682 ], [ 3366707.842455169651657, 8396968.935940623283386 ], [ 3366262.799568838439882, 8396990.355116970837116 ], [ 3365529.78775605885312, 8397137.90944292023778 ], [ 3365505.990018598269671, 8397142.777161946520209 ], [ 3365486.354426242876798, 8397100.425884317606688 ], [ 3365419.716988717671484, 8396626.824096187949181 ], [ 3365493.494151692837477, 8396291.257000075653195 ], [ 3365455.415615963749588, 8396079.445145085453987 ], [ 3365441.792254582513124, 8396055.160022621974349 ], [ 3365392.348041167948395, 8395824.794937396422029 ], [ 3365335.230237574782223, 8395439.249763142317533 ], [ 3365261.453074600081891, 8394925.189530802890658 ], [ 3365309.051244261208922, 8394637.220604352653027 ], [ 3365082.959938371088356, 8394758.595936989411712 ], [ 3364859.248540963977575, 8394803.814198167994618 ], [ 3364844.890590518247336, 8394801.109077069908381 ], [ 3364845.510838839225471, 8394789.94460729137063 ], [ 3364745.554682551883161, 8394751.866071561351418 ], [ 3364631.319075366016477, 8394680.468817071989179 ], [ 3364626.559258399996907, 8394680.468817071989179 ], [ 3364569.441454807296395, 8394580.512660784646869 ], [ 3364564.681637841276824, 8394352.041446411982179 ], [ 3364564.681637841276824, 8394347.28162944689393 ], [ 3364193.415914487093687, 8394352.041446411982179 ], [ 3364188.656097521074116, 8394352.041446411982179 ], [ 3363955.425066183321178, 8394313.962910683825612 ], [ 3363765.0323875406757, 8394161.6487677693367 ], [ 3363650.796780355274677, 8393956.976638227701187 ], [ 3363579.399525864049792, 8393718.985789924860001 ], [ 3363607.958427660632879, 8393490.514575554057956 ], [ 3363745.993119676597416, 8393171.606838826090097 ], [ 3364131.538293927907944, 8392985.973977150395513 ], [ 3364540.882553010247648, 8392886.017820863053203 ], [ 3364935.947361194062978, 8392871.738369967788458 ], [ 3365459.527227461803705, 8392695.62514222227037 ], [ 3365925.989290136378258, 8392595.66898593492806 ], [ 3365959.308008898980916, 8392148.246191125363111 ], [ 3365854.592035645619035, 8392114.927472362294793 ], [ 3365764.155513290315866, 8391953.09369551576674 ], [ 3365768.915330256335437, 8391838.85808833129704 ], [ 3366216.338125067763031, 8391424.754012282937765 ], [ 3367377.733464788645506, 8390863.095610287040472 ], [ 3367253.978223670739681, 8390358.555011883378029 ], [ 3365997.386544628534466, 8390358.555011883378029 ], [ 3365559.483383750077337, 8390767.899270966649055 ], [ 3365197.737294328864664, 8390958.291949609294534 ], [ 3364855.030472771730274, 8391005.890119269490242 ], [ 3363884.027811693493277, 8390739.340369168668985 ], [ 3363427.085382950957865, 8390529.908422661945224 ], [ 3363614.307255166117102, 8391110.021948806941509 ] ] ], [ [ [ 3362452.36654218705371, 8406144.3961495552212 ], [ 3362563.58905476750806, 8406275.753772171214223 ], [ 3363056.230110758449882, 8406858.831350520253181 ], [ 3363125.247456766199321, 8406918.329062595963478 ], [ 3363398.936932317446917, 8406706.517207603901625 ], [ 3363548.871166749391705, 8406794.573821477591991 ], [ 3363879.678445893805474, 8406489.945535646751523 ], [ 3363755.923204775433987, 8406304.312673967331648 ], [ 3363613.128695792052895, 8406116.299903806298971 ], [ 3363417.976200181525201, 8406071.08164262957871 ], [ 3363191.884894291870296, 8406068.701734146103263 ], [ 3363091.928738003596663, 8406028.24328993447125 ], [ 3362937.234686605166644, 8405899.72823184914887 ], [ 3362875.092469224706292, 8405818.943349255248904 ], [ 3363731.920668773818761, 8405159.279204985126853 ], [ 3362452.36654218705371, 8406144.3961495552212 ] ] ], [ [ [ 3361561.598188244737685, 8408447.447475729510188 ], [ 3361887.695045577827841, 8408058.305225977674127 ], [ 3362159.004612646065652, 8407713.218495935201645 ], [ 3362339.877657358068973, 8407539.485176673159003 ], [ 3362235.161684104241431, 8407508.546366391703486 ], [ 3361904.354404959827662, 8407502.596595184877515 ], [ 3361742.520628112368286, 8407287.214877467602491 ], [ 3361439.082296522799879, 8407507.356412151828408 ], [ 3361580.686851265374571, 8407714.408450175076723 ], [ 3361497.390054358635098, 8407779.855933459475636 ], [ 3361311.757192679680884, 8407927.410259407013655 ], [ 3361358.165408099535853, 8407995.237651174888015 ], [ 3361327.226597820874304, 8408091.6239447388798 ], [ 3361299.245537630282342, 8408167.67503141053021 ], [ 3360680.877993524074554, 8407508.248877735808492 ], [ 3361561.598188244737685, 8408447.447475729510188 ] ] ], [ [ [ 3367316.417248679790646, 8409150.162051606923342 ], [ 3367851.542252907063812, 8409045.669757790863514 ], [ 3367298.277828260324895, 8409093.800281018018723 ], [ 3367316.417248679790646, 8409150.162051606923342 ] ] ], [ [ [ 3368020.906560994219035, 8407594.36298032104969 ], [ 3368193.695343116298318, 8407270.141332970932126 ], [ 3369365.518905242905021, 8407993.468688311055303 ], [ 3368192.75276000937447, 8407269.47438670322299 ], [ 3368016.963635109830648, 8407594.871277475729585 ], [ 3368060.974199415184557, 8407634.384027352556586 ], [ 3368020.906560994219035, 8407594.36298032104969 ] ] ], [ [ [ 3372907.422626693267375, 8414310.921705082058907 ], [ 3372989.524547779001296, 8414076.514770962297916 ], [ 3372988.334593537729234, 8414076.514770962297916 ], [ 3373016.893495334777981, 8413825.434426002204418 ], [ 3373047.832305614370853, 8413587.443577697500587 ], [ 3372865.769306662026793, 8413220.937671311199665 ], [ 3372890.758345735259354, 8413085.28288777731359 ], [ 3373097.810383759438992, 8412766.375151049345732 ], [ 3373364.360133858863264, 8412728.29661532305181 ], [ 3373723.726314797531813, 8412173.777938773855567 ], [ 3373671.368328170850873, 8412023.843704342842102 ], [ 3373861.761006813496351, 8411673.997157337144017 ], [ 3373866.520823779515922, 8411414.587132686749101 ], [ 3373695.167413000948727, 8411195.635552247986197 ], [ 3373307.242330266628414, 8410969.544246358796954 ], [ 3373202.526357013266534, 8410603.038339972496033 ], [ 3373059.731848031282425, 8410303.169871108606458 ], [ 3372950.256057811435312, 8410312.689505042508245 ], [ 3372702.745575576089323, 8410964.784429393708706 ], [ 3372731.304477372672409, 8411064.740585681051016 ], [ 3372693.225941644050181, 8411150.417291069403291 ], [ 3372526.632347831502557, 8411345.569786678999662 ], [ 3372488.553812102880329, 8411583.560634981840849 ], [ 3372298.161133460234851, 8412292.773362929001451 ], [ 3372312.440584358293563, 8412616.440916620194912 ], [ 3372295.781224977690727, 8412997.226273903623223 ], [ 3372263.652460456360132, 8413488.67737564817071 ], [ 3372135.137402372434735, 8413755.227125748991966 ], [ 3372139.601910264696926, 8414025.329853238537908 ], [ 3372907.422626693267375, 8414310.921705082058907 ] ] ], [ [ [ 3387585.760717857629061, 8404651.948576048016548 ], [ 3388243.867341208737344, 8402896.997580444440246 ], [ 3388220.1692353351973, 8402869.889046050608158 ], [ 3388213.832233756314963, 8402914.952168390154839 ], [ 3387675.972916590515524, 8403181.50191848911345 ], [ 3381880.895760401152074, 8406244.444136159494519 ], [ 3381507.250128564424813, 8405811.300792247056961 ], [ 3380348.234697326086462, 8406409.847775729373097 ], [ 3380260.178083453793079, 8406416.987501177936792 ], [ 3380474.369846926536411, 8403946.642495788633823 ], [ 3380352.994514292106032, 8403813.367620738223195 ], [ 3380342.9492944390513, 8403803.026953242719173 ], [ 3380346.416645963210613, 8403810.779529400169849 ], [ 3378218.778462130110711, 8402109.144964030012488 ], [ 3376188.716526100877672, 8404686.585851157084107 ], [ 3377005.025135782081634, 8405350.580317921936512 ], [ 3377592.862531091552228, 8405562.392172913998365 ], [ 3377554.783995363395661, 8406319.20307051949203 ], [ 3377802.294477598741651, 8406371.561057144775987 ], [ 3377765.405896109994501, 8406701.178382044658065 ], [ 3379790.708015172742307, 8406895.140923412516713 ], [ 3379847.825818765442818, 8406978.437720321118832 ], [ 3380226.231267568189651, 8407830.444957247003913 ], [ 3383153.518701700493693, 8406633.350990280508995 ], [ 3385275.207114324904978, 8405486.235101459547877 ], [ 3386779.309275602921844, 8404667.546583294868469 ], [ 3387586.098251351621002, 8404630.658001806586981 ], [ 3387578.363548781722784, 8405118.539240829646587 ], [ 3387585.760717857629061, 8404651.948576048016548 ] ] ], [ [ [ 3389031.245888202916831, 8395450.612057032063603 ], [ 3389340.99597450857982, 8395431.423998588696122 ], [ 3389321.13788402499631, 8395210.778548771515489 ], [ 3389302.098616160918027, 8394589.622434694319963 ], [ 3389294.95889071142301, 8394392.090030601248145 ], [ 3388976.051153982523829, 8394382.570396669209003 ], [ 3388935.592709770426154, 8395239.337450567632914 ], [ 3388876.094997694250196, 8395658.201343584805727 ], [ 3388864.195455279201269, 8395733.168460799381137 ], [ 3388523.868542202282697, 8395810.515486499294639 ], [ 3388429.86215712223202, 8395841.454296780750155 ], [ 3388557.187260965351015, 8396297.206771284341812 ], [ 3388432.242065603844821, 8396393.593064848333597 ], [ 3388127.613779773004353, 8396522.108122933655977 ], [ 3387731.359017346054316, 8396731.540069440379739 ], [ 3387773.007415799424052, 8396952.871558362618089 ], [ 3388091.915152528788894, 8396939.782061707228422 ], [ 3388333.475863557308912, 8397033.788446787744761 ], [ 3388709.501403879839927, 8397309.857830820605159 ], [ 3388840.39637044724077, 8397538.329045195132494 ], [ 3388893.479946353472769, 8397678.524130281060934 ], [ 3389031.245888202916831, 8395450.612057032063603 ] ] ], [ [ [ 3389908.779927742667496, 8395396.251541309058666 ], [ 3390137.115474455989897, 8395368.577853433787823 ], [ 3389790.03114919969812, 8395403.607660334557295 ], [ 3389908.779927742667496, 8395396.251541309058666 ] ] ], [ [ [ 3392457.209059006068856, 8395199.288866382092237 ], [ 3392471.488509904593229, 8394199.727303506806493 ], [ 3392552.405398327857256, 8394025.993984244763851 ], [ 3392778.593963261228055, 8394186.765268143266439 ], [ 3392040.183325914666057, 8393475.825264627113938 ], [ 3391997.344973219558597, 8393417.51750679127872 ], [ 3391817.661882749293, 8393618.619773609563708 ], [ 3391806.952294575050473, 8394223.116528304293752 ], [ 3392410.259095027577132, 8394271.904652206227183 ], [ 3392410.259095027577132, 8395202.163353972136974 ], [ 3390591.360808307304978, 8395313.524473575875163 ], [ 3392457.209059006068856, 8395199.288866382092237 ] ] ], [ [ [ 3393037.906728866975754, 8394371.080714283511043 ], [ 3392778.593963261693716, 8394186.765268143266439 ], [ 3392778.593963261228055, 8394186.765268143266439 ], [ 3393037.906728866975754, 8394371.080714283511043 ] ] ] ] } }
]
}
