{
"type": "FeatureCollection",
"name": "stage_isolated_urban_areas",
"crs": { "type": "name", "properties": { "name": "urn:ogc:def:crs:EPSG::3857" } },
"features": [
{ "type": "Feature", "properties": { }, "geometry": { "type": "MultiPolygon", "coordinates": [ [ [ [ 3390229.462865487672389, 8372835.282193144783378 ], [ 3389943.994355005212128, 8373443.454237216152251 ], [ 3389648.885703106410801, 8374138.38751426897943 ], [ 3389496.57156019192189, 8375004.674202098511159 ], [ 3389230.021810089237988, 8376546.854899116791785 ], [ 3388287.57805080153048, 8378246.109556016512215 ], [ 3387997.229215869214386, 8378736.370703525841236 ], [ 3388915.873890327289701, 8379952.503938366658986 ], [ 3388487.490363376680762, 8380402.306641663424671 ], [ 3387654.522394308354706, 8381030.602481190115213 ], [ 3387126.182711070403457, 8381580.361340775154531 ], [ 3387038.126097197178751, 8381654.138503750786185 ], [ 3387322.525160923600197, 8381874.280038432218134 ], [ 3387545.04660408757627, 8382119.410612186416984 ], [ 3387678.32147913845256, 8382404.999630154110491 ], [ 3388037.687660079915076, 8383015.446156059391797 ], [ 3388199.521436927840114, 8382983.317391538061202 ], [ 3388463.691278546582907, 8382927.389542186632752 ], [ 3388422.042880093213171, 8383226.068056810647249 ], [ 3388674.313179296907037, 8383254.626958607695997 ], [ 3388707.631898059975356, 8383423.60046090465039 ], [ 3388602.915924806147814, 8383698.47989069763571 ], [ 3388512.479402450378984, 8383857.933759063482285 ], [ 3388990.841007543727756, 8384571.906303978525102 ], [ 3389352.587096968200058, 8385319.197567655704916 ], [ 3389457.710663801524788, 8385421.788036493584514 ], [ 3389476.373684004880488, 8385428.574589295312762 ], [ 3390018.992818136699498, 8385409.535321430303156 ], [ 3393422.261948876082897, 8384189.832223874516785 ], [ 3395482.072740943171084, 8383453.250548374839127 ], [ 3395491.592374875675887, 8383205.740066139027476 ], [ 3395313.099238647613674, 8381377.970351167954504 ], [ 3394913.274613498244435, 8381185.197764042764902 ], [ 3395236.94216719083488, 8380411.72750705294311 ], [ 3395160.785095733590424, 8379916.706542581319809 ], [ 3394051.747742639388889, 8379321.72942182328552 ], [ 3394515.829896831419319, 8378464.962367931380868 ], [ 3394882.335803219117224, 8378610.136785397306085 ], [ 3395056.069122480694205, 8378507.800720626488328 ], [ 3394996.571410404518247, 8377993.740488288924098 ], [ 3394972.772325574420393, 8377775.978862093761563 ], [ 3394833.547679316718131, 8377750.989823021925986 ], [ 3394721.691980613395572, 8376701.450182003900409 ], [ 3394838.307496282272041, 8376663.371646275743842 ], [ 3394566.997929216362536, 8373740.844029108062387 ], [ 3394840.687404764350504, 8373543.311625014990568 ], [ 3395590.358576920349151, 8373809.861375114880502 ], [ 3396568.500963447149843, 8371396.634173316881061 ], [ 3396340.029749075882137, 8371165.783050462603569 ], [ 3395614.157661750447005, 8370656.482635091990232 ], [ 3395131.036239694338292, 8370627.923733294010162 ], [ 3394390.884701470844448, 8370339.954806847497821 ], [ 3394486.081040792167187, 8370049.605971917510033 ], [ 3394452.76232202956453, 8369966.309175010770559 ], [ 3393996.918678953777999, 8369806.207993051037192 ], [ 3393712.664012379013002, 8370277.369837647303939 ], [ 3393417.555360482539982, 8370677.194462797604501 ], [ 3392798.779154893010855, 8370991.342382556758821 ], [ 3392470.351784234400839, 8371053.220003115944564 ], [ 3391823.016676848754287, 8371138.896708505228162 ], [ 3391327.995712377596647, 8371300.730485350824893 ], [ 3391032.887060481589288, 8371550.620876071974635 ], [ 3390885.332734533119947, 8371717.214469884522259 ], [ 3391044.786602896638215, 8371821.930443139746785 ], [ 3390897.232276949100196, 8372086.100284756161273 ], [ 3390692.560147408396006, 8372038.502115095965564 ], [ 3390530.726370561867952, 8372328.85095002502203 ], [ 3390287.975705292075872, 8372859.570541742257774 ], [ 3390229.462865487672389, 8372835.282193144783378 ] ] ] ] } },
{ "type": "Feature", "properties": { }, "geometry": { "type": "MultiPolygon", "coordinates": [ [ [ [ 3385712.517072135582566, 8381063.921199946664274 ], [ 3386259.896023237612098, 8381344.750400947406888 ], [ 3386421.729800085537136, 8380916.36687399726361 ], [ 3386807.274974340107292, 8380606.978771200403571 ], [ 3387102.383626238442957, 8380430.865543454885483 ], [ 3386935.790032424964011, 8380211.913963014259934 ], [ 3387840.155255984980613, 8379474.142333267256618 ], [ 3387492.688617459032685, 8379098.116792945191264 ], [ 3386697.799184119328856, 8379783.530436064116657 ], [ 3385974.307005271315575, 8380464.184262217953801 ], [ 3385669.678719440475106, 8381035.362298150546849 ], [ 3385712.517072135582566, 8381063.921199946664274 ] ] ] ] } },
{ "type": "Feature", "properties": { }, "geometry": { "type": "MultiPolygon", "coordinates": [ [ [ [ 3353600.411910297814757, 8363792.925338424742222 ], [ 3353514.140227769501507, 8364647.312483815476298 ], [ 3353462.972195385023952, 8364934.091456025838852 ], [ 3353180.953040142543614, 8365483.850315609015524 ], [ 3353218.344894967507571, 8365635.11736467294395 ], [ 3353255.325180258601904, 8365620.695053409785032 ], [ 3353626.590903614182025, 8365399.36356448661536 ], [ 3353831.263033156748861, 8365404.123381452634931 ], [ 3354083.533332360442728, 8365294.647591232322156 ], [ 3355449.600801633205265, 8365313.68685909640044 ], [ 3355935.102132175583392, 8365251.809238537214696 ], [ 3356311.127672497648746, 8365080.455827756784856 ], [ 3356311.127672497648746, 8364609.233948112465441 ], [ 3357163.134909430518746, 8364571.155412383377552 ], [ 3357179.794268812052906, 8365147.09326528199017 ], [ 3357955.64443428767845, 8365106.634821070358157 ], [ 3358360.228876407258213, 8365097.115187139250338 ], [ 3358607.739358644932508, 8364935.281410291790962 ], [ 3358898.088193577248603, 8364744.888731647282839 ], [ 3359207.476296374108642, 8364735.369097715243697 ], [ 3360230.836944086942822, 8364721.08964681532234 ], [ 3360230.836944086942822, 8364330.784655595198274 ], [ 3360459.308158460073173, 8364168.950878747738898 ], [ 3360554.504497782327235, 8363892.881494713015854 ], [ 3360535.465229917317629, 8363369.301628440618515 ], [ 3360259.395845883060247, 8363159.869681932032108 ], [ 3360240.356578018516302, 8362817.162860372103751 ], [ 3360126.120970832183957, 8362398.298967354930937 ], [ 3360097.562069035600871, 8362093.670681524090469 ], [ 3360221.317310153972358, 8361617.688984913751483 ], [ 3360240.356578018516302, 8361284.501797285862267 ], [ 3360002.365729711018503, 8360732.363029218278825 ], [ 3356789.489277590066195, 8360951.314609659835696 ], [ 3355166.391692147124559, 8361084.589484709315002 ], [ 3355161.631875181104988, 8363216.987485524266958 ], [ 3353771.765321077778935, 8363240.786570355296135 ], [ 3353576.612825467251241, 8363236.026753389276564 ], [ 3353600.411910297814757, 8363792.925338424742222 ] ] ] ] } },
{ "type": "Feature", "properties": { }, "geometry": { "type": "MultiPolygon", "coordinates": [ [ [ [ 3360713.958366142120212, 8361398.737404472194612 ], [ 3361047.145553769543767, 8362093.670681524090469 ], [ 3362517.928996297065169, 8364345.064106492325664 ], [ 3362977.251333526335657, 8364880.543515178374946 ], [ 3363367.556324746925384, 8365085.215644720941782 ], [ 3363734.062231136951596, 8364423.601086432114244 ], [ 3364852.619218171574175, 8362100.810406973585486 ], [ 3365195.326039731036872, 8361320.20042453147471 ], [ 3364567.030200205277652, 8361063.170308360829949 ], [ 3362406.073297592811286, 8360720.463486801832914 ], [ 3361939.611234914511442, 8360691.904585004784167 ], [ 3360713.958366142120212, 8361398.737404472194612 ] ] ] ] } },
{ "type": "Feature", "properties": { }, "geometry": { "type": "MultiPolygon", "coordinates": [ [ [ [ 3360183.238774421159178, 8397354.394766431301832 ], [ 3360378.391270031221211, 8396816.53544926084578 ], [ 3360851.99305815808475, 8396935.530873412266374 ], [ 3361009.067018039524555, 8396559.50533309020102 ], [ 3362184.741808667778969, 8396226.318145463243127 ], [ 3362898.714353583753109, 8396012.126381987705827 ], [ 3362722.601125837769359, 8395360.03145763091743 ], [ 3363093.866849194280803, 8395326.712738869711757 ], [ 3363636.485983330290765, 8395588.502672005444765 ], [ 3363674.564519058912992, 8395883.611323904246092 ], [ 3364226.703287127893418, 8396002.606748055666685 ], [ 3364379.017430043313652, 8395988.32729715667665 ], [ 3364455.174501501023769, 8395678.939194360747933 ], [ 3364602.728827450424433, 8395588.50267200358212 ], [ 3364759.802787331864238, 8395569.463404139503837 ], [ 3364997.793635637033731, 8395959.768395360559225 ], [ 3365097.749791925307363, 8396497.627712531015277 ], [ 3363427.054036821238697, 8398325.397427514195442 ], [ 3363503.211108278948814, 8398577.667726717889309 ], [ 3363641.245800296310335, 8398744.261320531368256 ], [ 3363855.437563770916313, 8398791.859490193426609 ], [ 3363964.913353991229087, 8398749.021137498319149 ], [ 3364250.502371958456933, 8399624.827459260821342 ], [ 3364588.449376550503075, 8400936.157033424824476 ], [ 3365502.334234042558819, 8400712.445636017248034 ], [ 3365526.133318872191012, 8401431.177997896447778 ], [ 3364793.121506092138588, 8401621.570676540955901 ], [ 3362489.370094497222453, 8402207.028163373470306 ], [ 3362127.624005073215812, 8402092.792556185275316 ], [ 3361822.995719242375344, 8401588.251957779750228 ], [ 3361375.572924428153783, 8400712.445636015385389 ], [ 3360985.267933207564056, 8398665.724340589717031 ], [ 3360985.267933207564056, 8398237.340813640505075 ], [ 3361556.445969140157104, 8398413.454041386023164 ], [ 3362232.339978327043355, 8398622.885987894609571 ], [ 3362351.335402479860932, 8398232.580996673554182 ], [ 3360183.238774421159178, 8397354.394766431301832 ] ] ] ] } },
{ "type": "Feature", "properties": { }, "geometry": { "type": "MultiPolygon", "coordinates": [ ] } },
{ "type": "Feature", "properties": { }, "geometry": { "type": "MultiPolygon", "coordinates": [ ] } },
{ "type": "Feature", "properties": { }, "geometry": { "type": "MultiPolygon", "coordinates": [ ] } },
{ "type": "Feature", "properties": { }, "geometry": { "type": "MultiPolygon", "coordinates": [ ] } },
{ "type": "Feature", "properties": { }, "geometry": { "type": "MultiPolygon", "coordinates": [ ] } },
{ "type": "Feature", "properties": { }, "geometry": { "type": "MultiPolygon", "coordinates": [ ] } },
{ "type": "Feature", "properties": { }, "geometry": { "type": "MultiPolygon", "coordinates": [ ] } },
{ "type": "Feature", "properties": { }, "geometry": { "type": "MultiPolygon", "coordinates": [ ] } },
{ "type": "Feature", "properties": { }, "geometry": { "type": "MultiPolygon", "coordinates": [ ] } },
{ "type": "Feature", "properties": { }, "geometry": { "type": "MultiPolygon", "coordinates": [ ] } },
{ "type": "Feature", "properties": { }, "geometry": { "type": "MultiPolygon", "coordinates": [ ] } },
{ "type": "Feature", "properties": { }, "geometry": { "type": "MultiPolygon", "coordinates": [ ] } },
{ "type": "Feature", "properties": { }, "geometry": { "type": "MultiPolygon", "coordinates": [ ] } },
{ "type": "Feature", "properties": { }, "geometry": { "type": "MultiPolygon", "coordinates": [ ] } },
{ "type": "Feature", "properties": { }, "geometry": { "type": "MultiPolygon", "coordinates": [ ] } },
{ "type": "Feature", "properties": { }, "geometry": { "type": "MultiPolygon", "coordinates": [ ] } },
{ "type": "Feature", "properties": { }, "geometry": { "type": "MultiPolygon", "coordinates": [ ] } },
{ "type": "Feature", "properties": { }, "geometry": { "type": "MultiPolygon", "coordinates": [ ] } },
{ "type": "Feature", "properties": { }, "geometry": { "type": "MultiPolygon", "coordinates": [ ] } },
{ "type": "Feature", "properties": { }, "geometry": { "type": "MultiPolygon", "coordinates": [ ] } },
{ "type": "Feature", "properties": { }, "geometry": { "type": "MultiPolygon", "coordinates": [ ] } },
{ "type": "Feature", "properties": { }, "geometry": { "type": "MultiPolygon", "coordinates": [ ] } },
{ "type": "Feature", "properties": { }, "geometry": { "type": "MultiPolygon", "coordinates": [ ] } },
{ "type": "Feature", "properties": { }, "geometry": { "type": "MultiPolygon", "coordinates": [ ] } },
{ "type": "Feature", "properties": { }, "geometry": { "type": "MultiPolygon", "coordinates": [ ] } },
{ "type": "Feature", "properties": { }, "geometry": { "type": "MultiPolygon", "coordinates": [ ] } },
{ "type": "Feature", "properties": { }, "geometry": { "type": "MultiPolygon", "coordinates": [ ] } },
{ "type": "Feature", "properties": { }, "geometry": { "type": "MultiPolygon", "coordinates": [ ] } },
{ "type": "Feature", "properties": { }, "geometry": { "type": "MultiPolygon", "coordinates": [ ] } },
{ "type": "Feature", "properties": { }, "geometry": { "type": "MultiPolygon", "coordinates": [ ] } },
{ "type": "Feature", "properties": { }, "geometry": { "type": "MultiPolygon", "coordinates": [ ] } },
{ "type": "Feature", "properties": { }, "geometry": { "type": "MultiPolygon", "coordinates": [ ] } },
{ "type": "Feature", "properties": { }, "geometry": { "type": "MultiPolygon", "coordinates": [ ] } },
{ "type": "Feature", "properties": { }, "geometry": { "type": "MultiPolygon", "coordinates": [ ] } },
{ "type": "Feature", "properties": { }, "geometry": { "type": "MultiPolygon", "coordinates": [ ] } },
{ "type": "Feature", "properties": { }, "geometry": { "type": "MultiPolygon", "coordinates": [ ] } },
{ "type": "Feature", "properties": { }, "geometry": { "type": "MultiPolygon", "coordinates": [ ] } },
{ "type": "Feature", "properties": { }, "geometry": { "type": "MultiPolygon", "coordinates": [ ] } },
{ "type": "Feature", "properties": { }, "geometry": { "type": "MultiPolygon", "coordinates": [ ] } },
{ "type": "Feature", "properties": { }, "geometry": { "type": "MultiPolygon", "coordinates": [ ] } },
{ "type": "Feature", "properties": { }, "geometry": { "type": "MultiPolygon", "coordinates": [ ] } },
{ "type": "Feature", "properties": { }, "geometry": { "type": "MultiPolygon", "coordinates": [ ] } },
{ "type": "Feature", "properties": { }, "geometry": { "type": "MultiPolygon", "coordinates": [ ] } },
{ "type": "Feature", "properties": { }, "geometry": { "type": "MultiPolygon", "coordinates": [ ] } },
{ "type": "Feature", "properties": { }, "geometry": { "type": "MultiPolygon", "coordinates": [ ] } },
{ "type": "Feature", "properties": { }, "geometry": { "type": "MultiPolygon", "coordinates": [ ] } },
{ "type": "Feature", "properties": { }, "geometry": { "type": "MultiPolygon", "coordinates": [ ] } },
{ "type": "Feature", "properties": { }, "geometry": { "type": "MultiPolygon", "coordinates": [ ] } },
{ "type": "Feature", "properties": { }, "geometry": { "type": "MultiPolygon", "coordinates": [ ] } },
{ "type": "Feature", "properties": { }, "geometry": { "type": "MultiPolygon", "coordinates": [ ] } },
{ "type": "Feature", "properties": { }, "geometry": { "type": "MultiPolygon", "coordinates": [ ] } },
{ "type": "Feature", "properties": { }, "geometry": { "type": "MultiPolygon", "coordinates": [ ] } },
{ "type": "Feature", "properties": { }, "geometry": { "type": "MultiPolygon", "coordinates": [ ] } },
{ "type": "Feature", "properties": { }, "geometry": { "type": "MultiPolygon", "coordinates": [ ] } },
{ "type": "Feature", "properties": { }, "geometry": { "type": "MultiPolygon", "coordinates": [ ] } },
{ "type": "Feature", "properties": { }, "geometry": { "type": "MultiPolygon", "coordinates": [ ] } },
{ "type": "Feature", "properties": { }, "geometry": { "type": "MultiPolygon", "coordinates": [ ] } },
{ "type": "Feature", "properties": { }, "geometry": { "type": "MultiPolygon", "coordinates": [ ] } },
{ "type": "Feature", "properties": { }, "geometry": { "type": "MultiPolygon", "coordinates": [ ] } },
{ "type": "Feature", "properties": { }, "geometry": { "type": "MultiPolygon", "coordinates": [ ] } },
{ "type": "Feature", "properties": { }, "geometry": { "type": "MultiPolygon", "coordinates": [ ] } },
{ "type": "Feature", "properties": { }, "geometry": { "type": "MultiPolygon", "coordinates": [ ] } },
{ "type": "Feature", "properties": { }, "geometry": { "type": "MultiPolygon", "coordinates": [ ] } },
{ "type": "Feature", "properties": { }, "geometry": { "type": "MultiPolygon", "coordinates": [ ] } },
{ "type": "Feature", "properties": { }, "geometry": { "type": "MultiPolygon", "coordinates": [ ] } },
{ "type": "Feature", "properties": { }, "geometry": { "type": "MultiPolygon", "coordinates": [ ] } },
{ "type": "Feature", "properties": { }, "geometry": { "type": "MultiPolygon", "coordinates": [ ] } },
{ "type": "Feature", "properties": { }, "geometry": { "type": "MultiPolygon", "coordinates": [ ] } },
{ "type": "Feature", "properties": { }, "geometry": { "type": "MultiPolygon", "coordinates": [ ] } },
{ "type": "Feature", "properties": { }, "geometry": { "type": "MultiPolygon", "coordinates": [ ] } },
{ "type": "Feature", "properties": { }, "geometry": { "type": "MultiPolygon", "coordinates": [ ] } },
{ "type": "Feature", "properties": { }, "geometry": { "type": "MultiPolygon", "coordinates": [ ] } },
{ "type": "Feature", "properties": { }, "geometry": { "type": "MultiPolygon", "coordinates": [ ] } },
{ "type": "Feature", "properties": { }, "geometry": { "type": "MultiPolygon", "coordinates": [ ] } },
{ "type": "Feature", "properties": { }, "geometry": { "type": "MultiPolygon", "coordinates": [ ] } },
{ "type": "Feature", "properties": { }, "geometry": { "type": "MultiPolygon", "coordinates": [ ] } },
{ "type": "Feature", "properties": { }, "geometry": { "type": "MultiPolygon", "coordinates": [ ] } },
{ "type": "Feature", "properties": { }, "geometry": { "type": "MultiPolygon", "coordinates": [ ] } },
{ "type": "Feature", "properties": { }, "geometry": { "type": "MultiPolygon", "coordinates": [ ] } },
{ "type": "Feature", "properties": { }, "geometry": { "type": "MultiPolygon", "coordinates": [ ] } },
{ "type": "Feature", "properties": { }, "geometry": { "type": "MultiPolygon", "coordinates": [ ] } },
{ "type": "Feature", "properties": { }, "geometry": { "type": "MultiPolygon", "coordinates": [ ] } },
{ "type": "Feature", "properties": { }, "geometry": { "type": "MultiPolygon", "coordinates": [ ] } },
{ "type": "Feature", "properties": { }, "geometry": { "type": "MultiPolygon", "coordinates": [ ] } },
{ "type": "Feature", "properties": { }, "geometry": { "type": "MultiPolygon", "coordinates": [ ] } },
{ "type": "Feature", "properties": { }, "geometry": { "type": "MultiPolygon", "coordinates": [ ] } },
{ "type": "Feature", "properties": { }, "geometry": { "type": "MultiPolygon", "coordinates": [ ] } },
{ "type": "Feature", "properties": { }, "geometry": { "type": "MultiPolygon", "coordinates": [ ] } },
{ "type": "Feature", "properties": { }, "geometry": { "type": "MultiPolygon", "coordinates": [ ] } },
{ "type": "Feature", "properties": { }, "geometry": { "type": "MultiPolygon", "coordinates": [ ] } },
{ "type": "Feature", "properties": { }, "geometry": { "type": "MultiPolygon", "coordinates": [ ] } },
{ "type": "Feature", "properties": { }, "geometry": { "type": "MultiPolygon", "coordinates": [ ] } },
{ "type": "Feature", "properties": { }, "geometry": { "type": "MultiPolygon", "coordinates": [ ] } },
{ "type": "Feature", "properties": { }, "geometry": { "type": "MultiPolygon", "coordinates": [ ] } },
{ "type": "Feature", "properties": { }, "geometry": { "type": "MultiPolygon", "coordinates": [ ] } },
{ "type": "Feature", "properties": { }, "geometry": { "type": "MultiPolygon", "coordinates": [ ] } },
{ "type": "Feature", "properties": { }, "geometry": { "type": "MultiPolygon", "coordinates": [ ] } },
{ "type": "Feature", "properties": { }, "geometry": { "type": "MultiPolygon", "coordinates": [ ] } },
{ "type": "Feature", "properties": { }, "geometry": { "type": "MultiPolygon", "coordinates": [ ] } },
{ "type": "Feature", "properties": { }, "geometry": { "type": "MultiPolygon", "coordinates": [ ] } },
{ "type": "Feature", "properties": { }, "geometry": { "type": "MultiPolygon", "coordinates": [ ] } },
{ "type": "Feature", "properties": { }, "geometry": { "type": "MultiPolygon", "coordinates": [ ] } },
{ "type": "Feature", "properties": { }, "geometry": { "type": "MultiPolygon", "coordinates": [ ] } },
{ "type": "Feature", "properties": { }, "geometry": { "type": "MultiPolygon", "coordinates": [ ] } },
{ "type": "Feature", "properties": { }, "geometry": { "type": "MultiPolygon", "coordinates": [ ] } },
{ "type": "Feature", "properties": { }, "geometry": { "type": "MultiPolygon", "coordinates": [ ] } },
{ "type": "Feature", "properties": { }, "geometry": { "type": "MultiPolygon", "coordinates": [ ] } },
{ "type": "Feature", "properties": { }, "geometry": { "type": "MultiPolygon", "coordinates": [ ] } },
{ "type": "Feature", "properties": { }, "geometry": { "type": "MultiPolygon", "coordinates": [ ] } },
{ "type": "Feature", "properties": { }, "geometry": { "type": "MultiPolygon", "coordinates": [ ] } },
{ "type": "Feature", "properties": { }, "geometry": { "type": "MultiPolygon", "coordinates": [ ] } },
{ "type": "Feature", "properties": { }, "geometry": { "type": "MultiPolygon", "coordinates": [ ] } },
{ "type": "Feature", "properties": { }, "geometry": { "type": "MultiPolygon", "coordinates": [ ] } },
{ "type": "Feature", "properties": { }, "geometry": { "type": "MultiPolygon", "coordinates": [ ] } },
{ "type": "Feature", "properties": { }, "geometry": { "type": "MultiPolygon", "coordinates": [ ] } },
{ "type": "Feature", "properties": { }, "geometry": { "type": "MultiPolygon", "coordinates": [ ] } },
{ "type": "Feature", "properties": { }, "geometry": { "type": "MultiPolygon", "coordinates": [ ] } },
{ "type": "Feature", "properties": { }, "geometry": { "type": "MultiPolygon", "coordinates": [ ] } },
{ "type": "Feature", "properties": { }, "geometry": { "type": "MultiPolygon", "coordinates": [ ] } },
{ "type": "Feature", "properties": { }, "geometry": { "type": "MultiPolygon", "coordinates": [ ] } },
{ "type": "Feature", "properties": { }, "geometry": { "type": "MultiPolygon", "coordinates": [ ] } },
{ "type": "Feature", "properties": { }, "geometry": { "type": "MultiPolygon", "coordinates": [ ] } },
{ "type": "Feature", "properties": { }, "geometry": { "type": "MultiPolygon", "coordinates": [ ] } },
{ "type": "Feature", "properties": { }, "geometry": { "type": "MultiPolygon", "coordinates": [ ] } },
{ "type": "Feature", "properties": { }, "geometry": { "type": "MultiPolygon", "coordinates": [ ] } },
{ "type": "Feature", "properties": { }, "geometry": { "type": "MultiPolygon", "coordinates": [ ] } },
{ "type": "Feature", "properties": { }, "geometry": { "type": "MultiPolygon", "coordinates": [ ] } },
{ "type": "Feature", "properties": { }, "geometry": { "type": "MultiPolygon", "coordinates": [ ] } },
{ "type": "Feature", "properties": { }, "geometry": { "type": "MultiPolygon", "coordinates": [ ] } },
{ "type": "Feature", "properties": { }, "geometry": { "type": "MultiPolygon", "coordinates": [ ] } },
{ "type": "Feature", "properties": { }, "geometry": { "type": "MultiPolygon", "coordinates": [ ] } },
{ "type": "Feature", "properties": { }, "geometry": { "type": "MultiPolygon", "coordinates": [ ] } },
{ "type": "Feature", "properties": { }, "geometry": { "type": "MultiPolygon", "coordinates": [ ] } },
{ "type": "Feature", "properties": { }, "geometry": { "type": "MultiPolygon", "coordinates": [ ] } },
{ "type": "Feature", "properties": { }, "geometry": { "type": "MultiPolygon", "coordinates": [ ] } },
{ "type": "Feature", "properties": { }, "geometry": { "type": "MultiPolygon", "coordinates": [ ] } },
{ "type": "Feature", "properties": { }, "geometry": { "type": "MultiPolygon", "coordinates": [ ] } },
{ "type": "Feature", "properties": { }, "geometry": { "type": "MultiPolygon", "coordinates": [ ] } },
{ "type": "Feature", "properties": { }, "geometry": { "type": "MultiPolygon", "coordinates": [ ] } },
{ "type": "Feature", "properties": { }, "geometry": { "type": "MultiPolygon", "coordinates": [ ] } },
{ "type": "Feature", "properties": { }, "geometry": { "type": "MultiPolygon", "coordinates": [ ] } },
{ "type": "Feature", "properties": { }, "geometry": { "type": "MultiPolygon", "coordinates": [ ] } },
{ "type": "Feature", "properties": { }, "geometry": { "type": "MultiPolygon", "coordinates": [ ] } },
{ "type": "Feature", "properties": { }, "geometry": { "type": "MultiPolygon", "coordinates": [ ] } },
{ "type": "Feature", "properties": { }, "geometry": { "type": "MultiPolygon", "coordinates": [ ] } },
{ "type": "Feature", "properties": { }, "geometry": { "type": "MultiPolygon", "coordinates": [ ] } },
{ "type": "Feature", "properties": { }, "geometry": { "type": "MultiPolygon", "coordinates": [ ] } },
{ "type": "Feature", "properties": { }, "geometry": { "type": "MultiPolygon", "coordinates": [ ] } },
{ "type": "Feature", "properties": { }, "geometry": { "type": "MultiPolygon", "coordinates": [ ] } },
{ "type": "Feature", "properties": { }, "geometry": { "type": "MultiPolygon", "coordinates": [ ] } },
{ "type": "Feature", "properties": { }, "geometry": { "type": "MultiPolygon", "coordinates": [ ] } },
{ "type": "Feature", "properties": { }, "geometry": { "type": "MultiPolygon", "coordinates": [ ] } },
{ "type": "Feature", "properties": { }, "geometry": { "type": "MultiPolygon", "coordinates": [ ] } },
{ "type": "Feature", "properties": { }, "geometry": { "type": "MultiPolygon", "coordinates": [ ] } },
{ "type": "Feature", "properties": { }, "geometry": { "type": "MultiPolygon", "coordinates": [ ] } },
{ "type": "Feature", "properties": { }, "geometry": { "type": "MultiPolygon", "coordinates": [ ] } },
{ "type": "Feature", "properties": { }, "geometry": { "type": "MultiPolygon", "coordinates": [ ] } },
{ "type": "Feature", "properties": { }, "geometry": { "type": "MultiPolygon", "coordinates": [ ] } },
{ "type": "Feature", "properties": { }, "geometry": { "type": "MultiPolygon", "coordinates": [ ] } },
{ "type": "Feature", "properties": { }, "geometry": { "type": "MultiPolygon", "coordinates": [ ] } },
{ "type": "Feature", "properties": { }, "geometry": { "type": "MultiPolygon", "coordinates": [ ] } },
{ "type": "Feature", "properties": { }, "geometry": { "type": "MultiPolygon", "coordinates": [ ] } },
{ "type": "Feature", "properties": { }, "geometry": { "type": "MultiPolygon", "coordinates": [ ] } },
{ "type": "Feature", "properties": { }, "geometry": { "type": "MultiPolygon", "coordinates": [ ] } },
{ "type": "Feature", "properties": { }, "geometry": { "type": "MultiPolygon", "coordinates": [ ] } },
{ "type": "Feature", "properties": { }, "geometry": { "type": "MultiPolygon", "coordinates": [ ] } },
{ "type": "Feature", "properties": { }, "geometry": { "type": "MultiPolygon", "coordinates": [ ] } },
{ "type": "Feature", "properties": { }, "geometry": { "type": "MultiPolygon", "coordinates": [ ] } },
{ "type": "Feature", "properties": { }, "geometry": { "type": "MultiPolygon", "coordinates": [ ] } },
{ "type": "Feature", "properties": { }, "geometry": { "type": "MultiPolygon", "coordinates": [ ] } },
{ "type": "Feature", "properties": { }, "geometry": { "type": "MultiPolygon", "coordinates": [ ] } },
{ "type": "Feature", "properties": { }, "geometry": { "type": "MultiPolygon", "coordinates": [ ] } },
{ "type": "Feature", "properties": { }, "geometry": { "type": "MultiPolygon", "coordinates": [ ] } },
{ "type": "Feature", "properties": { }, "geometry": { "type": "MultiPolygon", "coordinates": [ ] } },
{ "type": "Feature", "properties": { }, "geometry": { "type": "MultiPolygon", "coordinates": [ ] } },
{ "type": "Feature", "properties": { }, "geometry": { "type": "MultiPolygon", "coordinates": [ ] } },
{ "type": "Feature", "properties": { }, "geometry": { "type": "MultiPolygon", "coordinates": [ ] } },
{ "type": "Feature", "properties": { }, "geometry": { "type": "MultiPolygon", "coordinates": [ ] } },
{ "type": "Feature", "properties": { }, "geometry": { "type": "MultiPolygon", "coordinates": [ ] } },
{ "type": "Feature", "properties": { }, "geometry": { "type": "MultiPolygon", "coordinates": [ ] } },
{ "type": "Feature", "properties": { }, "geometry": { "type": "MultiPolygon", "coordinates": [ ] } },
{ "type": "Feature", "properties": { }, "geometry": { "type": "MultiPolygon", "coordinates": [ ] } },
{ "type": "Feature", "properties": { }, "geometry": { "type": "MultiPolygon", "coordinates": [ ] } },
{ "type": "Feature", "properties": { }, "geometry": { "type": "MultiPolygon", "coordinates": [ ] } },
{ "type": "Feature", "properties": { }, "geometry": { "type": "MultiPolygon", "coordinates": [ ] } },
{ "type": "Feature", "properties": { }, "geometry": { "type": "MultiPolygon", "coordinates": [ ] } },
{ "type": "Feature", "properties": { }, "geometry": { "type": "MultiPolygon", "coordinates": [ ] } },
{ "type": "Feature", "properties": { }, "geometry": { "type": "MultiPolygon", "coordinates": [ ] } },
{ "type": "Feature", "properties": { }, "geometry": { "type": "MultiPolygon", "coordinates": [ ] } },
{ "type": "Feature", "properties": { }, "geometry": { "type": "MultiPolygon", "coordinates": [ ] } },
{ "type": "Feature", "properties": { }, "geometry": { "type": "MultiPolygon", "coordinates": [ ] } },
{ "type": "Feature", "properties": { }, "geometry": { "type": "MultiPolygon", "coordinates": [ ] } },
{ "type": "Feature", "properties": { }, "geometry": { "type": "MultiPolygon", "coordinates": [ ] } },
{ "type": "Feature", "properties": { }, "geometry": { "type": "MultiPolygon", "coordinates": [ ] } },
{ "type": "Feature", "properties": { }, "geometry": { "type": "MultiPolygon", "coordinates": [ ] } },
{ "type": "Feature", "properties": { }, "geometry": { "type": "MultiPolygon", "coordinates": [ ] } },
{ "type": "Feature", "properties": { }, "geometry": { "type": "MultiPolygon", "coordinates": [ ] } },
{ "type": "Feature", "properties": { }, "geometry": { "type": "MultiPolygon", "coordinates": [ ] } },
{ "type": "Feature", "properties": { }, "geometry": { "type": "MultiPolygon", "coordinates": [ ] } },
{ "type": "Feature", "properties": { }, "geometry": { "type": "MultiPolygon", "coordinates": [ ] } },
{ "type": "Feature", "properties": { }, "geometry": { "type": "MultiPolygon", "coordinates": [ ] } },
{ "type": "Feature", "properties": { }, "geometry": { "type": "MultiPolygon", "coordinates": [ ] } },
{ "type": "Feature", "properties": { }, "geometry": { "type": "MultiPolygon", "coordinates": [ ] } },
{ "type": "Feature", "properties": { }, "geometry": { "type": "MultiPolygon", "coordinates": [ ] } },
{ "type": "Feature", "properties": { }, "geometry": { "type": "MultiPolygon", "coordinates": [ ] } },
{ "type": "Feature", "properties": { }, "geometry": { "type": "MultiPolygon", "coordinates": [ ] } },
{ "type": "Feature", "properties": { }, "geometry": { "type": "MultiPolygon", "coordinates": [ ] } },
{ "type": "Feature", "properties": { }, "geometry": { "type": "MultiPolygon", "coordinates": [ ] } },
{ "type": "Feature", "properties": { }, "geometry": { "type": "MultiPolygon", "coordinates": [ ] } },
{ "type": "Feature", "properties": { }, "geometry": { "type": "MultiPolygon", "coordinates": [ ] } },
{ "type": "Feature", "properties": { }, "geometry": { "type": "MultiPolygon", "coordinates": [ ] } },
{ "type": "Feature", "properties": { }, "geometry": { "type": "MultiPolygon", "coordinates": [ ] } },
{ "type": "Feature", "properties": { }, "geometry": { "type": "MultiPolygon", "coordinates": [ ] } },
{ "type": "Feature", "properties": { }, "geometry": { "type": "MultiPolygon", "coordinates": [ ] } },
{ "type": "Feature", "properties": { }, "geometry": { "type": "MultiPolygon", "coordinates": [ ] } },
{ "type": "Feature", "properties": { }, "geometry": { "type": "MultiPolygon", "coordinates": [ ] } },
{ "type": "Feature", "properties": { }, "geometry": { "type": "MultiPolygon", "coordinates": [ ] } },
{ "type": "Feature", "properties": { }, "geometry": { "type": "MultiPolygon", "coordinates": [ ] } },
{ "type": "Feature", "properties": { }, "geometry": { "type": "MultiPolygon", "coordinates": [ ] } },
{ "type": "Feature", "properties": { }, "geometry": { "type": "MultiPolygon", "coordinates": [ ] } },
{ "type": "Feature", "properties": { }, "geometry": { "type": "MultiPolygon", "coordinates": [ ] } },
{ "type": "Feature", "properties": { }, "geometry": { "type": "MultiPolygon", "coordinates": [ ] } },
{ "type": "Feature", "properties": { }, "geometry": { "type": "MultiPolygon", "coordinates": [ ] } },
{ "type": "Feature", "properties": { }, "geometry": { "type": "MultiPolygon", "coordinates": [ ] } },
{ "type": "Feature", "properties": { }, "geometry": { "type": "MultiPolygon", "coordinates": [ ] } },
{ "type": "Feature", "properties": { }, "geometry": { "type": "MultiPolygon", "coordinates": [ ] } },
{ "type": "Feature", "properties": { }, "geometry": { "type": "MultiPolygon", "coordinates": [ ] } },
{ "type": "Feature", "properties": { }, "geometry": { "type": "MultiPolygon", "coordinates": [ ] } },
{ "type": "Feature", "properties": { }, "geometry": { "type": "MultiPolygon", "coordinates": [ ] } },
{ "type": "Feature", "properties": { }, "geometry": { "type": "MultiPolygon", "coordinates": [ ] } },
{ "type": "Feature", "properties": { }, "geometry": { "type": "MultiPolygon", "coordinates": [ ] } },
{ "type": "Feature", "properties": { }, "geometry": { "type": "MultiPolygon", "coordinates": [ ] } },
{ "type": "Feature", "properties": { }, "geometry": { "type": "MultiPolygon", "coordinates": [ ] } },
{ "type": "Feature", "properties": { }, "geometry": { "type": "MultiPolygon", "coordinates": [ ] } },
{ "type": "Feature", "properties": { }, "geometry": { "type": "MultiPolygon", "coordinates": [ ] } },
{ "type": "Feature", "properties": { }, "geometry": { "type": "MultiPolygon", "coordinates": [ ] } },
{ "type": "Feature", "properties": { }, "geometry": { "type": "MultiPolygon", "coordinates": [ ] } },
{ "type": "Feature", "properties": { }, "geometry": { "type": "MultiPolygon", "coordinates": [ ] } },
{ "type": "Feature", "properties": { }, "geometry": { "type": "MultiPolygon", "coordinates": [ ] } },
{ "type": "Feature", "properties": { }, "geometry": { "type": "MultiPolygon", "coordinates": [ ] } },
{ "type": "Feature", "properties": { }, "geometry": { "type": "MultiPolygon", "coordinates": [ ] } },
{ "type": "Feature", "properties": { }, "geometry": { "type": "MultiPolygon", "coordinates": [ ] } },
{ "type": "Feature", "properties": { }, "geometry": { "type": "MultiPolygon", "coordinates": [ ] } },
{ "type": "Feature", "properties": { }, "geometry": { "type": "MultiPolygon", "coordinates": [ ] } },
{ "type": "Feature", "properties": { }, "geometry": { "type": "MultiPolygon", "coordinates": [ ] } },
{ "type": "Feature", "properties": { }, "geometry": { "type": "MultiPolygon", "coordinates": [ ] } },
{ "type": "Feature", "properties": { }, "geometry": { "type": "MultiPolygon", "coordinates": [ ] } },
{ "type": "Feature", "properties": { }, "geometry": { "type": "MultiPolygon", "coordinates": [ ] } },
{ "type": "Feature", "properties": { }, "geometry": { "type": "MultiPolygon", "coordinates": [ ] } },
{ "type": "Feature", "properties": { }, "geometry": { "type": "MultiPolygon", "coordinates": [ ] } },
{ "type": "Feature", "properties": { }, "geometry": { "type": "MultiPolygon", "coordinates": [ ] } },
{ "type": "Feature", "properties": { }, "geometry": { "type": "MultiPolygon", "coordinates": [ ] } },
{ "type": "Feature", "properties": { }, "geometry": { "type": "MultiPolygon", "coordinates": [ ] } },
{ "type": "Feature", "properties": { }, "geometry": { "type": "MultiPolygon", "coordinates": [ ] } },
{ "type": "Feature", "properties": { }, "geometry": { "type": "MultiPolygon", "coordinates": [ ] } },
{ "type": "Feature", "properties": { }, "geometry": { "type": "MultiPolygon", "coordinates": [ ] } },
{ "type": "Feature", "properties": { }, "geometry": { "type": "MultiPolygon", "coordinates": [ ] } },
{ "type": "Feature", "properties": { }, "geometry": { "type": "MultiPolygon", "coordinates": [ ] } },
{ "type": "Feature", "properties": { }, "geometry": { "type": "MultiPolygon", "coordinates": [ ] } },
{ "type": "Feature", "properties": { }, "geometry": { "type": "MultiPolygon", "coordinates": [ ] } },
{ "type": "Feature", "properties": { }, "geometry": { "type": "MultiPolygon", "coordinates": [ ] } },
{ "type": "Feature", "properties": { }, "geometry": { "type": "MultiPolygon", "coordinates": [ ] } },
{ "type": "Feature", "properties": { }, "geometry": { "type": "MultiPolygon", "coordinates": [ ] } },
{ "type": "Feature", "properties": { }, "geometry": { "type": "MultiPolygon", "coordinates": [ ] } },
{ "type": "Feature", "properties": { }, "geometry": { "type": "MultiPolygon", "coordinates": [ ] } },
{ "type": "Feature", "properties": { }, "geometry": { "type": "MultiPolygon", "coordinates": [ [ [ [ 3397474.809866419062018, 8363054.630554 ], [ 3397475.084210027940571, 8363052.230047421529889 ], [ 3397424.606588284485042, 8361996.082884790375829 ], [ 3397634.282863218337297, 8361922.307899164967239 ], [ 3397968.211745521053672, 8361980.551308869384229 ], [ 3398088.581458908971399, 8361941.722369066439569 ], [ 3398302.140627823304385, 8361650.505320547148585 ], [ 3398581.708994403481483, 8360582.709475975483656 ], [ 3398471.376780229154974, 8360425.698248111642897 ], [ 3398134.480745284352452, 8360552.581170364283025 ], [ 3397796.533740693703294, 8360562.100804296322167 ], [ 3396178.195972229819745, 8361899.609371761791408 ], [ 3392341.783497577998787, 8364688.862113879062235 ], [ 3390886.674373377580196, 8365623.006242995150387 ], [ 3390928.789965364616364, 8365788.099363584071398 ], [ 3390953.075551811605692, 8365853.92608474381268 ], [ 3391183.926674667745829, 8366077.637482150457799 ], [ 3391633.729377964045852, 8366327.527872870676219 ], [ 3391933.597846827469766, 8366417.964395225979388 ], [ 3392002.615192835219204, 8366553.024201635271311 ], [ 3392569.033411802258343, 8366627.991318851709366 ], [ 3392533.929761677514762, 8366839.208196721971035 ], [ 3392817.1388711608015, 8366899.895863039419055 ], [ 3392921.854844414629042, 8366910.605451212264597 ], [ 3392990.872190422844142, 8366616.686753555200994 ], [ 3392743.361708185169846, 8366550.049316029064357 ], [ 3392790.959877845831215, 8366178.783592673018575 ], [ 3393452.574436135124415, 8366202.582677504979074 ], [ 3393281.221025355160236, 8366826.118700064718723 ], [ 3393295.179641098715365, 8366982.455196394585073 ], [ 3393466.867897245567292, 8366997.887848632410169 ], [ 3393476.373520966153592, 8366957.01366663351655 ], [ 3393565.620089080650359, 8366859.437418827787042 ], [ 3393779.811852553859353, 8366866.577144275419414 ], [ 3394001.820718646980822, 8366862.224029254168272 ], [ 3393898.243645481299609, 8366504.732286435551941 ], [ 3393960.121266040019691, 8365581.327795017510653 ], [ 3394279.029002766590565, 8365072.027379648759961 ], [ 3394840.68740476295352, 8364843.556165277957916 ], [ 3395507.061780012678355, 8364834.036531345918775 ], [ 3395830.729333705734462, 8364596.045683043077588 ], [ 3396040.161280212458223, 8364262.85849541798234 ], [ 3396987.364856460131705, 8363672.641191625967622 ], [ 3397474.809866419062018, 8363054.630554 ] ] ] ] } },
{ "type": "Feature", "properties": { }, "geometry": { "type": "MultiPolygon", "coordinates": [ [ [ [ 3377748.171618935186416, 8414124.602745745331049 ], [ 3377407.231443387456238, 8414232.705728236585855 ], [ 3377045.485353963449597, 8414285.063714863732457 ], [ 3376945.529197675175965, 8414361.22078632004559 ], [ 3376521.905487691517919, 8414618.250902490690351 ], [ 3375755.574956148397177, 8414918.119371354579926 ], [ 3375565.182277504354715, 8414518.294746201485395 ], [ 3374801.231654444243759, 8414806.263672651723027 ], [ 3373811.189725494477898, 8415129.931226346641779 ], [ 3373787.390640663914382, 8415191.808846905827522 ], [ 3373906.386064816266298, 8415486.917498804628849 ], [ 3374960.685522808693349, 8416638.793204603716731 ], [ 3375191.536645664833486, 8416862.504602009430528 ], [ 3375258.174083190504462, 8417067.176731551066041 ], [ 3375291.492801953107119, 8417533.638794230297208 ], [ 3375381.929324309341609, 8418152.414999824017286 ], [ 3375529.483650258276612, 8418371.366580264642835 ], [ 3375857.911020919680595, 8418476.082553518936038 ], [ 3376326.752992080524564, 8418542.719991045072675 ], [ 3376924.110021327622235, 8418614.117245534434915 ], [ 3377500.047874226234853, 8418771.191205417737365 ], [ 3378247.339137904811651, 8418956.824067095294595 ], [ 3379008.909852481912822, 8419313.810339553281665 ], [ 3379180.263263261877, 8419351.888875283300877 ], [ 3379499.170999991241843, 8419223.373817197978497 ], [ 3377641.720954237505794, 8414764.546028794720769 ], [ 3378107.281753563787788, 8414526.741591727361083 ], [ 3378623.364678227342665, 8415834.384137328714132 ], [ 3379551.528986617922783, 8417914.424151517450809 ], [ 3381455.455773061141372, 8417095.735633347183466 ], [ 3382493.095871672034264, 8413364.039131920784712 ], [ 3381898.118750908412039, 8411850.417336698621511 ], [ 3377704.72000376926735, 8413449.715837310999632 ], [ 3377912.089362926315516, 8414030.350042950361967 ], [ 3377748.171618935186416, 8414124.602745745331049 ] ] ] ] } },
{ "type": "Feature", "properties": { }, "geometry": { "type": "MultiPolygon", "coordinates": [ [ [ [ 3395377.325945995282382, 8393974.759461319074035 ], [ 3395391.523847590666264, 8394601.241869227960706 ], [ 3395436.854479766916484, 8394611.451471069827676 ], [ 3395701.024321383796632, 8394961.298018075525761 ], [ 3395703.404229866806418, 8394961.298018075525761 ], [ 3395784.321118290070444, 8395035.075181048363447 ], [ 3395879.517457611393183, 8395032.695272566750646 ], [ 3395919.975901823025197, 8395063.634082846343517 ], [ 3395965.194163000676781, 8395244.507127556949854 ], [ 3396029.451692042406648, 8395411.100721368566155 ], [ 3396065.150319288019091, 8395470.598433444276452 ], [ 3396574.450734657235444, 8395496.777426758781075 ], [ 3397483.575775176752359, 8395294.485205700621009 ], [ 3397697.76753864903003, 8395231.417630903422832 ], [ 3398335.145226662047207, 8394880.312003647908568 ], [ 3398754.497776530217379, 8394604.626531049609184 ], [ 3398778.245989948045462, 8394336.572041284292936 ], [ 3398730.647820287384093, 8394189.017715334892273 ], [ 3398621.17203006753698, 8394017.664304558187723 ], [ 3398321.303561205044389, 8393848.69080226123333 ], [ 3398235.626855816226453, 8393972.446043379604816 ], [ 3396689.876296084839851, 8393221.584916984662414 ], [ 3396526.852564996574074, 8393204.925557604059577 ], [ 3396040.161280215717852, 8393047.851597722619772 ], [ 3395643.722952973563224, 8392862.151539172977209 ], [ 3395651.818056201096624, 8392938.120969459414482 ], [ 3395848.476628842763603, 8393840.185291793197393 ], [ 3395859.164594746660441, 8393889.34993495233357 ], [ 3395377.325945995282382, 8393974.759461319074035 ] ] ] ] } },
{ "type": "Feature", "properties": { }, "geometry": { "type": "MultiPolygon", "coordinates": [ [ [ [ 3352573.733186929021031, 8365851.188343463465571 ], [ 3352583.596010895445943, 8365382.704205076210201 ], [ 3352597.875461793504655, 8364311.745387705042958 ], [ 3352607.395095725543797, 8363826.244057162664831 ], [ 3352604.690273320768028, 8363818.080411359667778 ], [ 3352469.955380847677588, 8363821.484240221790969 ], [ 3352431.876845118589699, 8363226.507119458168745 ], [ 3352417.597394220530987, 8363002.795722051523626 ], [ 3352665.107876458205283, 8362898.079748797230422 ], [ 3352517.553550508804619, 8362455.416770949028432 ], [ 3352341.440322763286531, 8361950.876172540709376 ], [ 3351446.59473313530907, 8362303.102628031745553 ], [ 3350875.416697202716023, 8363321.703458778560162 ], [ 3350351.836830930318683, 8363497.816686525009573 ], [ 3349852.056049488950521, 8363383.581079338677227 ], [ 3349747.340076234657317, 8364302.225753797218204 ], [ 3348771.577598182950169, 8364654.452209289185703 ], [ 3347986.207798778545111, 8364832.945345522835851 ], [ 3347938.609629117418081, 8365099.49509562458843 ], [ 3348347.953888202551752, 8365308.927042133174837 ], [ 3348052.845236304216087, 8366222.811899625696242 ], [ 3349119.044236711692065, 8366432.243846134282649 ], [ 3349380.834169847890735, 8366584.557989049702883 ], [ 3350385.155549696180969, 8366613.11689084675163 ], [ 3351360.918027746956795, 8366470.322381861507893 ], [ 3351775.022103798110038, 8366260.890435352921486 ], [ 3352055.851304798386991, 8366127.615560302510858 ], [ 3352117.728925358038396, 8365941.982698624022305 ], [ 3352517.553550512064248, 8365863.445718681439757 ], [ 3352573.733186929021031, 8365851.188343463465571 ] ] ] ] } },
{ "type": "Feature", "properties": { }, "geometry": { "type": "MultiPolygon", "coordinates": [ [ [ [ 3399125.485732582397759, 8360150.41408019233495 ], [ 3398845.745785059407353, 8361034.095901171676815 ], [ 3398636.069510125089437, 8361604.881316269747913 ], [ 3398362.325484517030418, 8361944.634539540857077 ], [ 3398503.080391301307827, 8362225.173629614524543 ], [ 3398204.097554821055382, 8362384.372282805852592 ], [ 3398102.171587839256972, 8362386.313729795627296 ], [ 3397958.504510569851846, 8362330.982490576803684 ], [ 3397825.030029998160899, 8362280.990230579860508 ], [ 3397731.84057447174564, 8362294.580359511077404 ], [ 3397766.78662029420957, 8362731.405932290479541 ], [ 3397666.681061120703816, 8362970.944234597496688 ], [ 3397844.131910353899002, 8362939.629378850571811 ], [ 3398824.654205364175141, 8362468.407499209046364 ], [ 3399610.024004766251892, 8362368.451342921704054 ], [ 3399933.691558458842337, 8362416.049512581899762 ], [ 3399940.831283907871693, 8362235.176467872224748 ], [ 3399917.032199077773839, 8361882.950012382119894 ], [ 3400052.68698261026293, 8361611.640445316210389 ], [ 3400052.68698261026293, 8361621.160079248249531 ], [ 3400271.638563049491495, 8361166.597558985464275 ], [ 3400290.677830914035439, 8360205.114531841129065 ], [ 3399952.73082632292062, 8359800.530089725740254 ], [ 3399125.485732582397759, 8360150.41408019233495 ] ] ] ] } },
{ "type": "Feature", "properties": { }, "geometry": { "type": "MultiPolygon", "coordinates": [ [ [ [ 3369230.913397627416998, 8411108.867394179105759 ], [ 3369393.994944798294455, 8411116.63318214006722 ], [ 3369984.194829797837883, 8411745.662006940692663 ], [ 3370694.7644281857647, 8412132.009957978501916 ], [ 3370587.984843728598207, 8412399.929642615839839 ], [ 3370587.984843728598207, 8412399.929642615839839 ], [ 3371005.395946606528014, 8412563.011189786717296 ], [ 3371005.395946606528014, 8412563.011189786717296 ], [ 3370990.835094180423766, 8412931.886117912828922 ], [ 3370990.835094180423766, 8412931.886117912828922 ], [ 3370990.835094180423766, 8412931.886117912828922 ], [ 3370937.445301952306181, 8413045.460766835138202 ], [ 3370937.445301952306181, 8413045.460766835138202 ], [ 3370760.773625850211829, 8413235.72257186844945 ], [ 3369277.508125391323119, 8412711.531884530559182 ], [ 3369075.597638417966664, 8412672.702944731339812 ], [ 3369075.597638417966664, 8412672.702944731339812 ], [ 3368376.676721970550716, 8412179.575409237295389 ], [ 3368772.731907957233489, 8411643.736039960756898 ], [ 3368617.416148746851832, 8411573.843948315829039 ], [ 3368318.433312266599387, 8411484.537386771291494 ], [ 3368353.379358089063317, 8411290.392687758430839 ], [ 3368539.758269141428173, 8411208.85191417299211 ], [ 3368803.795059799216688, 8410886.571713810786605 ], [ 3369230.913397627416998, 8411108.867394179105759 ] ] ] ] } },
{ "type": "Feature", "properties": { }, "geometry": { "type": "MultiPolygon", "coordinates": [ [ [ [ 3394656.103180387057364, 8369219.236411628313363 ], [ 3395910.277936011552811, 8369551.223846941255033 ], [ 3396133.544339877087623, 8369718.188288093544543 ], [ 3395809.322692525107414, 8370145.306625922210515 ], [ 3396708.212648956570774, 8370879.173588192090392 ], [ 3397203.28163143992424, 8369659.94487838819623 ], [ 3397222.696101340930909, 8369265.831139392219484 ], [ 3396613.081746440846473, 8369054.213417469523847 ], [ 3396415.054153447505087, 8369188.173259788192809 ], [ 3396222.850901424419135, 8369098.866698242723942 ], [ 3396145.193021818529814, 8369050.330523489043117 ], [ 3396189.846302591729909, 8368928.019363110885024 ], [ 3396079.183824154082686, 8368580.500351877883077 ], [ 3396079.183824154082686, 8368580.500351877883077 ], [ 3395828.737162427976727, 8368483.428002370521426 ], [ 3395568.583265751600266, 8368564.968775955960155 ], [ 3395358.906990817282349, 8368489.252343340776861 ], [ 3395182.235314715653658, 8368446.540509558282793 ], [ 3394656.103180387057364, 8369219.236411628313363 ] ] ] ] } },
{ "type": "Feature", "properties": { }, "geometry": { "type": "MultiPolygon", "coordinates": [ [ [ [ 3395883.825720781460404, 8380276.990424825809896 ], [ 3395678.032339827623218, 8380727.406126536428928 ], [ 3395767.338901373092085, 8381542.813862389884889 ], [ 3395767.338901373092085, 8381542.813862389884889 ], [ 3395922.654660583473742, 8381698.129621600732207 ], [ 3396093.501995714846998, 8381703.953962570987642 ], [ 3396673.994645764585584, 8381636.003317917697132 ], [ 3396806.013041093479842, 8381663.183575780130923 ], [ 3397035.103785928804427, 8381849.562486832030118 ], [ 3397194.302439119666815, 8381888.391426634974778 ], [ 3397077.815619712695479, 8382338.80712834559381 ], [ 3397264.194530765060335, 8382944.538589266128838 ], [ 3397264.194530765060335, 8382944.538589266128838 ], [ 3397264.194530765060335, 8382944.538589266128838 ], [ 3398227.152237869799137, 8382664.970222687348723 ], [ 3397928.169401390012354, 8381670.949363740161061 ], [ 3397326.320834449492395, 8381441.858618904836476 ], [ 3397539.880003363825381, 8380871.073203806765378 ], [ 3395883.825720781460404, 8380276.990424825809896 ] ] ] ] } },
{ "type": "Feature", "properties": { }, "geometry": { "type": "MultiPolygon", "coordinates": [ [ [ [ 3377216.812910676933825, 8358715.280152446590364 ], [ 3378432.158726498484612, 8358575.495969157665968 ], [ 3378420.510044557508081, 8358513.369665472768247 ], [ 3378420.510044557508081, 8358513.369665472768247 ], [ 3377966.211448867339641, 8358245.449980835430324 ], [ 3377554.624686959665269, 8358121.197373466566205 ], [ 3377325.533942124340683, 8357872.692158729769289 ], [ 3377158.569500972982496, 8358078.485539684072137 ], [ 3377216.812910676933825, 8358715.280152446590364 ] ] ] ] } },
{ "type": "Feature", "properties": { }, "geometry": { "type": "MultiPolygon", "coordinates": [ [ [ [ 3389181.950710853561759, 8400285.543105127289891 ], [ 3390092.489349224139005, 8399716.699137017130852 ], [ 3390271.102472317405045, 8400103.047088053077459 ], [ 3390302.165624158456922, 8402320.179550787433982 ], [ 3389952.705165935214609, 8402390.071642430499196 ], [ 3389708.082845178898424, 8401941.59738771058619 ], [ 3388851.904722531326115, 8401842.583591217175126 ], [ 3388851.904722531326115, 8401842.583591217175126 ], [ 3389046.049421544652432, 8400277.777317173779011 ], [ 3389181.950710853561759, 8400285.543105127289891 ] ] ] ] } },
{ "type": "Feature", "properties": { }, "geometry": { "type": "MultiPolygon", "coordinates": [ [ [ [ 3358289.646203904412687, 8409466.645921465009451 ], [ 3358289.646203904412687, 8409466.645921465009451 ], [ 3358328.475143707357347, 8409711.268242223188281 ], [ 3358813.836891239974648, 8409703.50245426222682 ], [ 3358941.972392588388175, 8409932.593199096620083 ], [ 3360056.362964923493564, 8409532.655119130387902 ], [ 3360553.373394396621734, 8409276.384116433560848 ], [ 3360491.247090712655336, 8409082.239417420700192 ], [ 3360735.869411468971521, 8408926.923658208921552 ], [ 3361128.041703475173563, 8408554.165836105123162 ], [ 3361030.969353968743235, 8408410.498758835718036 ], [ 3360743.63519942946732, 8408585.228987947106361 ], [ 3359594.298581272363663, 8409124.951251203194261 ], [ 3359116.702621700242162, 8409319.095950216054916 ], [ 3358289.646203904412687, 8409466.645921465009451 ] ] ] ] } },
{ "type": "Feature", "properties": { }, "geometry": { "type": "MultiPolygon", "coordinates": [ [ [ [ 3396054.673055925406516, 8379896.46681478433311 ], [ 3396687.584774707909673, 8380168.269393403083086 ], [ 3397739.849043358583003, 8380315.819364652968943 ], [ 3397906.81348450994119, 8379861.520768962800503 ], [ 3397638.893799871671945, 8377842.415899224579334 ], [ 3397421.45173697732389, 8377073.60289113316685 ], [ 3397165.180734280031174, 8376957.116071725264192 ], [ 3396753.593972372356802, 8376902.755556002259254 ], [ 3395883.825720793567598, 8376475.63721817266196 ], [ 3395759.57311342516914, 8376584.35824962053448 ], [ 3395903.240190695039928, 8378626.760483238846064 ], [ 3395417.878443162422627, 8379034.464351166039705 ], [ 3396054.673055925406516, 8379896.46681478433311 ] ] ] ] } },
{ "type": "Feature", "properties": { }, "geometry": { "type": "MultiPolygon", "coordinates": [ [ [ [ 3396006.136881172657013, 8385971.254446897655725 ], [ 3396041.082926995120943, 8386283.827412308193743 ], [ 3396184.750004263594747, 8387528.294932981953025 ], [ 3396437.138112980406731, 8387462.285735317505896 ], [ 3397598.123413078486919, 8387547.709402883425355 ], [ 3397501.051063572056592, 8385233.50459064822644 ], [ 3397353.501092322170734, 8385245.153272588737309 ], [ 3396142.038170480635017, 8385835.353157588280737 ], [ 3396006.136881172657013, 8385971.254446897655725 ] ] ] ] } }
]
}
