{
"type": "FeatureCollection",
"name": "Вилла",
"crs": { "type": "name", "properties": { "name": "urn:ogc:def:crs:EPSG::3857" } },
"xy_coordinate_resolution": 1e-15,
"features": [
{ "type": "Feature", "properties": { "name": "Вилла \"Аванс\" писателя Леонида Андреева", "type_2": "Нет", "fact": "Интеллигенция", "type": "Вилла", "type_3": "3", "description": "Вилла «Аванс» — дача писателя Леонид Андреев в пригородах Петербурга. Использовалась как место работы и отдыха, связана с литературной жизнью начала XX века.", "id": 22 }, "geometry": { "type": "Point", "coordinates": [ 3289305.678703536745161, 8445872.286892166361213 ] } },
{ "type": "Feature", "properties": { "name": "Вилла Грёнстедт-Хейккиля (Шведская дача)", "type_2": "Нет", "fact": null, "type": "Вилла", "type_3": "3", "description": "Вилла Грёнстедт-Хейккиля — известная «Шведская дача». Пример северной дачной архитектуры, связанной с финско-шведской культурной средой Карельского перешейка.", "id": 59 }, "geometry": { "type": "Point", "coordinates": [ 3301625.19551682472229, 8442632.96403555944562 ] } },
{ "type": "Feature", "properties": { "name": "Вилла «Анино» руководителя \"БраНобель\" К. С. Богданова", "type_2": "Да", "fact": "Купечество", "type": "Вилла", "type_3": "3", "description": "Вилла «Анино» — дача руководителя «БраНобель» Константин Богданов. Связана с нефтяной промышленностью и дачной жизнью буржуазии начала XX века.", "id": 85 }, "geometry": { "type": "Point", "coordinates": [ 3310359.9851562413387, 8442820.681618820875883 ] } },
{ "type": "Feature", "properties": { "name": "Вилла Вел.кн. К.К. Романова", "type_2": "Да", "fact": "Романовы", "type": "Вилла", "type_3": "3", "description": "Вилла великого князя К. К. Романова — резиденция великого князя Константина Константиновича Романова, поэта и мецената. Использовалась как летняя дача.", "id": 87 }, "geometry": { "type": "Point", "coordinates": [ 3319219.038312603719532, 8378904.602908269502223 ] } },
{ "type": "Feature", "properties": { "name": "Вилла \"Айнола\" статского советника Н. М. Салько", "type_2": "Да", "fact": "Чиновники", "type": "Вилла", "type_3": "3", "description": "Вилла «Айнола» — дача статского советника Н. М. Салько. Пример загородной виллы конца XIX века с элементами модерна.", "id": 125 }, "geometry": { "type": "Point", "coordinates": [ 3308933.374979461077601, 8442238.743334544822574 ] } },
{ "type": "Feature", "properties": { "name": "Вилла \"Крестин\" купца В. Н.  Крестин", "type_2": "Да", "fact": "Купечество", "type": "Вилла", "type_3": "3", "description": "Вилла «Крестин» — дача купца В. Н. Крестина. Небольшая частная усадьба с жилым домом и садом.", "id": 146 }, "geometry": { "type": "Point", "coordinates": [ 3321628.830435714684427, 8436597.105744974687696 ] } },
{ "type": "Feature", "properties": { "name": "Вилла \"Бьянка\" - дача Мари Прокопэ", "type_2": "Да", "fact": null, "type": "Вилла", "type_3": "3", "description": "Вилла «Бьянка» — дача Мари Прокопэ. Представляет стиль дачной архитектуры начала XX века с элементами модерна.", "id": 154 }, "geometry": { "type": "Point", "coordinates": [ 3307691.546224524267018, 8441638.19309844635427 ] } },
{ "type": "Feature", "properties": { "name": "Дачный участок оружейника Чижова и вилла Рено", "type_2": "Да", "fact": "Инженеры", "type": "Вилла", "type_3": "3", "description": "Вилла Рено — дача, связанная с оружейником Чижовым и семьёй Рено. Использовалась как частное загородное имение.", "id": 187 }, "geometry": { "type": "Point", "coordinates": [ 3317430.680089425295591, 8440182.125708311796188 ] } },
{ "type": "Feature", "properties": { "name": "Вилла \"Надежда\" В. Михайлова", "type_2": "Да", "fact": "Нет данных", "type": "Вилла", "type_3": "3", "description": "Вилла «Надежда» — дача В. Михайлова. Типичная загородная вилла дачного строительства Серебряного века.", "id": 304 }, "geometry": { "type": "Point", "coordinates": [ 3298471.226320450659841, 8444930.934459451586008 ] } },
{ "type": "Feature", "properties": { "name": "Вилла \"Мери\" купца А. Ф. Лобека", "type_2": "Да", "fact": "Купечество", "type": "Вилла", "type_3": "3", "description": "Вилла «Мери» — дача купца А. Ф. Лобека. Небольшое частное имение с жилым домом и садом, характерное для дачной застройки конца XIX века.", "id": 355 }, "geometry": { "type": "Point", "coordinates": [ 3293421.4492381894961, 8443832.101398088037968 ] } }
]
}
