{
"type": "FeatureCollection",
"name": "Дворец",
"crs": { "type": "name", "properties": { "name": "urn:ogc:def:crs:EPSG::3857" } },
"xy_coordinate_resolution": 1e-15,
"features": [
{ "type": "Feature", "properties": { "name": "Меншиковский дворец", "type_2": "Да", "fact": "Дворянство", "type": "Дворец", "type_3": "1", "description": "Меншиковский дворец — старейший дворец Ораниенбаума, построенный для князя Александра Меншикова. Один из первых крупных дворцовых ансамблей России.", "id": 5 }, "geometry": { "type": "Point", "coordinates": [ 3312203.59168076235801, 8380820.937445303425193 ] } },
{ "type": "Feature", "properties": { "name": "Дворец Лейхтенбергских", "type_2": "Да", "fact": "Романовы", "type": "Дворец", "type_3": "1", "description": "Дворец Лейхтенбергских — дворец XIX века, принадлежавший семье герцогов Лейхтенбергских. Находится в парке Сергиевка.", "id": 7 }, "geometry": { "type": "Point", "coordinates": [ 3322102.580525125842541, 8376282.634924134239554 ] } },
{ "type": "Feature", "properties": { "name": "Ропшинский дворец", "type_2": "Руина", "fact": null, "type": "Дворец", "type_3": "1", "description": "Ропшинский дворец — историческая резиденция под Санкт-Петербургом XVIII века. Связан с гибелью Петра III, входит в список Всемирного наследия ЮНЕСКО и нуждается в реставрации.", "id": 9 }, "geometry": { "type": "Point", "coordinates": [ 3324057.290920028463006, 8338475.767445363104343 ] } },
{ "type": "Feature", "properties": { "name": "Дворец \"Бельведер\"", "type_2": "Да", "fact": "Романовы", "type": "Дворец", "type_3": "1", "description": "Дворец Бельведер — дворец-павильон XIX века на Бабигонской возвышенности. Известен панорамными видами на окрестности Петергофа.", "id": 10 }, "geometry": { "type": "Point", "coordinates": [ 3326201.590030979830772, 8366110.314988422207534 ] } },
{ "type": "Feature", "properties": { "name": "Большой дворец", "type_2": "Да", "fact": null, "type": "Дворец", "type_3": "1", "description": "Большой Петергофский дворец — главный дворец Петергофа, построенный в XVIII веке. Роскошная резиденция российских императоров, известная своими интерьерами и видом на Финский залив.", "id": 11 }, "geometry": { "type": "Point", "coordinates": [ 3329432.914245413150638, 8374085.877201574854553 ] } },
{ "type": "Feature", "properties": { "name": "Фермерский дворец", "type_2": "Да", "fact": null, "type": "Дворец", "type_3": "1", "description": "Фермерский дворец — дворец в парке Александрия в Петергофе, построенный для императора Николая I. Отличается уютной архитектурой и служил летней резиденцией императорской семьи.", "id": 12 }, "geometry": { "type": "Point", "coordinates": [ 3332190.82797409966588, 8372878.695859967730939 ] } },
{ "type": "Feature", "properties": { "name": "Знаменский дворец", "type_2": "Да", "fact": null, "type": "Дворец", "type_3": "1", "description": "Знаменский дворец — исторический дворец XVIII века в Петергофе, расположенный рядом с церковью Знамения. Служил резиденцией членов императорской семьи и является памятником архитектуры.", "id": 13 }, "geometry": { "type": "Point", "coordinates": [ 3335650.101841076277196, 8372374.911520556546748 ] } },
{ "type": "Feature", "properties": { "name": "Орловский дворец", "type_2": "Нет", "fact": null, "type": "Дворец", "type_3": "1", "description": "Орловский дворец — дворец XIX века, построенный для графа Алексея Орлова. Выполнен в неоготическом стиле и является памятником архитектуры.", "id": 16 }, "geometry": { "type": "Point", "coordinates": [ 3344019.1512840539217, 8366766.746232797391713 ] } },
{ "type": "Feature", "properties": { "name": "Большой Стрельнинский дворец (Константиновский)", "type_2": "Да", "fact": null, "type": "Дворец", "type_3": "1", "description": "Константиновский дворец — величественный дворец XVIII века в Стрельне, известный как Большой Стрельнинский дворец. Сегодня является государственной резиденцией и важным центром международных встреч.", "id": 18 }, "geometry": { "type": "Point", "coordinates": [ 3346085.210239309351891, 8367287.504438085481524 ] } },
{ "type": "Feature", "properties": { "name": "Дворец Меншикова \"Фаворит\"", "type_2": "Нет", "fact": "Дворянство", "type": "Дворец", "type_3": "1", "description": "Дворец Фаворит — небольшой дворец-павильон в ансамбле Ораниенбаума, связанный с историей усадебных построек XVIII века.", "id": 20 }, "geometry": { "type": "Point", "coordinates": [ 3340481.25759438611567, 8368578.295334693044424 ] } },
{ "type": "Feature", "properties": { "name": "Мариенталь (крепость Бип)", "type_2": "Да", "fact": "Романовы", "type": "Дворец", "type_3": "1", "description": "Крепость Бип — романтический замок конца XVIII века, построенный по приказу Павла I. Сочетает черты крепости и дворцовой резиденции.", "id": 41 }, "geometry": { "type": "Point", "coordinates": [ 3388950.841401037294418, 8328992.426142638549209 ] } },
{ "type": "Feature", "properties": { "name": "Павловский дворец", "type_2": "Да", "fact": null, "type": "Дворец", "type_3": "1", "description": "Павловский дворец — загородная резиденция императора Павла I конца XVIII века. Известен гармоничной архитектурой, роскошными интерьерами и одним из крупнейших пейзажных парков России.", "id": 43 }, "geometry": { "type": "Point", "coordinates": [ 3389973.347081816289574, 8330089.447094635106623 ] } },
{ "type": "Feature", "properties": { "name": "Екатерининский дворец", "type_2": "Да", "fact": null, "type": "Дворец", "type_3": "1", "description": "Екатерининский дворец — выдающийся памятник русского барокко XVIII века. Бывшая резиденция российских императоров, знаменитая Янтарной комнатой и богато украшенными залами.", "id": 50 }, "geometry": { "type": "Point", "coordinates": [ 3383607.943652820307761, 8336785.74725604057312 ] } },
{ "type": "Feature", "properties": { "name": "Дворец Палей", "type_2": "Руина", "fact": null, "type": "Дворец", "type_3": "1", "description": "Дворец Палей — дворец начала XX века, принадлежавший князю Павлу Александровичу Романову. Отличается уютными интерьерами и архитектурой в стиле модерн.", "id": 51 }, "geometry": { "type": "Point", "coordinates": [ 3385731.535352444276214, 8336350.21865978743881 ] } },
{ "type": "Feature", "properties": { "name": "Баболовский дворец", "type_2": "Руина", "fact": null, "type": "Дворец", "type_3": "1", "description": "Баболовский дворец — дворец конца XVIII века в Баболовском парке. Известен гранитной Царь-ванной и служил местом отдыха российских императоров.", "id": 52 }, "geometry": { "type": "Point", "coordinates": [ 3377939.315491341520101, 8335167.327150152996182 ] } },
{ "type": "Feature", "properties": { "name": "Английский дворец", "type_2": "Нет", "fact": null, "type": "Дворец", "type_3": "1", "description": "Английский дворец — дворец XVIII века в Английском парке Петергофа. Был разрушен в годы Великой Отечественной войны и сохранился лишь частично.", "id": 66 }, "geometry": { "type": "Point", "coordinates": [ 3326374.13422404229641, 8373281.473308694548905 ] } },
{ "type": "Feature", "properties": { "name": "Путевой дворец Петра 1", "type_2": "Да", "fact": "Романовы", "type": "Дворец", "type_3": "1", "description": "Путевой дворец Петра I — небольшой дворец начала XVIII века, использовавшийся Петром I во время поездок между Санкт-Петербургом и Петергофом.", "id": 89 }, "geometry": { "type": "Point", "coordinates": [ 3344585.9307, 8367241.823168054223061 ] } },
{ "type": "Feature", "properties": { "name": "Дворец Потёмкина (Миниха)", "type_2": "Руина", "fact": "Дворянство", "type": "Дворец", "type_3": "1", "description": "Дворец Потёмкина — историческое здание XVIII века, связанное с владельцами усадьбы и развитием дворцового комплекса Ораниенбаума.", "id": 91 }, "geometry": { "type": "Point", "coordinates": [ 3296783.67636178759858, 8343519.673848383128643 ] } },
{ "type": "Feature", "properties": { "name": "Дворец \"Коттедж\"", "type_2": "Да", "fact": "Романовы", "type": "Дворец", "type_3": "1", "description": "Дворец Коттедж — уютная летняя резиденция Николая I в парке Александрия. Построен в стиле английской неоготики и окружён живописным парком.", "id": 93 }, "geometry": { "type": "Point", "coordinates": [ 3333507.205282338429242, 8372724.249334123916924 ] } },
{ "type": "Feature", "properties": { "name": "Дворец Вел. кн. Владимира Александровича", "type_2": "Да", "fact": "Романовы", "type": "Дворец", "type_3": "1", "description": "Дворец великого князя Владимира Александровича — роскошный дворец XIX века на Дворцовой набережной. Принадлежал великому князю Владимиру Александровичу и славится богато оформленными интерьерами.", "id": 141 }, "geometry": { "type": "Point", "coordinates": [ 3349151.993944816756994, 8339924.725281331688166 ] } },
{ "type": "Feature", "properties": { "name": "Дворец Александра I ", "type_2": "Нет", "fact": "Романовы", "type": "Дворец", "type_3": "1", "description": "Дворец Александра I — дворец в Александровском парке, построенный в конце XVIII века. Был любимой резиденцией императора Александра I и частью царскосельского ансамбля.", "id": 153 }, "geometry": { "type": "Point", "coordinates": [ 3351400.027179231867194, 8337611.897973941639066 ] } }
]
}
