{
"type": "FeatureCollection",
"name": "Дом",
"crs": { "type": "name", "properties": { "name": "urn:ogc:def:crs:EPSG::3857" } },
"xy_coordinate_resolution": 1e-15,
"features": [
{ "type": "Feature", "properties": { "name": "\"Швейцарский домик\"", "type_2": "Нет", "fact": null, "type": "Дом", "type_3": null, "description": null, "id": 30 }, "geometry": { "type": "Point", "coordinates": [ 3354452.779988300986588, 8332785.616016478277743 ] } },
{ "type": "Feature", "properties": { "name": "Дом Е.М. Безруковой (дача музыкального критика В.В. Стасова)", "type_2": "Нет", "fact": null, "type": "Дом", "type_3": "3", "description": null, "id": 53 }, "geometry": { "type": "Point", "coordinates": [ 3372296.11527512781322, 8418513.222617216408253 ] } },
{ "type": "Feature", "properties": { "name": "Дом Дж. Кваренги", "type_2": "Нет", "fact": null, "type": "Дом", "type_3": "3", "description": null, "id": 99 }, "geometry": { "type": "Point", "coordinates": [ 3326689.024776443373412, 8373644.619353061541915 ] } },
{ "type": "Feature", "properties": { "name": "Дом почетного гражданина А. Ф Соболевского (ru)", "type_2": "Руина", "fact": "Чиновники", "type": "Дом", "type_3": "3", "description": null, "id": 109 }, "geometry": { "type": "Point", "coordinates": [ 3336314.767994532361627, 8415964.419515300542116 ] } },
{ "type": "Feature", "properties": { "name": "Дом на участке инженера промышленника Роберта Эргардта", "type_2": "Да", "fact": "Купечество", "type": "Дом", "type_3": "3", "description": null, "id": 116 }, "geometry": { "type": "Point", "coordinates": [ 3317410.687942278105766, 8440587.508454764261842 ] } },
{ "type": "Feature", "properties": { "name": "Дом ювелира А. А. Хольминга", "type_2": "Нет", "fact": "Инженеры", "type": "Дом", "type_3": "3", "description": null, "id": 117 }, "geometry": { "type": "Point", "coordinates": [ 3336545.595886330120265, 8414171.200608404353261 ] } },
{ "type": "Feature", "properties": { "name": "Дом статского советника МПС В.И. Вендровского", "type_2": "Нет", "fact": "Чиновники", "type": "Дом", "type_3": "3", "description": null, "id": 118 }, "geometry": { "type": "Point", "coordinates": [ 3336650.558221836574376, 8414538.568782679736614 ] } },
{ "type": "Feature", "properties": { "name": "Дом купца Волкова", "type_2": "Да", "fact": "Купечество", "type": "Дом", "type_3": "3", "description": null, "id": 121 }, "geometry": { "type": "Point", "coordinates": [ 3314300.932851008605212, 8380654.669817979447544 ] } },
{ "type": "Feature", "properties": { "name": "Дом купца А. К. Чубанова (ru)", "type_2": "Да", "fact": "Купечество", "type": "Дом", "type_3": "3", "description": null, "id": 130 }, "geometry": { "type": "Point", "coordinates": [ 3336905.922181298024952, 8412475.784401517361403 ] } },
{ "type": "Feature", "properties": { "name": "Дом художника И. Е. Никифорова", "type_2": "Да", "fact": null, "type": "Дом", "type_3": "3", "description": null, "id": 136 }, "geometry": { "type": "Point", "coordinates": [ 3355013.172883661463857, 8398862.517140792682767 ] } },
{ "type": "Feature", "properties": { "name": "Дом на участке торговца Каролькевича (Дом хирурга Фёдора Углова)", "type_2": "Да", "fact": "Интеллигенция", "type": "Дом", "type_3": "3", "description": null, "id": 138 }, "geometry": { "type": "Point", "coordinates": [ 3319405.101255812682211, 8439598.930380927398801 ] } },
{ "type": "Feature", "properties": { "name": "Дом вдовы коллежского асессора В. В. Карнеевой", "type_2": "Нет", "fact": "Чиновники", "type": "Дом", "type_3": "3", "description": null, "id": 140 }, "geometry": { "type": "Point", "coordinates": [ 3336394.602643108926713, 8415069.697933044284582 ] } },
{ "type": "Feature", "properties": { "name": "Дом Михайлова (дача художника Лансере)", "type_2": "Да", "fact": "Интеллигенция", "type": "Дом", "type_3": "3", "description": null, "id": 143 }, "geometry": { "type": "Point", "coordinates": [ 3388362.703163686674088, 8328676.258432305417955 ] } },
{ "type": "Feature", "properties": { "name": "Дом географа П. В. Виттенбурга", "type_2": "Нет", "fact": "Интеллигенция", "type": "Дом", "type_3": "3", "description": null, "id": 144 }, "geometry": { "type": "Point", "coordinates": [ 3356181.530357735231519, 8400226.153289835900068 ] } },
{ "type": "Feature", "properties": { "name": "Дом контр-адмирала П.Ф. Анжу", "type_2": "Да", "fact": "Военные", "type": "Дом", "type_3": "3", "description": null, "id": 150 }, "geometry": { "type": "Point", "coordinates": [ 3314057.609962990041822, 8380667.49503608699888 ] } },
{ "type": "Feature", "properties": { "name": "Дом генерала Павлова", "type_2": "Да", "fact": null, "type": "Дом", "type_3": "3", "description": null, "id": 180 }, "geometry": { "type": "Point", "coordinates": [ 3354609.083663576748222, 8399156.270290568470955 ] } },
{ "type": "Feature", "properties": { "name": "Дом заведующего конюшней Стенбок-Фреморов М.И. Гололобова", "type_2": "Да", "fact": "Чиновники", "type": "Дом", "type_3": "3", "description": null, "id": 188 }, "geometry": { "type": "Point", "coordinates": [ 3356022.212112016510218, 8399638.338375026360154 ] } },
{ "type": "Feature", "properties": { "name": "Жилой дом начала XX века", "type_2": "Да", "fact": null, "type": "Дом", "type_3": "3", "description": null, "id": 196 }, "geometry": { "type": "Point", "coordinates": [ 3355861.36150222690776, 8400323.346658209338784 ] } },
{ "type": "Feature", "properties": { "name": "Дом Артура Хейна (ru)", "type_2": "Да", "fact": null, "type": "Дом", "type_3": "3", "description": null, "id": 205 }, "geometry": { "type": "Point", "coordinates": [ 3303201.747826266568154, 8443019.905640924349427 ] } },
{ "type": "Feature", "properties": { "name": "Дом управляющего Лахтинским имением Г. Ф. Корженевского ", "type_2": "Да", "fact": null, "type": "Дом", "type_3": "3", "description": null, "id": 216 }, "geometry": { "type": "Point", "coordinates": [ 3355641.763844830449671, 8398858.985999036580324 ] } },
{ "type": "Feature", "properties": { "name": "Дом генерал-полковника К. Д. Жукова", "type_2": "Нет", "fact": "Военные", "type": "Дом", "type_3": "3", "description": null, "id": 230 }, "geometry": { "type": "Point", "coordinates": [ 3336416.616745240055025, 8414893.483798500150442 ] } },
{ "type": "Feature", "properties": { "name": "Дом инженера Г.О. Гиргенсона", "type_2": "Да", "fact": "Инженеры", "type": "Дом", "type_3": "3", "description": null, "id": 236 }, "geometry": { "type": "Point", "coordinates": [ 3354969.783489402849227, 8399252.550065230578184 ] } },
{ "type": "Feature", "properties": { "name": "Дом присяжного поверенного Ю. М. Герценфельда", "type_2": "Руина", "fact": "Чиновники", "type": "Дом", "type_3": "3", "description": null, "id": 251 }, "geometry": { "type": "Point", "coordinates": [ 3336335.671215313952416, 8415742.522351389750838 ] } },
{ "type": "Feature", "properties": { "name": "Дом Мельникова", "type_2": "Да", "fact": null, "type": "Дом", "type_3": "3", "description": null, "id": 253 }, "geometry": { "type": "Point", "coordinates": [ 3313923.479556929320097, 8380679.073357990011573 ] } },
{ "type": "Feature", "properties": { "name": "Дом А.Г. Липпа", "type_2": "Да", "fact": null, "type": "Дом", "type_3": "3", "description": null, "id": 254 }, "geometry": { "type": "Point", "coordinates": [ 3355451.543851126916707, 8399446.522782530635595 ] } },
{ "type": "Feature", "properties": { "name": "Жилой дом начала XX века", "type_2": "Нет", "fact": null, "type": "Дом", "type_3": "3", "description": null, "id": 267 }, "geometry": { "type": "Point", "coordinates": [ 3355707.00783068081364, 8399708.98064742051065 ] } },
{ "type": "Feature", "properties": { "name": "«Полицейский» дом (ru)", "type_2": null, "fact": null, "type": "Дом", "type_3": null, "description": null, "id": 268 }, "geometry": { "type": "Point", "coordinates": [ 3318637.054681365843862, 8440556.845499431714416 ] } },
{ "type": "Feature", "properties": { "name": "Дом купца Полисадова", "type_2": "Да", "fact": "Купечество", "type": "Дом", "type_3": "3", "description": null, "id": 275 }, "geometry": { "type": "Point", "coordinates": [ 3313992.23697623796761, 8380708.998866912908852 ] } },
{ "type": "Feature", "properties": { "name": "Дом рабочего Сестрорецкого Оружейного завода Н.Ю. Олинейчака", "type_2": "Да", "fact": "Инженеры", "type": "Дом", "type_3": "3", "description": null, "id": 282 }, "geometry": { "type": "Point", "coordinates": [ 3336901.632943208795041, 8417516.149471942335367 ] } },
{ "type": "Feature", "properties": { "name": "Дом доктора медицины М. Д. Ильина", "type_2": "Нет", "fact": "Интеллигенция", "type": "Дом", "type_3": "3", "description": null, "id": 331 }, "geometry": { "type": "Point", "coordinates": [ 3336326.108968647196889, 8416115.672349227592349 ] } },
{ "type": "Feature", "properties": { "name": "Деревянный жилой дом начала XX века", "type_2": "Нет", "fact": null, "type": "Дом", "type_3": "3", "description": null, "id": 332 }, "geometry": { "type": "Point", "coordinates": [ 3336901.178035639226437, 8417322.961585378274322 ] } },
{ "type": "Feature", "properties": { "name": "Дом начальника Стрелковой школы Л. В. Гапонова  ", "type_2": "Да", "fact": null, "type": "Дом", "type_3": "3", "description": null, "id": 333 }, "geometry": { "type": "Point", "coordinates": [ 3315150.013374924659729, 8379943.583419166505337 ] } },
{ "type": "Feature", "properties": { "name": "Дом вдовы коллежского советника О. В. Кондратьевой", "type_2": "Да", "fact": "Чиновники", "type": "Дом", "type_3": "3", "description": null, "id": 348 }, "geometry": { "type": "Point", "coordinates": [ 3333962.128960046451539, 8422664.151438910514116 ] } },
{ "type": "Feature", "properties": { "name": "Дом надворного советника П. А. Александрова", "type_2": "Да", "fact": "Чиновники", "type": "Дом", "type_3": "3", "description": null, "id": 349 }, "geometry": { "type": "Point", "coordinates": [ 3333801.893693174701184, 8422585.295500488951802 ] } },
{ "type": "Feature", "properties": { "name": "Дом начала XX века", "type_2": "Да", "fact": "Нет данных", "type": "Дом", "type_3": "3", "description": null, "id": 467 }, "geometry": { "type": "Point", "coordinates": [ 3335131.173117927275598, 8424138.928006077185273 ] } }
]
}
