{
"type": "FeatureCollection",
"name": "Усадьба",
"crs": { "type": "name", "properties": { "name": "urn:ogc:def:crs:EPSG::3857" } },
"xy_coordinate_resolution": 1e-15,
"features": [
{ "type": "Feature", "properties": { "name": "Усадьба адмирала С.К. Грейга «Санс-Эннуи»", "type_2": "Руина", "fact": "Военные", "type": "Усадьба", "type_3": "2", "description": "одна из самых интересных усадеб южного берега Финского залива. Её история начинается в петровское время: здесь жила сестра Петра I Мария Алексеевна, а в 1722 году по проекту Доменико Трезини был построен каменный дом. Позднее имение принадлежало Петру III, адмиралу Самуилу Грейгу и его потомкам. Усадьба расположена на краю Балтийского глинта с видом на залив и была окружена пейзажным парком с прудами. Она является ярким примером использования природного рельефа в дворянской архитектуре. Сегодня памятник находится в аварийном состоянии и постепенно разрушается.", "id": 1 }, "geometry": { "type": "Point", "coordinates": [ 3303542.167397934943438, 8383212.215670916251838 ] } },
{ "type": "Feature", "properties": { "name": "Усадьба купца К.Ф. Винберга", "type_2": "Нет", "fact": "Купечество", "type": "Усадьба", "type_3": "2", "description": "Усадьба купца 1-й гильдии Карла Фёдоровича Винберга была одной из многочисленных загородных резиденций Петергофской дороги. До наших дней от нее сохранилось немногое: на территории промышленного предприятия, занявшего место усадьбы, стоит одноэтажное каменное здание, предположительно бывшая оранжерея, а также отдельные деревья старого усадебного парка. Эти немногие остатки напоминают о некогда существовавшем поместье, которое было частью исторического ландшафта южного побережья Финского залива.", "id": 3 }, "geometry": { "type": "Point", "coordinates": [ 3305049.75597511511296, 8382996.645004702731967 ] } },
{ "type": "Feature", "properties": { "name": "Усадьба Ратьковых-Рожновых \"Дубки\"", "type_2": "Нет", "fact": "Дворяне", "type": "Усадьба", "type_3": "2", "description": "Усадьба Дубки — одна из старейших усадеб Петергофской дороги, история которой восходит к петровскому времени. Ее первым владельцем был воспитатель Петра I Никита Зотов, а последними — Ратьковы-Рожновы. До начала XXI века здесь сохранялись деревянный усадебный дом с галереей-верандой, фонтан, домик садовника и старинная дубовая роща. Однако главный дом был утрачен после расселения и пожара, от усадебного ансамбля сохранились лишь остатки фонтана, элементы гидросистемы и домик садовника. Особую ценность представляет исторический ландшафт нижней террасы с вековыми дубами, который сегодня находится под угрозой из-за развития портовой инфраструктуры.", "id": 4 }, "geometry": { "type": "Point", "coordinates": [ 3306055.813842674717307, 8382816.70582340657711 ] } },
{ "type": "Feature", "properties": { "name": "Усадьба Белая (Ново-Елизаветино)", "type_2": "Нет", "fact": null, "type": "Усадьба", "type_3": "2", "description": "Усадьба Белая — дворянская усадьба XVIII–XIX веков. Сохранила элементы исторической планировки и является памятником усадебной архитектуры.", "id": 6 }, "geometry": { "type": "Point", "coordinates": [ 3312338.260146319400519, 8343201.534025272354484 ] } },
{ "type": "Feature", "properties": { "name": "Усадьба князя А.Д. Львова", "type_2": "Да", "fact": "Дворянство", "type": "Усадьба", "type_3": "2", "description": "Усадьба князя А. Д. Львова — усадьба рода Львовых, характерный пример дворянского имения XIX века. Включала господский дом, парк и хозяйственные службы, отражая уклад жизни русской аристократии и её загородную культуру.", "id": 15 }, "geometry": { "type": "Point", "coordinates": [ 3343261.183303060941398, 8367313.983668853528798 ] } },
{ "type": "Feature", "properties": { "name": "Усадьба Шунгурово", "type_2": "Нет", "fact": null, "type": "Усадьба", "type_3": "2", "description": "Усадьба Шунгурово — историческая усадьба XIX века, связанная с жизнью помещичьих семей и развитием сельских имений региона.", "id": 17 }, "geometry": { "type": "Point", "coordinates": [ 3345341.330554900225252, 8346007.020636629313231 ] } },
{ "type": "Feature", "properties": { "name": "Усадьба художника И. Е. Репина", "type_2": "Да", "fact": "Интеллигенция", "type": "Усадьба", "type_3": "2", "description": "Музей-усадьба Ильи Репина Пенаты — усадьба художника Илья Репин. Здесь он жил и работал, создавая известные произведения. Усадьба стала центром художественной и культурной жизни начала XX века.", "id": 19 }, "geometry": { "type": "Point", "coordinates": [ 3328077.527906866278499, 8434518.780034020543098 ] } },
{ "type": "Feature", "properties": { "name": "Усадьба Беззаботное ", "type_2": "Нет", "fact": null, "type": "Усадьба", "type_3": "2", "description": "Усадьба Беззаботное — загородное дворянское имение XVIII–XIX веков. Известно своим парком и архитектурным ансамблем.", "id": 21 }, "geometry": { "type": "Point", "coordinates": [ 3337128.965091913938522, 8357781.779693465679884 ] } },
{ "type": "Feature", "properties": { "name": "Усадьба графа М.П. Толстого \"Марьино\"", "type_2": "Нет", "fact": "Дворянство", "type": "Усадьба", "type_3": "2", "description": "Усадьба Марьино — имение графов Михаил Толстой. Крупный усадебный ансамбль с дворцом, парком и хозяйственными зданиями XVIII–XIX вв., отражающий высокий уровень дворянской усадебной культуры.", "id": 23 }, "geometry": { "type": "Point", "coordinates": [ 3350666.050926589407027, 8367027.378097769804299 ] } },
{ "type": "Feature", "properties": { "name": "Усадьба графа Бурхарда Христофора фон Миниха", "type_2": "Да", "fact": "Дворянство", "type": "Усадьба", "type_3": "2", "description": "Усадьба Миниха — владение фельдмаршала Бурхард Христофор фон Миних. Имение связано с инженерными и военными проектами XVIII века, а также ранним развитием загородных резиденций Петербурга.", "id": 27 }, "geometry": { "type": "Point", "coordinates": [ 3353426.964160302653909, 8365620.350172275677323 ] } },
{ "type": "Feature", "properties": { "name": "Усадьба графа М. И. Воронцова \"Новознаменка\"", "type_2": "Да", "fact": "Дворянство", "type": "Усадьба", "type_3": "2", "description": "Новознаменка — усадьба графа Михаил Воронцов в стиле классицизма. Включала дворец, парк и пруды. Сегодня сохранилась частично, но остаётся важным памятником усадебной архитектуры Петербурга.", "id": 29 }, "geometry": { "type": "Point", "coordinates": [ 3354233.623341983184218, 8365430.678016502410173 ] } },
{ "type": "Feature", "properties": { "name": "Усадьба коллежского советника П. Г. Демидова", "type_2": "Да", "fact": "Чиновники", "type": "Усадьба", "type_3": "2", "description": "Мариоки — дачная усадьба Картавцева и писательницы Крестовской. Один из центров дачной культуры Серебряного века, связанный с литературной и художественной интеллигенцией.", "id": 31 }, "geometry": { "type": "Point", "coordinates": [ 3355598.604045900516212, 8365414.734845657832921 ] } },
{ "type": "Feature", "properties": { "name": "Усадьба Демидова-Эбсворта \"Литания\"", "type_2": "Нет", "fact": null, "type": "Усадьба", "type_3": "2", "description": "Усадьба Литания — усадьба Демидова-Эбсворта, созданная в XIX веке. Представляет интерес как памятник дворянской культуры и садово-паркового искусства.", "id": 32 }, "geometry": { "type": "Point", "coordinates": [ 3356947.669086851645261, 8365150.395736213773489 ] } },
{ "type": "Feature", "properties": { "name": "Усадьба графини Ю. Самойловой \"Графская Славянка\"", "type_2": "Да", "fact": null, "type": "Усадьба", "type_3": "2", "description": "Графская Славянка — усадьба графини Юлии Самойловой XIX века. Была известным культурным центром и местом встреч представителей российской аристократии.", "id": 36 }, "geometry": { "type": "Point", "coordinates": [ 3384961.176660899072886, 8322956.519433685578406 ] } },
{ "type": "Feature", "properties": { "name": "Усадьба Козловка", "type_2": "Нет", "fact": null, "type": "Усадьба", "type_3": "2", "description": "Усадьба Козловка — историческое усадебное имение с главным домом и хозяйственными постройками, отражающее быт русских помещиков XIX века.", "id": 46 }, "geometry": { "type": "Point", "coordinates": [ 3426683.779928654897958, 8324636.578315949998796 ] } },
{ "type": "Feature", "properties": { "name": "Усадьба Костино", "type_2": "Нет", "fact": null, "type": "Усадьба", "type_3": "2", "description": "Усадьба Костино — дворянская усадьба XVIII–XIX веков, сохранившая черты классической загородной архитектуры.", "id": 47 }, "geometry": { "type": "Point", "coordinates": [ 3429910.662231227848679, 8323815.518558958545327 ] } },
{ "type": "Feature", "properties": { "name": "Усадьба купца Иогана Бернгарда (мыза Христиановка)", "type_2": "Нет", "fact": "Купечество", "type": "Усадьба", "type_3": "2", "description": "Усадьба Христиановка — мыза купца Иогана Бернгарда. Связана с немецким купечеством Петербургской губернии, включала сельскохозяйственные угодья и жилые постройки.", "id": 49 }, "geometry": { "type": "Point", "coordinates": [ 3408484.739331135526299, 8401407.821743598207831 ] } },
{ "type": "Feature", "properties": { "name": "Усадьба «Мариоки» банкира Евгения Картавцева и писательницы Марии Крестовской", "type_2": "Нет", "fact": "Купечество", "type": "Усадьба", "type_3": "2", "description": "Мариоки — дачная усадьба Картавцева и писательницы Крестовской. Один из центров дачной культуры Серебряного века, связанный с литературной и художественной интеллигенцией.", "id": 54 }, "geometry": { "type": "Point", "coordinates": [ 3288668.442682780791074, 8444240.228933023288846 ] } },
{ "type": "Feature", "properties": { "name": "Усадьба вдовы обер-офицера М.М. Бежануцо (Полторка)", "type_2": "Нет", "fact": "Военные", "type": "Усадьба", "type_3": "2", "description": "Усадьба Бежануцо (Полторка) — малоизвестное и плохо документированное дворянское имение, связанное с вдовой обер-офицера М. М. Бежануцо. Предположительно находилось в районе Ораниенбаума (Ломоносова) и относилось к кругу небольших частных усадеб XIX века.\n\nСегодня от усадьбы, по имеющимся данным, либо не сохранилось значительных построек, либо они находятся в руинированном и трудно идентифицируемом состоянии.", "id": 64 }, "geometry": { "type": "Point", "coordinates": [ 3355645.347185976337641, 8400464.503001969307661 ] } },
{ "type": "Feature", "properties": { "name": "Усадьба купца Роберта Кенша", "type_2": "Нет", "fact": "Купечество", "type": "Усадьба", "type_3": "2", "description": "Усадьба Кенша — купеческое имение XIX века. Представляло собой небольшую усадьбу с домом и хозяйственными постройками, отражая экономический рост купечества региона.", "id": 74 }, "geometry": { "type": "Point", "coordinates": [ 3410864.886060444172472, 8402285.28041659668088 ] } },
{ "type": "Feature", "properties": { "name": "Усадьба графини Е.И.Лопухиной (Левашовых, Вяземских) \"Осиновая роща\"", "type_2": "Руина", "fact": "Дворянство", "type": "Усадьба", "type_3": "2", "description": "Осиновая роща — усадьба Лопухиных–Левашовых–Вяземских. Крупный парковый комплекс с дворцом и прудами. Является примером загородной резиденции высшей знати Санкт-Петербургской губернии.", "id": 75 }, "geometry": { "type": "Point", "coordinates": [ 3368064.401280324440449, 8424678.809869127348065 ] } },
{ "type": "Feature", "properties": { "name": "Усадьба Михайловская дача Вел. Кн. Александра и Константина Павловичей", "type_2": "Нет", "fact": "Романовы", "type": "Усадьба", "type_3": "2", "description": "Михайловская дача — великокняжеская резиденция Романовых. Крупный дворцово-парковый ансамбль XIX века, использовавшийся как загородная императорская дача.", "id": 82 }, "geometry": { "type": "Point", "coordinates": [ 3386928.107726228889078, 8328497.348631941713393 ] } },
{ "type": "Feature", "properties": { "name": "Усадьба графа А. В. Стенбок-Фермора . Охотничий замок", "type_2": "Да", "fact": "Дворянство", "type": "Усадьба", "type_3": "2", "description": "Усадьба Стенбок-Фермора — охотничий замок графов Стенбок-Ферморов. Построен в неоготическом стиле, использовался как загородная резиденция и центр охотничьих угодий, характерных для аристократии XIX века.", "id": 84 }, "geometry": { "type": "Point", "coordinates": [ 3354180.544708271510899, 8397518.971013700589538 ] } },
{ "type": "Feature", "properties": { "name": "Усадьба канцлера Головкина «Рощинское» - Усадьба Зубовых «Отрада»", "type_2": "Руина", "fact": "Дворянство", "type": "Усадьба", "type_3": "2", "description": "Рощинское (Отрада) — усадьба, связанная с канцлером Головкиным и позже семьёй Зубовых. Имение включало дворец и парк, являлось типичным примером загородной резиденции российской знати XVIII–XIX веков.", "id": 88 }, "geometry": { "type": "Point", "coordinates": [ 3308245.915815179236233, 8382867.554325915873051 ] } },
{ "type": "Feature", "properties": { "name": "Усадьба адмирала Н.С. Мордвинова", "type_2": "Нет", "fact": "Военные", "type": "Усадьба", "type_3": "2", "description": "Усадьба Мордвинова — имение адмирала Н. С. Мордвинова XVIII–XIX вв. Представляло собой загородную дворянскую резиденцию с парком и хозяйственными постройками. Связано с государственной службой и развитием прибрежных территорий Финского залива.", "id": 95 }, "geometry": { "type": "Point", "coordinates": [ 3320331.991666921414435, 8377206.111170805059373 ] } },
{ "type": "Feature", "properties": { "name": "Усадьба инженера, советника П.А. Авенариуса", "type_2": "Да", "fact": "Инженеры", "type": "Усадьба", "type_3": "2", "description": "Усадьба Авенариуса — имение инженера П. А. Авенариуса. Связано с развитием дачной и инженерной культуры конца XIX века, включало жилой дом и элементы благоустроенного паркового пространства.", "id": 97 }, "geometry": { "type": "Point", "coordinates": [ 3336992.352773564867675, 8413053.939236681908369 ] } },
{ "type": "Feature", "properties": { "name": "Усадьба князя В.М. Дондукова-Корсакова", "type_2": "Нет", "fact": "Дворянство", "type": "Усадьба", "type_3": "2", "description": "Усадьба Дондукова-Корсакова — княжеское имение XIX века, принадлежавшее роду Дондуковых-Корсаковых. Использовалось как загородная резиденция и отражало статус одной из влиятельных дворянских семей Российской империи.", "id": 101 }, "geometry": { "type": "Point", "coordinates": [ 3319193.145216831471771, 8377775.951657119207084 ] } },
{ "type": "Feature", "properties": { "name": "Усадьба графа И. А. Мусина-Пушкина", "type_2": "Нет", "fact": "Дворянство", "type": "Усадьба", "type_3": "2", "description": "Усадьба Мусина-Пушкина — имение графского рода Мусиных-Пушкиных. Представляло собой классическую дворянскую усадьбу с парком и господским домом, связанную с культурной и административной элитой России.", "id": 102 }, "geometry": { "type": "Point", "coordinates": [ 3338108.632916262838989, 8370205.926688812673092 ] } },
{ "type": "Feature", "properties": { "name": "Усадьба А.П. Кожевникова (М.Б. Юнкер)", "type_2": "Да", "fact": null, "type": "Усадьба", "type_3": "2", "description": "Усадьба А. П. Кожевникова — усадебный комплекс, принадлежавший семье Кожевниковых и позднее М. Б. Юнкер. Представляет историческую и архитектурную ценность.", "id": 111 }, "geometry": { "type": "Point", "coordinates": [ 3325557.374151036608964, 8375536.849399856291711 ] } },
{ "type": "Feature", "properties": { "name": "Усадьба купца Н. Н. Беллей", "type_2": "Да", "fact": "Купечество", "type": "Усадьба", "type_3": "2", "description": "Усадьба Беллей — усадьба купца Н. Н. Беллея. Построена в конце XIX века, сочетала жилую и хозяйственную функции, характерные для купеческих загородных владений.", "id": 112 }, "geometry": { "type": "Point", "coordinates": [ 3326205.441587840206921, 8370148.094351202249527 ] } },
{ "type": "Feature", "properties": { "name": "Усадьба Белозёрова (главное здание)", "type_2": "Да", "fact": null, "type": "Усадьба", "type_3": "2", "description": "Усадьба Белозёрова — главное здание усадьбы купца Белозёрова. Является образцом провинциальной усадебной архитектуры конца XIX века.", "id": 115 }, "geometry": { "type": "Point", "coordinates": [ 3387509.57730109943077, 8328792.989491635002196 ] } },
{ "type": "Feature", "properties": { "name": "Усадьба врача Петра 1 Р.К. Арескина", "type_2": "Нет", "fact": "Интеллигенция", "type": "Усадьба", "type_3": "2", "description": "Усадьба Арескина — имение врача Роберт Арескин. Связано с медицинской службой при дворе Петра I и ранним этапом формирования дворянских загородных резиденций Петербургского региона.", "id": 133 }, "geometry": { "type": "Point", "coordinates": [ 3340055.989296506159008, 8368849.548631496727467 ] } },
{ "type": "Feature", "properties": { "name": "Усадьба В.А. Шаховской «Монкальм»", "type_2": "Нет", "fact": null, "type": "Усадьба", "type_3": "2", "description": "Усадьба Монкальм — усадьба княгини В. А. Шаховской XVIII–XIX веков. Историческое дворянское имение, известное своим парком и архитектурным ансамблем.", "id": 139 }, "geometry": { "type": "Point", "coordinates": [ 3339767.852233079727739, 8369072.589289247058332 ] } },
{ "type": "Feature", "properties": { "name": "Усадьба Лапино (Вильповицы) Иоганна-Бурхарда Фельтена", "type_2": "Руина", "fact": null, "type": "Усадьба", "type_3": "2", "description": "Усадьба Лапино — усадьба, принадлежавшая архитектору Иоганн-Бурхард Фельтен. Является памятником усадебной архитектуры и связана с историей дворянских владений региона.", "id": 175 }, "geometry": { "type": "Point", "coordinates": [ 3305015.557636333629489, 8344986.857082617469132 ] } },
{ "type": "Feature", "properties": { "name": "Усадьба Оржицких (Красная)", "type_2": "Нет", "fact": "Дворянство", "type": "Усадьба", "type_3": "2", "description": "Усадьба Оржицких (Красная) — небольшое дворянское имение XIX века. Включало усадебный дом, хозяйственные постройки и парк. Сегодня частично утрачено, но сохраняет историческое значение как пример провинциальной усадьбы.", "id": 319 }, "geometry": { "type": "Point", "coordinates": [ 3307791.574804127682, 8345683.093315553851426 ] } },
{ "type": "Feature", "properties": { "name": "Усадьба Софиевка купца Г. Ф. Эбергардта", "type_2": "Нет", "fact": "Купечество", "type": "Усадьба", "type_3": "2", "description": "Усадьба Софиевка — дачное имение купца Г. Ф. Эбергардта конца XIX века. Представляло собой загородную усадьбу с жилым домом, хозяйственными постройками и небольшим парком. Является примером купеческой дачной архитектуры эпохи расцвета пригородов Петербурга, связанных с отдыхом и сезонным проживанием горожан.", "id": 322 }, "geometry": { "type": "Point", "coordinates": [ 3409269.215172766707838, 8401345.833189353346825 ] } },
{ "type": "Feature", "properties": { "name": "Усадьба барона К.Г. Подменера", "type_2": "Да", "fact": "Дворянство", "type": "Усадьба", "type_3": "2", "description": "Усадьба Подменера — баронская усадьба К. Г. Подменера. Построена в конце XIX века, сочетала жилой дом и парк. Является примером усадебной архитектуры позднего периода Российской империи.", "id": 462 }, "geometry": { "type": "Point", "coordinates": [ 3291046.37755881389603, 8443449.985070008784533 ] } }
]
}
